{
 "type": "FeatureCollection",
 "crs": {
  "type": "name",
  "properties": {
   "name": "EPSG:2248"
  }
 },
 "kealee": {
  "siteId": "s",
  "modelRevision": 4,
  "horizontalDatum": "NAD83",
  "verticalDatum": null,
  "note": "Coordinates are in EPSG:2248, NOT WGS84 degrees. Reproject before combining with lat/long data."
 },
 "features": [
  {
   "type": "Feature",
   "geometry": {
    "type": "Polygon",
    "coordinates": [
     [
      [
       1326382.7,
       464763.1
      ],
      [
       1326447.7,
       464763.1
      ],
      [
       1326447.7,
       464863.1
      ],
      [
       1326382.7,
       464863.1
      ],
      [
       1326382.7,
       464763.1
      ]
     ]
    ]
   },
   "properties": {
    "id": "pc",
    "kind": "Parcel",
    "sourceId": "s1",
    "reliabilityLevel": 1,
    "crs": "EPSG:2248",
    "revision": 1
   }
  },
  {
   "type": "Feature",
   "geometry": {
    "type": "Polygon",
    "coordinates": [
     [
      [
       1326392.7,
       464783.1
      ],
      [
       1326422.7,
       464783.1
      ],
      [
       1326422.7,
       464813.1
      ],
      [
       1326392.7,
       464813.1
      ],
      [
       1326392.7,
       464783.1
      ]
     ]
    ]
   },
   "properties": {
    "id": "bex",
    "kind": "Building",
    "sourceId": "s1",
    "reliabilityLevel": 1,
    "crs": "EPSG:2248",
    "revision": 1
   }
  },
  {
   "type": "Feature",
   "geometry": {
    "type": "Polygon",
    "coordinates": [
     [
      [
       1326392.7,
       464783.1
      ],
      [
       1326430.7,
       464783.1
      ],
      [
       1326430.7,
       464825.1
      ],
      [
       1326392.7,
       464825.1
      ],
      [
       1326392.7,
       464783.1
      ]
     ]
    ]
   },
   "properties": {
    "id": "bnew",
    "kind": "Building",
    "sourceId": "s1",
    "reliabilityLevel": 1,
    "crs": "EPSG:2248",
    "revision": 1
   }
  },
  {
   "type": "Feature",
   "geometry": {
    "type": "Polygon",
    "coordinates": [
     [
      [
       1326390.7,
       464788.1
      ],
      [
       1326439.7,
       464788.1
      ],
      [
       1326439.7,
       464843.1
      ],
      [
       1326390.7,
       464843.1
      ],
      [
       1326390.7,
       464788.1
      ]
     ]
    ]
   },
   "properties": {
    "id": "sb",
    "kind": "Setback",
    "sourceId": "s1",
    "reliabilityLevel": 1,
    "crs": "EPSG:2248",
    "revision": 1
   }
  },
  {
   "type": "Feature",
   "geometry": {
    "type": "Polygon",
    "coordinates": [
     [
      [
       1326382.7,
       464853.1
      ],
      [
       1326447.7,
       464853.1
      ],
      [
       1326447.7,
       464863.1
      ],
      [
       1326382.7,
       464863.1
      ],
      [
       1326382.7,
       464853.1
      ]
     ]
    ]
   },
   "properties": {
    "id": "es",
    "kind": "Easement",
    "sourceId": "s1",
    "reliabilityLevel": 1,
    "crs": "EPSG:2248",
    "revision": 1
   }
  },
  {
   "type": "Feature",
   "geometry": {
    "type": "Polygon",
    "coordinates": [
     [
      [
       1326385.7,
       464775.1
      ],
      [
       1326442.7,
       464775.1
      ],
      [
       1326442.7,
       464845.1
      ],
      [
       1326385.7,
       464845.1
      ],
      [
       1326385.7,
       464775.1
      ]
     ]
    ]
   },
   "properties": {
    "id": "lod",
    "kind": "LimitOfDisturbance",
    "sourceId": "s1",
    "reliabilityLevel": 1,
    "crs": "EPSG:2248",
    "revision": 1
   }
  },
  {
   "type": "Feature",
   "geometry": {
    "type": "Polygon",
    "coordinates": [
     [
      [
       1326392.7,
       464783.1
      ],
      [
       1326422.7,
       464783.1
      ],
      [
       1326422.7,
       464813.1
      ],
      [
       1326392.7,
       464813.1
      ],
      [
       1326392.7,
       464783.1
      ]
     ]
    ]
   },
   "properties": {
    "id": "demo-1",
    "kind": "DemolitionFeature",
    "sourceId": "design",
    "reliabilityLevel": 1,
    "crs": "EPSG:2248",
    "revision": 1,
    "action": "Remove existing structure",
    "protectDuringDemolition": "Adjacent structures and utilities"
   }
  },
  {
   "type": "Feature",
   "geometry": {
    "type": "Polygon",
    "coordinates": [
     [
      [
       1326385.424941753,
       464767.2922180815
      ],
      [
       1326444.2094993193,
       464766.6800006981
      ],
      [
       1326444.9750582469,
       464858.9077819185
      ],
      [
       1326384.688037188,
       464858.51222187345
      ],
      [
       1326385.424941753,
       464767.2922180815
      ]
     ]
    ]
   },
   "properties": {
    "id": "grade-2",
    "kind": "ProposedFeature",
    "sourceId": "design",
    "reliabilityLevel": 1,
    "crs": "EPSG:2248",
    "revision": 1,
    "type": "Graded area",
    "contourIntervalFt": 1,
    "note": "Positive drainage away from structure at 2% minimum for the first 10 ft."
   }
  },
  {
   "type": "Feature",
   "geometry": {
    "type": "Point",
    "coordinates": [
     1326408.7,
     464803.1
    ]
   },
   "properties": {
    "id": "ffe-3",
    "kind": "SpotElevation",
    "sourceId": "design",
    "reliabilityLevel": 1,
    "crs": "EPSG:2248",
    "revision": 1,
    "label": "FFE",
    "note": "Finished floor elevation to be set above the adjacent grade per code."
   }
  },
  {
   "type": "Feature",
   "geometry": {
    "type": "LineString",
    "coordinates": [
     [
      1326378.7,
      464763.1
     ],
     [
      1326403.9,
      464799.9
     ]
    ]
   },
   "properties": {
    "id": "util-4",
    "kind": "Utility",
    "sourceId": "design",
    "reliabilityLevel": 1,
    "crs": "EPSG:2248",
    "revision": 1,
    "type": "Water service",
    "note": "Record information. Field verification required before excavation — call Miss Utility."
   }
  },
  {
   "type": "Feature",
   "geometry": {
    "type": "LineString",
    "coordinates": [
     [
      1326382.7,
      464763.1
     ],
     [
      1326407.9,
      464799.9
     ]
    ]
   },
   "properties": {
    "id": "util-5",
    "kind": "Utility",
    "sourceId": "design",
    "reliabilityLevel": 1,
    "crs": "EPSG:2248",
    "revision": 1,
    "type": "Sanitary lateral",
    "note": "Record information. Field verification required before excavation — call Miss Utility."
   }
  },
  {
   "type": "Feature",
   "geometry": {
    "type": "LineString",
    "coordinates": [
     [
      1326386.7,
      464763.1
     ],
     [
      1326411.9,
      464799.9
     ]
    ]
   },
   "properties": {
    "id": "util-6",
    "kind": "Utility",
    "sourceId": "design",
    "reliabilityLevel": 1,
    "crs": "EPSG:2248",
    "revision": 1,
    "type": "Storm drain",
    "note": "Record information. Field verification required before excavation — call Miss Utility."
   }
  },
  {
   "type": "Feature",
   "geometry": {
    "type": "Polygon",
    "coordinates": [
     [
      [
       1326388.7,
       464769.1
      ],
      [
       1326404.1919333849,
       464769.1
      ],
      [
       1326404.1919333849,
       464784.59193338477
      ],
      [
       1326388.7,
       464784.59193338477
      ],
      [
       1326388.7,
       464769.1
      ]
     ]
    ]
   },
   "properties": {
    "id": "swm-7",
    "kind": "SWMPractice",
    "sourceId": "design",
    "reliabilityLevel": 1,
    "crs": "EPSG:2248",
    "revision": 1,
    "practice": "Environmental Site Design — micro-bioretention",
    "requiredVolumeCf": 192,
    "footprintSqFt": 240,
    "pondingDepthFt": 2
   }
  },
  {
   "type": "Feature",
   "geometry": {
    "type": "Polygon",
    "coordinates": [
     [
      [
       1326382.7,
       464763.1
      ],
      [
       1326447.7,
       464763.1
      ],
      [
       1326447.7,
       464863.1
      ],
      [
       1326382.7,
       464863.1
      ],
      [
       1326382.7,
       464763.1
      ]
     ]
    ]
   },
   "properties": {
    "id": "da-8",
    "kind": "DrainageArea",
    "sourceId": "design",
    "reliabilityLevel": 1,
    "crs": "EPSG:2248",
    "revision": 1,
    "areaAcres": 0.1492,
    "percentImpervious": 33.8,
    "compositeC": 0.486
   }
  },
  {
   "type": "Feature",
   "geometry": {
    "type": "Polygon",
    "coordinates": [
     [
      [
       1326385.7,
       464775.1
      ],
      [
       1326442.7,
       464775.1
      ],
      [
       1326442.7,
       464845.1
      ],
      [
       1326385.7,
       464845.1
      ],
      [
       1326385.7,
       464775.1
      ]
     ]
    ]
   },
   "properties": {
    "id": "esc-9",
    "kind": "ProposedFeature",
    "sourceId": "design",
    "reliabilityLevel": 1,
    "crs": "EPSG:2248",
    "revision": 1,
    "type": "Silt fence / super silt fence",
    "note": "Perimeter control on the down-gradient limit of disturbance."
   }
  },
  {
   "type": "Feature",
   "geometry": {
    "type": "Polygon",
    "coordinates": [
     [
      [
       1326385.7,
       464759.1
      ],
      [
       1326415.7,
       464759.1
      ],
      [
       1326415.7,
       464775.1
      ],
      [
       1326385.7,
       464775.1
      ],
      [
       1326385.7,
       464759.1
      ]
     ]
    ]
   },
   "properties": {
    "id": "sce-10",
    "kind": "ProposedFeature",
    "sourceId": "design",
    "reliabilityLevel": 1,
    "crs": "EPSG:2248",
    "revision": 1,
    "type": "Stabilized construction entrance",
    "note": "Mountable berm, washrack where required."
   }
  },
  {
   "type": "Feature",
   "geometry": {
    "type": "Polygon",
    "coordinates": [
     [
      [
       1326386.7,
       464763.1
      ],
      [
       1326398.7,
       464763.1
      ],
      [
       1326423.9,
       464799.9
      ],
      [
       1326411.9,
       464799.9
      ],
      [
       1326386.7,
       464763.1
      ]
     ]
    ]
   },
   "properties": {
    "id": "drive-11",
    "kind": "Pavement",
    "sourceId": "design",
    "reliabilityLevel": 1,
    "crs": "EPSG:2248",
    "revision": 1,
    "type": "Driveway",
    "widthFt": 12,
    "surface": "Asphalt over compacted base"
   }
  },
  {
   "type": "Feature",
   "geometry": {
    "type": "Polygon",
    "coordinates": [
     [
      [
       1326380.7,
       464825.1
      ],
      [
       1326396.7,
       464825.1
      ],
      [
       1326396.7,
       464841.1
      ],
      [
       1326380.7,
       464841.1
      ],
      [
       1326380.7,
       464825.1
      ]
     ]
    ]
   },
   "properties": {
    "id": "tree-12",
    "kind": "Tree",
    "sourceId": "design",
    "reliabilityLevel": 1,
    "crs": "EPSG:2248",
    "revision": 1
   }
  },
  {
   "type": "Feature",
   "geometry": {
    "type": "Polygon",
    "coordinates": [
     [
      [
       1326420.7,
       464825.1
      ],
      [
       1326436.7,
       464825.1
      ],
      [
       1326436.7,
       464841.1
      ],
      [
       1326420.7,
       464841.1
      ],
      [
       1326420.7,
       464825.1
      ]
     ]
    ]
   },
   "properties": {
    "id": "tree-13",
    "kind": "Tree",
    "sourceId": "design",
    "reliabilityLevel": 1,
    "crs": "EPSG:2248",
    "revision": 1
   }
  },
  {
   "type": "Feature",
   "geometry": {
    "type": "Polygon",
    "coordinates": [
     [
      [
       1326400.7,
       464765.1
      ],
      [
       1326416.7,
       464765.1
      ],
      [
       1326416.7,
       464781.1
      ],
      [
       1326400.7,
       464781.1
      ],
      [
       1326400.7,
       464765.1
      ]
     ]
    ]
   },
   "properties": {
    "id": "tree-14",
    "kind": "Tree",
    "sourceId": "design",
    "reliabilityLevel": 1,
    "crs": "EPSG:2248",
    "revision": 1
   }
  }
 ]
}