{
 "type": "FeatureCollection",
 "features": [
  {
   "type": "Feature",
   "geometry": {
    "type": "Polygon",
    "coordinates": [
     [
      [
       -76.90131456869675,
       38.875419075891216
      ],
      [
       -76.90127315374309,
       38.87524356080578
      ],
      [
       -76.90168402349866,
       38.8751843519756
      ],
      [
       -76.90181467374326,
       38.87526439705459
      ],
      [
       -76.9019237714023,
       38.87533123648732
      ],
      [
       -76.90177157431673,
       38.87535318185952
      ],
      [
       -76.90152756153218,
       38.875388364969524
      ],
      [
       -76.90131456869675,
       38.875419075891216
      ]
     ]
    ]
   },
   "properties": {
    "id": "parcel",
    "kind": "Parcel",
    "sourceId": "gis1",
    "reliabilityLevel": 1,
    "revision": 1,
    "engineeringGeometry": {
     "crs": "EPSG:2248",
     "crsName": "NAD83 / Maryland State Plane (US survey feet)",
     "datum": "NAD83",
     "unit": "usSurveyFoot",
     "coordinates": [
      [
       1340428.105576616,
       440226.3383046008
      ],
      [
       1340439.9651329496,
       440162.4289836124
      ],
      [
       1340323.017532198,
       440140.7390663552
      ],
      [
       1340285.7912286946,
       440169.8512128519
      ],
      [
       1340254.7059890358,
       440194.16054744466
      ],
      [
       1340298.0264404528,
       440202.1995733663
      ],
      [
       1340367.4806978686,
       440215.08799902874
      ],
      [
       1340428.105576616,
       440226.3383046008
      ]
     ]
    }
   }
  },
  {
   "type": "Feature",
   "geometry": {
    "type": "LineString",
    "coordinates": [
     [
      -76.9019288598268,
      38.87539042056046
     ],
     [
      -76.90195199715126,
      38.8753903183748
     ],
     [
      -76.90196817425388,
      38.87539495146437
     ]
    ]
   },
   "properties": {
    "id": "ct-0",
    "kind": "Contour",
    "sourceId": "contours",
    "reliabilityLevel": 1,
    "revision": 1,
    "engineeringGeometry": {
     "crs": "EPSG:2248",
     "crsName": "NAD83 / Maryland State Plane (US survey feet)",
     "datum": "NAD83",
     "unit": "usSurveyFoot",
     "coordinates": [
      [
       1340253.2342071945,
       440215.71365393675,
       212
      ],
      [
       1340246.647278116,
       440215.6693626886,
       212
      ],
      [
       1340242.0400038639,
       440217.3517740209,
       212
      ]
     ]
    },
    "elevationFt": 212,
    "weight": "intermediate",
    "hidden": true
   }
  },
  {
   "type": "Feature",
   "geometry": {
    "type": "LineString",
    "coordinates": [
     [
      -76.90162775788095,
      38.875434241825516
     ],
     [
      -76.90164462851959,
      38.87542899512824
     ]
    ]
   },
   "properties": {
    "id": "ct-1",
    "kind": "Contour",
    "sourceId": "contours",
    "reliabilityLevel": 1,
    "revision": 1,
    "engineeringGeometry": {
     "crs": "EPSG:2248",
     "crsName": "NAD83 / Maryland State Plane (US survey feet)",
     "datum": "NAD83",
     "unit": "usSurveyFoot",
     "coordinates": [
      [
       1340338.9377759492,
       440231.7654591,
       212
      ],
      [
       1340334.1369325332,
       440229.8494524432,
       212
      ]
     ]
    },
    "elevationFt": 212,
    "weight": "intermediate",
    "hidden": true
   }
  },
  {
   "type": "Feature",
   "geometry": {
    "type": "LineString",
    "coordinates": [
     [
      -76.90164462851959,
      38.87542899512824
     ],
     [
      -76.90167904309527,
      38.87541829059575
     ],
     [
      -76.90169506791483,
      38.87541299543448
     ],
     [
      -76.90169777185328,
      38.87541190138796
     ],
     [
      -76.90170857865928,
      38.87540900077009
     ],
     [
      -76.9017369321196,
      38.87541038039514
     ],
     [
      -76.90176783388947,
      38.87542158672064
     ],
     [
      -76.90178009393425,
      38.87542954514605
     ],
     [
      -76.90178227177428,
      38.87543139370021
     ],
     [
      -76.90179645404444,
      38.87543769169026
     ],
     [
      -76.90181947637498,
      38.875421505832364
     ],
     [
      -76.90182652332268,
      38.875414052799286
     ],
     [
      -76.90184000264969,
      38.875402732460394
     ],
     [
      -76.90184419334636,
      38.87539986410397
     ],
     [
      -76.90185265689065,
      38.87539640118064
     ],
     [
      -76.9018870777951,
      38.87539363209389
     ],
     [
      -76.90191596298872,
      38.875390478193225
     ],
     [
      -76.9019288598268,
      38.87539042056046
     ]
    ]
   },
   "properties": {
    "id": "ct-2",
    "kind": "Contour",
    "sourceId": "contours",
    "reliabilityLevel": 1,
    "revision": 1,
    "engineeringGeometry": {
     "crs": "EPSG:2248",
     "crsName": "NAD83 / Maryland State Plane (US survey feet)",
     "datum": "NAD83",
     "unit": "usSurveyFoot",
     "coordinates": [
      [
       1340334.1369325332,
       440229.8494524432,
       212
      ],
      [
       1340324.3436450323,
       440225.94033953967,
       212
      ],
      [
       1340319.7836147812,
       440224.00694444374,
       212
      ],
      [
       1340319.0142593672,
       440223.60766702396,
       212
      ],
      [
       1340315.9388061997,
       440222.5479578608,
       212
      ],
      [
       1340307.866315776,
       440223.0417232759,
       212
      ],
      [
       1340299.0644961086,
       440227.1135655266,
       212
      ],
      [
       1340295.5710647842,
       440230.0082447726,
       212
      ],
      [
       1340294.9503311152,
       440230.68081560923,
       212
      ],
      [
       1340290.9103129492,
       440232.9701811038,
       212
      ],
      [
       1340284.3624257825,
       440227.06829002715,
       212
      ],
      [
       1340282.3591489473,
       440224.3517600219,
       212
      ],
      [
       1340278.5261513721,
       440220.22479978227,
       212
      ],
      [
       1340277.334224625,
       440219.17887010187,
       212
      ],
      [
       1340274.9260929513,
       440217.9150931159,
       212
      ],
      [
       1340265.12788421,
       440216.89606628113,
       212
      ],
      [
       1340256.9057877837,
       440215.73858827964,
       212
      ],
      [
       1340253.2342071945,
       440215.71365393675,
       212
      ]
     ]
    },
    "elevationFt": 212,
    "weight": "intermediate",
    "hidden": false
   }
  },
  {
   "type": "Feature",
   "geometry": {
    "type": "LineString",
    "coordinates": [
     [
      -76.901283788113,
      38.87521285474509
     ],
     [
      -76.90127914053338,
      38.8752110959795
     ],
     [
      -76.90127677656042,
      38.87520469261007
     ],
     [
      -76.9012695746108,
      38.8751908802433
     ],
     [
      -76.90124228816686,
      38.875170507189424
     ],
     [
      -76.90123562798522,
      38.87516659911683
     ],
     [
      -76.90121759496769,
      38.875149926426765
     ],
     [
      -76.90121473872526,
      38.87513367375261
     ],
     [
      -76.9012249410562,
      38.875122870496874
     ]
    ]
   },
   "properties": {
    "id": "ct-3",
    "kind": "Contour",
    "sourceId": "contours",
    "reliabilityLevel": 1,
    "revision": 1,
    "engineeringGeometry": {
     "crs": "EPSG:2248",
     "crsName": "NAD83 / Maryland State Plane (US survey feet)",
     "datum": "NAD83",
     "unit": "usSurveyFoot",
     "coordinates": [
      [
       1340436.9497190379,
       440151.2426542794,
       210
      ],
      [
       1340438.2735352837,
       440150.6035479379,
       210
      ],
      [
       1340438.9490588722,
       440148.2721877869,
       210
      ],
      [
       1340441.0048290316,
       440143.2439826094,
       210
      ],
      [
       1340448.781060201,
       440135.8325801168,
       210
      ],
      [
       1340450.678694201,
       440134.41132310504,
       210
      ],
      [
       1340455.819103861,
       440128.34473418153,
       210
      ],
      [
       1340456.6386560323,
       440122.4264389447,
       210
      ],
      [
       1340453.738399368,
       440118.4887827633,
       210
      ]
     ]
    },
    "elevationFt": 210,
    "weight": "index",
    "hidden": false
   }
  },
  {
   "type": "Feature",
   "geometry": {
    "type": "LineString",
    "coordinates": [
     [
      -76.90124485160263,
      38.87512854100935
     ],
     [
      -76.90125577579276,
      38.87513823247823
     ],
     [
      -76.90128185258467,
      38.87516581663398
     ],
     [
      -76.90129176430789,
      38.875174314531016
     ],
     [
      -76.90130208327116,
      38.87518833131904
     ],
     [
      -76.9013002139356,
      38.875201743251075
     ],
     [
      -76.90129409596203,
      38.8752107482848
     ],
     [
      -76.90129352150333,
      38.87521114867324
     ],
     [
      -76.901283788113,
      38.87521285474509
     ]
    ]
   },
   "properties": {
    "id": "ct-4",
    "kind": "Contour",
    "sourceId": "contours",
    "reliabilityLevel": 1,
    "revision": 1,
    "engineeringGeometry": {
     "crs": "EPSG:2248",
     "crsName": "NAD83 / Maryland State Plane (US survey feet)",
     "datum": "NAD83",
     "unit": "usSurveyFoot",
     "coordinates": [
      [
       1340448.0678070318,
       440120.5478337824,
       210
      ],
      [
       1340444.953968121,
       440124.0740734416,
       210
      ],
      [
       1340437.5192717009,
       440134.1121111092,
       210
      ],
      [
       1340434.6941461232,
       440137.2039684427,
       210
      ],
      [
       1340431.7509105345,
       440142.3056642842,
       210
      ],
      [
       1340432.277812372,
       440147.19082511164,
       210
      ],
      [
       1340434.0159978713,
       440150.47231460136,
       210
      ],
      [
       1340434.1793833612,
       440150.6183116995,
       210
      ],
      [
       1340436.9497190379,
       440151.2426542794,
       210
      ]
     ]
    },
    "elevationFt": 210,
    "weight": "index",
    "hidden": false
   }
  },
  {
   "type": "Feature",
   "geometry": {
    "type": "LineString",
    "coordinates": [
     [
      -76.90182297479652,
      38.87521066530745
     ],
     [
      -76.90181993532849,
      38.875210218637946
     ],
     [
      -76.90181260452289,
      38.87520371111036
     ],
     [
      -76.90181195042082,
      38.875202530459596
     ]
    ]
   },
   "properties": {
    "id": "ct-5",
    "kind": "Contour",
    "sourceId": "contours",
    "reliabilityLevel": 1,
    "revision": 1,
    "engineeringGeometry": {
     "crs": "EPSG:2248",
     "crsName": "NAD83 / Maryland State Plane (US survey feet)",
     "datum": "NAD83",
     "unit": "usSurveyFoot",
     "coordinates": [
      [
       1340283.449041783,
       440150.27972968185,
       214
      ],
      [
       1340284.3145256147,
       440150.11798460135,
       214
      ],
      [
       1340286.4040883735,
       440147.750207198,
       214
      ],
      [
       1340286.5907677854,
       440147.32041801594,
       214
      ]
     ]
    },
    "elevationFt": 214,
    "weight": "intermediate",
    "hidden": false
   }
  },
  {
   "type": "Feature",
   "geometry": {
    "type": "LineString",
    "coordinates": [
     [
      -76.90161675286443,
      38.87518302603908
     ],
     [
      -76.90161853604307,
      38.87518441753787
     ],
     [
      -76.90162750912008,
      38.87518751317722
     ],
     [
      -76.90163702486068,
      38.87517565172084
     ],
     [
      -76.90163027503529,
      38.87516820599546
     ],
     [
      -76.90162141118563,
      38.87516613110034
     ],
     [
      -76.90161055949481,
      38.875173191752914
     ],
     [
      -76.90161675286443,
      38.87518302603908
     ]
    ]
   },
   "properties": {
    "id": "ct-6",
    "kind": "Contour",
    "sourceId": "contours",
    "reliabilityLevel": 1,
    "revision": 1,
    "engineeringGeometry": {
     "crs": "EPSG:2248",
     "crsName": "NAD83 / Maryland State Plane (US survey feet)",
     "datum": "NAD83",
     "unit": "usSurveyFoot",
     "coordinates": [
      [
       1340342.1693967807,
       440140.2767969538,
       210
      ],
      [
       1340341.6611957038,
       440140.78302952665,
       210
      ],
      [
       1340339.1054265297,
       440141.90769919247,
       210
      ],
      [
       1340336.4010356222,
       440137.5848731995,
       210
      ],
      [
       1340338.325572455,
       440134.8752329417,
       210
      ],
      [
       1340340.849845614,
       440134.12228169054,
       210
      ],
      [
       1340343.9364536225,
       440136.6970796952,
       210
      ],
      [
       1340342.1693967807,
       440140.2767969538,
       210
      ]
     ]
    },
    "elevationFt": 210,
    "weight": "index",
    "hidden": false
   }
  },
  {
   "type": "Feature",
   "geometry": {
    "type": "LineString",
    "coordinates": [
     [
      -76.9016042472968,
      38.87528463929523
     ],
     [
      -76.9016161387518,
      38.87529159749485
     ],
     [
      -76.9016138685464,
      38.8753091043138
     ],
     [
      -76.90160993016556,
      38.87530950907642
     ],
     [
      -76.90159435878618,
      38.87529269798786
     ],
     [
      -76.9016042472968,
      38.87528463929523
     ]
    ]
   },
   "properties": {
    "id": "ct-7",
    "kind": "Contour",
    "sourceId": "contours",
    "reliabilityLevel": 1,
    "revision": 1,
    "engineeringGeometry": {
     "crs": "EPSG:2248",
     "crsName": "NAD83 / Maryland State Plane (US survey feet)",
     "datum": "NAD83",
     "unit": "usSurveyFoot",
     "coordinates": [
      [
       1340345.6897309537,
       440177.2878777763,
       210
      ],
      [
       1340342.3016143693,
       440179.81838452676,
       210
      ],
      [
       1340342.9410487833,
       440186.19501219917,
       210
      ],
      [
       1340344.062109526,
       440186.34363395337,
       210
      ],
      [
       1340348.501733201,
       440180.225864019,
       210
      ],
      [
       1340345.6897309537,
       440177.2878777763,
       210
      ]
     ]
    },
    "elevationFt": 210,
    "weight": "index",
    "hidden": false
   }
  },
  {
   "type": "Feature",
   "geometry": {
    "type": "LineString",
    "coordinates": [
     [
      -76.90156591061475,
      38.87547614184247
     ],
     [
      -76.90157777409821,
      38.875465801186905
     ],
     [
      -76.90157949231128,
      38.87546416670907
     ],
     [
      -76.90159483732785,
      38.87545294255904
     ],
     [
      -76.9016192182279,
      38.87543772899115
     ],
     [
      -76.9016262072068,
      38.87543472427049
     ],
     [
      -76.90162775788095,
      38.875434241825516
     ]
    ]
   },
   "properties": {
    "id": "ct-8",
    "kind": "Contour",
    "sourceId": "contours",
    "reliabilityLevel": 1,
    "revision": 1,
    "engineeringGeometry": {
     "crs": "EPSG:2248",
     "crsName": "NAD83 / Maryland State Plane (US survey feet)",
     "datum": "NAD83",
     "unit": "usSurveyFoot",
     "coordinates": [
      [
       1340356.528620031,
       440247.0442999475,
       212
      ],
      [
       1340353.1552672065,
       440243.27462243766,
       212
      ],
      [
       1340352.6667511144,
       440242.67882310506,
       212
      ],
      [
       1340348.3025866144,
       440238.5863116058,
       212
      ],
      [
       1340341.367561117,
       440233.0380943484,
       212
      ],
      [
       1340339.3790480339,
       440231.9416398471,
       212
      ],
      [
       1340338.9377759492,
       440231.7654591,
       212
      ]
     ]
    },
    "elevationFt": 212,
    "weight": "intermediate",
    "hidden": false
   }
  },
  {
   "type": "Feature",
   "geometry": {
    "type": "LineString",
    "coordinates": [
     [
      -76.90120114924106,
      38.87541430102881
     ],
     [
      -76.90120286698505,
      38.875414675429866
     ],
     [
      -76.90126354564379,
      38.875414572703875
     ],
     [
      -76.90128651531587,
      38.875416541540076
     ],
     [
      -76.90132144436858,
      38.87541884658187
     ],
     [
      -76.90134241316055,
      38.8754176814948
     ],
     [
      -76.90136611766647,
      38.875412446916634
     ],
     [
      -76.90138985659739,
      38.875403146870575
     ],
     [
      -76.90140420298849,
      38.87540406612975
     ],
     [
      -76.90144795941663,
      38.87542569350193
     ],
     [
      -76.9014667129507,
      38.87542808484208
     ],
     [
      -76.90152742355451,
      38.87541987264198
     ],
     [
      -76.90153104263796,
      38.8754195279692
     ],
     [
      -76.90153992503895,
      38.87541820131391
     ],
     [
      -76.90154094670089,
      38.875417755358484
     ],
     [
      -76.901554952638,
      38.875408173217245
     ],
     [
      -76.90157522814397,
      38.87538995009373
     ],
     [
      -76.90158441620048,
      38.875384251014
     ],
     [
      -76.90161743091666,
      38.875371623827604
     ],
     [
      -76.90162430720011,
      38.87537178276307
     ],
     [
      -76.90165208938299,
      38.87538294955697
     ],
     [
      -76.90165906861668,
      38.87538283021747
     ],
     [
      -76.90166731285338,
      38.875380460742896
     ],
     [
      -76.90167291768705,
      38.8753783493883
     ],
     [
      -76.90169396304162,
      38.87537178736861
     ],
     [
      -76.90171005002638,
      38.87536820475491
     ],
     [
      -76.90173323686967,
      38.87536142832885
     ],
     [
      -76.90175286936271,
      38.875351504975455
     ],
     [
      -76.90175836836411,
      38.875343392129935
     ],
     [
      -76.90175812861675,
      38.87534174969644
     ],
     [
      -76.90175589333049,
      38.87532805774658
     ],
     [
      -76.90176052711367,
      38.87530469384812
     ],
     [
      -76.90175114898656,
      38.87527185033082
     ],
     [
      -76.90173436138082,
      38.875257838950084
     ],
     [
      -76.90172611912138,
      38.87525292693913
     ],
     [
      -76.90170823124194,
      38.87524875360623
     ],
     [
      -76.90169434175654,
      38.87525080303771
     ],
     [
      -76.90166114556075,
      38.87525049943191
     ],
     [
      -76.90163745991,
      38.87524127379778
     ],
     [
      -76.90161317009512,
      38.8752264164973
     ],
     [
      -76.90160472768112,
      38.875220411589844
     ],
     [
      -76.90159579322895,
      38.87521019664051
     ],
     [
      -76.90159436844091,
      38.87520881355096
     ],
     [
      -76.90157996463397,
      38.87519607434127
     ],
     [
      -76.90155717842066,
      38.87517059828996
     ],
     [
      -76.9015415533336,
      38.87516016960218
     ],
     [
      -76.90152394296582,
      38.87514950051552
     ],
     [
      -76.90150629712495,
      38.87513698287202
     ],
     [
      -76.90146530051273,
      38.875114799328095
     ]
    ]
   },
   "properties": {
    "id": "ct-9",
    "kind": "Contour",
    "sourceId": "contours",
    "reliabilityLevel": 1,
    "revision": 1,
    "engineeringGeometry": {
     "crs": "EPSG:2248",
     "crsName": "NAD83 / Maryland State Plane (US survey feet)",
     "datum": "NAD83",
     "unit": "usSurveyFoot",
     "coordinates": [
      [
       1340460.3968506127,
       440224.6342397778,
       210
      ],
      [
       1340459.9076783664,
       440224.7700662671,
       210
      ],
      [
       1340442.6331066175,
       440224.7139640238,
       210
      ],
      [
       1340436.093093453,
       440225.42393636104,
       210
      ],
      [
       1340426.1482314428,
       440226.2526748527,
       210
      ],
      [
       1340420.1790832935,
       440225.82190143754,
       210
      ],
      [
       1340413.4327056964,
       440223.90819136624,
       210
      ],
      [
       1340406.6781260334,
       440220.5138411907,
       210
      ],
      [
       1340402.5934885452,
       440220.84422110836,
       210
      ],
      [
       1340390.1279622875,
       440228.70739435963,
       210
      ],
      [
       1340384.7880779486,
       440229.5725501066,
       210
      ],
      [
       1340367.50760071,
       440226.5630416996,
       210
      ],
      [
       1340366.4774190292,
       440226.436401525,
       210
      ],
      [
       1340363.9492088656,
       440225.9505101118,
       210
      ],
      [
       1340363.6585270304,
       440225.7877807738,
       210
      ],
      [
       1340359.6749392012,
       440222.2936932694,
       210
      ],
      [
       1340353.9098588615,
       440215.650661949,
       210
      ],
      [
       1340351.2963470337,
       440213.57225402165,
       210
      ],
      [
       1340341.9023369537,
       440208.96333935915,
       210
      ],
      [
       1340339.9446637006,
       440209.0191135136,
       210
      ],
      [
       1340332.0309656255,
       440213.0775043674,
       210
      ],
      [
       1340330.0440929553,
       440213.0319007821,
       210
      ],
      [
       1340327.697969036,
       440212.1664169462,
       210
      ],
      [
       1340326.1031559526,
       440211.3957491823,
       210
      ],
      [
       1340320.1143227783,
       440208.9994285256,
       210
      ],
      [
       1340315.5359198733,
       440207.6897198502,
       210
      ],
      [
       1340308.937507867,
       440205.2146591989,
       210
      ],
      [
       1340303.3522171958,
       440201.5945876916,
       210
      ],
      [
       1340301.7898843766,
       440198.63822877983,
       210
      ],
      [
       1340301.8587818726,
       440198.0401328586,
       210
      ],
      [
       1340302.5005128654,
       440193.05425045703,
       210
      ],
      [
       1340301.1904761214,
       440184.5437687795,
       210
      ],
      [
       1340303.8732135394,
       440172.5851312718,
       210
      ],
      [
       1340308.6579808737,
       440167.4873724419,
       210
      ],
      [
       1340311.0064013726,
       440165.70095869247,
       210
      ],
      [
       1340316.1005512914,
       440164.18652602873,
       210
      ],
      [
       1340320.0539554497,
       440164.9371807005,
       210
      ],
      [
       1340329.5047239508,
       440164.83678719687,
       210
      ],
      [
       1340336.2514296174,
       440161.48410360416,
       210
      ],
      [
       1340343.1723475293,
       440156.08057111985,
       210
      ],
      [
       1340345.5781826207,
       440153.89619227865,
       210
      ],
      [
       1340348.125749701,
       440150.17868002795,
       210
      ],
      [
       1340348.5319168717,
       440149.67540020315,
       210
      ],
      [
       1340352.6375517056,
       440145.04023885744,
       210
      ],
      [
       1340359.1345859435,
       440135.7689319452,
       210
      ],
      [
       1340363.5870048662,
       440131.9756324449,
       210
      ],
      [
       1340368.6047113647,
       440128.0953908562,
       210
      ],
      [
       1340373.6332446116,
       440123.54192227754,
       210
      ],
      [
       1340385.3133393642,
       440115.47533735377,
       210
      ]
     ]
    },
    "elevationFt": 210,
    "weight": "index",
    "hidden": false
   }
  },
  {
   "type": "Feature",
   "geometry": {
    "type": "LineString",
    "coordinates": [
     [
      -76.9018932590296,
      38.87512062953398
     ],
     [
      -76.90189261838428,
      38.87513648378496
     ],
     [
      -76.9018921383253,
      38.8751528849809
     ],
     [
      -76.90188758895958,
      38.875172723067124
     ],
     [
      -76.90188233732721,
      38.87518114781754
     ],
     [
      -76.90187090073492,
      38.87519706056031
     ],
     [
      -76.90186444606931,
      38.875207929179524
     ],
     [
      -76.90185772147368,
      38.875210608933344
     ],
     [
      -76.90182834670453,
      38.87521031579317
     ],
     [
      -76.90182297479652,
      38.87521066530745
     ]
    ]
   },
   "properties": {
    "id": "ct-10",
    "kind": "Contour",
    "sourceId": "contours",
    "reliabilityLevel": 1,
    "revision": 1,
    "engineeringGeometry": {
     "crs": "EPSG:2248",
     "crsName": "NAD83 / Maryland State Plane (US survey feet)",
     "datum": "NAD83",
     "unit": "usSurveyFoot",
     "coordinates": [
      [
       1340263.4750003642,
       440117.4674593552,
       214
      ],
      [
       1340263.651181114,
       440123.2417260181,
       214
      ],
      [
       1340263.7814301983,
       440129.21513928653,
       214
      ],
      [
       1340265.0688292037,
       440136.4415027696,
       214
      ],
      [
       1340266.5606241198,
       440139.5113785266,
       214
      ],
      [
       1340269.8102895294,
       440145.3102514435,
       214
      ],
      [
       1340271.6436192035,
       440149.2705453579,
       214
      ],
      [
       1340273.5570012014,
       440150.2485617723,
       214
      ],
      [
       1340281.919845367,
       440150.15079293394,
       214
      ],
      [
       1340283.449041783,
       440150.27972968185,
       214
      ]
     ]
    },
    "elevationFt": 214,
    "weight": "intermediate",
    "hidden": false
   }
  },
  {
   "type": "Feature",
   "geometry": {
    "type": "LineString",
    "coordinates": [
     [
      -76.90152354558099,
      38.875373994081855
     ],
     [
      -76.90152315787151,
      38.87535848669068
     ],
     [
      -76.90152048835607,
      38.87535050299489
     ],
     [
      -76.90150791461676,
      38.87533189184132
     ],
     [
      -76.90151489376721,
      38.87531011901283
     ],
     [
      -76.90153871089215,
      38.87530507997685
     ],
     [
      -76.90154138759655,
      38.87530618306037
     ],
     [
      -76.90157023580304,
      38.87533651344677
     ],
     [
      -76.90157535047784,
      38.875357236182786
     ],
     [
      -76.90156250356023,
      38.875375411517915
     ],
     [
      -76.90155399745736,
      38.87538298401767
     ],
     [
      -76.90153937870001,
      38.875389869427224
     ],
     [
      -76.90152354558099,
      38.875373994081855
     ]
    ]
   },
   "properties": {
    "id": "ct-11",
    "kind": "Contour",
    "sourceId": "contours",
    "reliabilityLevel": 1,
    "revision": 1,
    "engineeringGeometry": {
     "crs": "EPSG:2248",
     "crsName": "NAD83 / Maryland State Plane (US survey feet)",
     "datum": "NAD83",
     "unit": "usSurveyFoot",
     "coordinates": [
      [
       1340368.6296457045,
       440209.85539793957,
       210
      ],
      [
       1340368.7461152787,
       440204.20777144824,
       210
      ],
      [
       1340369.5092371225,
       440201.30095312424,
       210
      ],
      [
       1340373.0961722007,
       440194.5266884429,
       210
      ],
      [
       1340371.1178297072,
       440186.59494577534,
       210
      ],
      [
       1340364.3392999452,
       440184.7524297795,
       210
      ],
      [
       1340363.5768342877,
       440185.15334760095,
       210
      ],
      [
       1340355.3521131962,
       440196.1907271061,
       210
      ],
      [
       1340353.887877279,
       440203.7363156986,
       210
      ],
      [
       1340357.5381324564,
       440210.3596620341,
       210
      ],
      [
       1340359.9567627897,
       440213.12015519856,
       210
      ],
      [
       1340364.1158751932,
       440215.6322892677,
       210
      ],
      [
       1340368.6296457045,
       440209.85539793957,
       210
      ]
     ]
    },
    "elevationFt": 210,
    "weight": "index",
    "hidden": false
   }
  },
  {
   "type": "Feature",
   "geometry": {
    "type": "LineString",
    "coordinates": [
     [
      -76.90181195042082,
      38.875202530459596
     ],
     [
      -76.90180746826195,
      38.87519444615372
     ],
     [
      -76.90179289389906,
      38.875170794047655
     ],
     [
      -76.90178665734186,
      38.875153805260915
     ],
     [
      -76.90178418905415,
      38.87514696670811
     ],
     [
      -76.90176867872171,
      38.87512849994925
     ]
    ]
   },
   "properties": {
    "id": "ct-12",
    "kind": "Contour",
    "sourceId": "contours",
    "reliabilityLevel": 1,
    "revision": 1,
    "engineeringGeometry": {
     "crs": "EPSG:2248",
     "crsName": "NAD83 / Maryland State Plane (US survey feet)",
     "datum": "NAD83",
     "unit": "usSurveyFoot",
     "coordinates": [
      [
       1340286.5907677854,
       440147.32041801594,
       214
      ],
      [
       1340287.869964706,
       440144.37751053466,
       214
      ],
      [
       1340292.0284209526,
       440135.76794769685,
       214
      ],
      [
       1340293.8105696102,
       440129.5825926037,
       214
      ],
      [
       1340294.5159487836,
       440127.09276819084,
       214
      ],
      [
       1340298.9388402065,
       440120.3719811089,
       214
      ]
     ]
    },
    "elevationFt": 214,
    "weight": "intermediate",
    "hidden": true
   }
  },
  {
   "type": "Feature",
   "geometry": {
    "type": "LineString",
    "coordinates": [
     [
      -76.90196817425388,
      38.87539495146437
     ],
     [
      -76.9019867854706,
      38.87540028114246
     ],
     [
      -76.90199585222697,
      38.875402326452274
     ]
    ]
   },
   "properties": {
    "id": "ct-13",
    "kind": "Contour",
    "sourceId": "contours",
    "reliabilityLevel": 1,
    "revision": 1,
    "engineeringGeometry": {
     "crs": "EPSG:2248",
     "crsName": "NAD83 / Maryland State Plane (US survey feet)",
     "datum": "NAD83",
     "unit": "usSurveyFoot",
     "coordinates": [
      [
       1340242.0400038639,
       440217.3517740209,
       212
      ],
      [
       1340236.7394895356,
       440219.28713760735,
       212
      ],
      [
       1340234.1574736978,
       440220.0292621086,
       212
      ]
     ]
    },
    "elevationFt": 212,
    "weight": "intermediate",
    "hidden": false
   }
  },
  {
   "type": "Feature",
   "geometry": {
    "type": "LineString",
    "coordinates": [
     [
      -76.90201385043292,
      38.87512896626015
     ],
     [
      -76.90199419035075,
      38.87514226688474
     ],
     [
      -76.9019890440874,
      38.875146982968936
     ],
     [
      -76.90198085971178,
      38.87515529986414
     ],
     [
      -76.90195830399381,
      38.8751708213261
     ],
     [
      -76.90195032092615,
      38.87518191567871
     ],
     [
      -76.9019377818081,
      38.87520765566981
     ],
     [
      -76.90193339132047,
      38.875221743827545
     ],
     [
      -76.9019300879538,
      38.87523219350332
     ],
     [
      -76.90189842766827,
      38.8752488540772
     ],
     [
      -76.90189115532556,
      38.875251784707196
     ],
     [
      -76.90188301573056,
      38.87525349847383
     ],
     [
      -76.90185449789291,
      38.87525018193939
     ],
     [
      -76.90182361461079,
      38.87524065932248
     ],
     [
      -76.9017960999441,
      38.87522521380274
     ],
     [
      -76.90178763484028,
      38.875219774617186
     ],
     [
      -76.90177295224724,
      38.8752127969714
     ],
     [
      -76.90175575639826,
      38.87520569739772
     ],
     [
      -76.90174403431458,
      38.87519792769761
     ],
     [
      -76.9017352248671,
      38.87518897944558
     ],
     [
      -76.90171991882539,
      38.875174472045295
     ],
     [
      -76.90169546311873,
      38.87516208742873
     ],
     [
      -76.90168716585167,
      38.87515612498882
     ],
     [
      -76.90167883292507,
      38.875149279694874
     ],
     [
      -76.90166341345372,
      38.87514016191906
     ],
     [
      -76.90166155149878,
      38.87513906943362
     ],
     [
      -76.9016506262604,
      38.87513093465389
     ],
     [
      -76.90163245824765,
      38.87511347998477
     ]
    ]
   },
   "properties": {
    "id": "ct-14",
    "kind": "Contour",
    "sourceId": "contours",
    "reliabilityLevel": 1,
    "revision": 1,
    "engineeringGeometry": {
     "crs": "EPSG:2248",
     "crsName": "NAD83 / Maryland State Plane (US survey feet)",
     "datum": "NAD83",
     "unit": "usSurveyFoot",
     "coordinates": [
      [
       1340229.1404233687,
       440120.4667971992,
       212
      ],
      [
       1340234.7322757079,
       440125.3168530963,
       212
      ],
      [
       1340236.1955273715,
       440127.0360097667,
       212
      ],
      [
       1340238.5222943674,
       440130.06749977777,
       212
      ],
      [
       1340244.9376358683,
       440135.7272653593,
       212
      ],
      [
       1340247.206004037,
       440139.77023627993,
       212
      ],
      [
       1340250.7657082065,
       440149.14849835436,
       212
      ],
      [
       1340252.0101282876,
       440154.28070593986,
       212
      ],
      [
       1340252.9464781072,
       440158.0874568615,
       212
      ],
      [
       1340261.9533498676,
       440164.1648725319,
       212
      ],
      [
       1340264.0225714566,
       440165.2344241844,
       212
      ],
      [
       1340266.3391678757,
       440165.86106336216,
       212
      ],
      [
       1340274.4592303592,
       440164.66191876866,
       212
      ],
      [
       1340283.2551445346,
       440161.20326427737,
       212
      ],
      [
       1340291.0943676946,
       440155.58647759754,
       212
      ],
      [
       1340293.506436377,
       440153.60813511244,
       212
      ],
      [
       1340297.6891707957,
       440151.0713947862,
       212
      ],
      [
       1340302.5874549572,
       440148.49101936514,
       212
      ],
      [
       1340305.9276713696,
       440145.6649095263,
       212
      ],
      [
       1340308.4391492833,
       440142.4086824531,
       212
      ],
      [
       1340312.8023295384,
       440137.12982160697,
       212
      ],
      [
       1340319.7695071956,
       440132.62687785836,
       212
      ],
      [
       1340322.1340037873,
       440130.4579189351,
       212
      ],
      [
       1340324.5089990315,
       440127.9674383689,
       212
      ],
      [
       1340328.9023629571,
       440124.65150010213,
       212
      ],
      [
       1340329.4328737108,
       440124.25419119425,
       212
      ],
      [
       1340332.5463845413,
       440121.2948795253,
       212
      ],
      [
       1340337.725508033,
       440114.9435142603,
       212
      ]
     ]
    },
    "elevationFt": 212,
    "weight": "intermediate",
    "hidden": false
   }
  },
  {
   "type": "Feature",
   "geometry": {
    "type": "Polygon",
    "coordinates": [
     [
      [
       -76.9013958292677,
       38.87538502196979
      ],
      [
       -76.90152246417237,
       38.875366763265156
      ],
      [
       -76.90180206938014,
       38.875326447036834
      ],
      [
       -76.90162133989183,
       38.87521572143474
      ],
      [
       -76.90136461029255,
       38.8752527177532
      ],
      [
       -76.9013958292677,
       38.87538502196979
      ]
     ]
    ]
   },
   "properties": {
    "id": "buildable-envelope",
    "kind": "ProposedFeature",
    "sourceId": "gis1",
    "reliabilityLevel": 1,
    "revision": 1,
    "engineeringGeometry": {
     "crs": "EPSG:2248",
     "crsName": "NAD83 / Maryland State Plane (US survey feet)",
     "datum": "NAD83",
     "unit": "usSurveyFoot",
     "coordinates": [
      [
       1340404.9848957993,
       440213.91096975014
      ],
      [
       1340368.9403530122,
       440207.22228819865
      ],
      [
       1340289.3552645668,
       440192.45349059463
      ],
      [
       1340340.8506789359,
       440152.1829547509
      ],
      [
       1340413.9246947719,
       440165.73577111436
      ],
      [
       1340404.9848957993,
       440213.91096975014
      ]
     ]
    },
    "label": "Buildable envelope",
    "setbacks": {
     "frontFt": 25,
     "sideFt": 8,
     "rearFt": 20,
     "maxFt": 25,
     "source": "Subtitle 27, Sec. 27-4202"
    }
   }
  },
  {
   "type": "Feature",
   "geometry": {
    "type": "Polygon",
    "coordinates": [
     [
      [
       -76.90138175469339,
       38.875310237554885
      ],
      [
       -76.90139600130807,
       38.875370613835884
      ],
      [
       -76.9015813866245,
       38.875343884016175
      ],
      [
       -76.9015671398583,
       38.87528350775753
      ],
      [
       -76.90138175469339,
       38.875310237554885
      ]
     ]
    ]
   },
   "properties": {
    "id": "proposed-building",
    "kind": "Building",
    "sourceId": "gis1",
    "reliabilityLevel": 1,
    "revision": 1,
    "engineeringGeometry": {
     "crs": "EPSG:2248",
     "crsName": "NAD83 / Maryland State Plane (US survey feet)",
     "datum": "NAD83",
     "unit": "usSurveyFoot",
     "coordinates": [
      [
       1340409.0212122856,
       440186.679037591
      ],
      [
       1340404.9415854982,
       440208.6635174942
      ],
      [
       1340352.1746874491,
       440198.8716437849
      ],
      [
       1340356.2543142366,
       440176.8871638817
      ],
      [
       1340409.0212122856,
       440186.679037591
      ]
     ]
    },
    "areaSqFt": 1200.0000000037253,
    "estimated": true,
    "address": "1005 ROLLINS AVENUE",
    "lotLabel": "1005 ROLLINS AVENUE",
    "garageSlabElevFt": null,
    "basementElevFt": null,
    "finishedFloorElevFt": null,
    "subFloorElevFt": null,
    "heightFt": 20,
    "storeys": 2
   }
  },
  {
   "type": "Feature",
   "geometry": {
    "type": "Polygon",
    "coordinates": [
     [
      [
       -76.90129524287906,
       38.8753371738802
      ],
      [
       -76.90130288867579,
       38.87536957647152
      ],
      [
       -76.90139270091666,
       38.87535662698836
      ],
      [
       -76.90138505508052,
       38.87532422440283
      ],
      [
       -76.90129524287906,
       38.8753371738802
      ]
     ]
    ]
   },
   "properties": {
    "id": "driveway",
    "kind": "Pavement",
    "sourceId": "gis1",
    "reliabilityLevel": 1,
    "revision": 1,
    "engineeringGeometry": {
     "crs": "EPSG:2248",
     "crsName": "NAD83 / Maryland State Plane (US survey feet)",
     "datum": "NAD83",
     "unit": "usSurveyFoot",
     "coordinates": [
      [
       1340433.6396966067,
       440196.5157850286
      ],
      [
       1340431.450253108,
       440208.3143585511
      ],
      [
       1340405.8866771425,
       440203.57056430384
      ],
      [
       1340408.0761206413,
       440191.7719907813
      ],
      [
       1340433.6396966067,
       440196.5157850286
      ]
     ]
    },
    "label": "PROPOSED DRIVEWAY  12' WIDE",
    "areaSqFt": 312,
    "note": "Longitudinal pitch 1% min to 12.5% max, lateral 1/8\" in 12\" to 1/2\" in 12\" away from the building. PGC Code Sec. 32-151, Table 4 — Site Slope Limitations.",
    "improvement": "Driveway",
    "impervious": true
   }
  },
  {
   "type": "Feature",
   "geometry": {
    "type": "Polygon",
    "coordinates": [
     [
      [
       -76.90139124230859,
       38.87534287688197
      ],
      [
       -76.90137397072962,
       38.87534536717236
      ],
      [
       -76.90138021482636,
       38.87537182928442
      ],
      [
       -76.90139748641151,
       38.87536933899313
      ],
      [
       -76.90139124230859,
       38.87534287688197
      ]
     ]
    ]
   },
   "properties": {
    "id": "walk",
    "kind": "Pavement",
    "sourceId": "gis1",
    "reliabilityLevel": 1,
    "revision": 1,
    "engineeringGeometry": {
     "crs": "EPSG:2248",
     "crsName": "NAD83 / Maryland State Plane (US survey feet)",
     "datum": "NAD83",
     "unit": "usSurveyFoot",
     "coordinates": [
      [
       1340406.307338037,
       440198.56326519034
      ],
      [
       1340411.2234103382,
       440199.47553331486
      ],
      [
       1340409.4353648142,
       440209.1110350249
      ],
      [
       1340404.5192925131,
       440208.1987669004
      ],
      [
       1340406.307338037,
       440198.56326519034
      ]
     ]
    },
    "label": "CONCRETE WALK  5' WIDE",
    "areaSqFt": 49.00000000069849,
    "note": "Leadwalk from the edge of the driveway to the stoop, 10 ft. Lateral pitch 48:1 max, longitudinal 12:1 max. PGC Code Sec. 32-151, Table 4 — Site Slope Limitations.",
    "improvement": "Walk",
    "impervious": true
   }
  },
  {
   "type": "Feature",
   "geometry": {
    "type": "Polygon",
    "coordinates": [
     [
      [
       -76.9013725121254,
       38.87533161706574
      ],
      [
       -76.90137760934545,
       38.87535321879001
      ],
      [
       -76.90139142661015,
       38.87535122655749
      ],
      [
       -76.90138632938607,
       38.875329624833796
      ],
      [
       -76.9013725121254,
       38.87533161706574
      ]
     ]
    ]
   },
   "properties": {
    "id": "stoop",
    "kind": "Pavement",
    "sourceId": "gis1",
    "reliabilityLevel": 1,
    "revision": 1,
    "engineeringGeometry": {
     "crs": "EPSG:2248",
     "crsName": "NAD83 / Maryland State Plane (US survey feet)",
     "datum": "NAD83",
     "unit": "usSurveyFoot",
     "coordinates": [
      [
       1340411.6440712325,
       440194.46823420137
      ],
      [
       1340410.1844422333,
       440202.33394988306
      ],
      [
       1340406.2515843925,
       440201.6041353835
      ],
      [
       1340407.7112133917,
       440193.7384197018
      ],
      [
       1340411.6440712325,
       440194.46823420137
      ]
     ]
    },
    "label": "CONCRETE STOOP  8' x 4'",
    "areaSqFt": 32,
    "note": "Front concrete stoop at the entrance, met by the leadwalk. Riser count and handrail per the architectural plans and the building code.",
    "improvement": "Stoop",
    "impervious": true
   }
  },
  {
   "type": "Feature",
   "geometry": {
    "type": "Polygon",
    "coordinates": [
     [
      [
       -76.90127315374309,
       38.87524356080578
      ],
      [
       -76.90131456869675,
       38.875419075891216
      ],
      [
       -76.90132493165622,
       38.87541758172257
      ],
      [
       -76.90128351667794,
       38.87524206664077
      ],
      [
       -76.90127315374309,
       38.87524356080578
      ]
     ]
    ]
   },
   "properties": {
    "id": "sidewalk",
    "kind": "Pavement",
    "sourceId": "gis1",
    "reliabilityLevel": 1,
    "revision": 1,
    "engineeringGeometry": {
     "crs": "EPSG:2248",
     "crsName": "NAD83 / Maryland State Plane (US survey feet)",
     "datum": "NAD83",
     "unit": "usSurveyFoot",
     "coordinates": [
      [
       1340439.9651329496,
       440162.4289836124
      ],
      [
       1340428.105576616,
       440226.3383046008
      ],
      [
       1340425.1559332353,
       440225.7909437261
      ],
      [
       1340437.015489569,
       440161.8816227377
      ],
      [
       1340439.9651329496,
       440162.4289836124
      ]
     ]
    },
    "label": "CONCRETE SIDEWALK  3' WIDE",
    "areaSqFt": 195.00116275250912,
    "note": "Public sidewalk across the frontage, inside the front property line. Whether it is to be built, reconstructed or waived is a DPW&T determination at street construction permit.",
    "improvement": "Sidewalk",
    "impervious": true
   }
  },
  {
   "type": "Feature",
   "geometry": {
    "type": "Polygon",
    "coordinates": [
     [
      [
       -76.90125933649594,
       38.87524555302436
      ],
      [
       -76.90130075141677,
       38.875421068114626
      ],
      [
       -76.90131456869675,
       38.875419075891216
      ],
      [
       -76.90127315374309,
       38.87524356080578
      ],
      [
       -76.90125933649594,
       38.87524555302436
      ]
     ]
    ]
   },
   "properties": {
    "id": "verge",
    "kind": "Surface",
    "sourceId": "gis1",
    "reliabilityLevel": 1,
    "revision": 1,
    "engineeringGeometry": {
     "crs": "EPSG:2248",
     "crsName": "NAD83 / Maryland State Plane (US survey feet)",
     "datum": "NAD83",
     "unit": "usSurveyFoot",
     "coordinates": [
      [
       1340443.8979907904,
       440163.15879811195
      ],
      [
       1340432.0384344568,
       440227.06811910035
      ],
      [
       1340428.105576616,
       440226.3383046008
      ],
      [
       1340439.9651329496,
       440162.4289836124
      ],
      [
       1340443.8979907904,
       440163.15879811195
      ]
     ]
    },
    "label": "PLANTING STRIP  4' WIDE  (STREET TREES)",
    "areaSqFt": 260.0015503168106,
    "note": "Landscaped strip between the sidewalk and the curb, in the strip dedicated to public use. Street tree species, spacing and clear distances are set by the Landscape Manual and by DPW&T; this shows the STRIP, not a planting schedule.",
    "improvement": "Verge",
    "impervious": false
   }
  },
  {
   "type": "Feature",
   "geometry": {
    "type": "Polygon",
    "coordinates": [
     [
      [
       -76.90125415502806,
       38.8752463001059
      ],
      [
       -76.90129556993658,
       38.875421815197996
      ],
      [
       -76.90130075141677,
       38.875421068114626
      ],
      [
       -76.90125933649594,
       38.87524555302436
      ],
      [
       -76.90125415502806,
       38.8752463001059
      ]
     ]
    ]
   },
   "properties": {
    "id": "curb",
    "kind": "Pavement",
    "sourceId": "gis1",
    "reliabilityLevel": 1,
    "revision": 1,
    "engineeringGeometry": {
     "crs": "EPSG:2248",
     "crsName": "NAD83 / Maryland State Plane (US survey feet)",
     "datum": "NAD83",
     "unit": "usSurveyFoot",
     "coordinates": [
      [
       1340445.372812481,
       440163.4324785493
      ],
      [
       1340433.5132561473,
       440227.3417995377
      ],
      [
       1340432.0384344568,
       440227.06811910035
      ],
      [
       1340443.8979907904,
       440163.15879811195
      ],
      [
       1340445.372812481,
       440163.4324785493
      ]
     ]
    },
    "label": "CURB AND GUTTER",
    "areaSqFt": 97.50058138370514,
    "note": "Curb and gutter at the street face of the planting strip, 4 ft outside the front property line, where the frontage meets the travelled way. Depressed through every driveway apron per DPW&T STD. 300.01 note 6.",
    "improvement": "Sidewalk",
    "impervious": true
   }
  },
  {
   "type": "Feature",
   "geometry": {
    "type": "Polygon",
    "coordinates": [
     [
      [
       -76.90128580137653,
       38.875380416424456
      ],
      [
       -76.90127433269393,
       38.875331812535606
      ],
      [
       -76.90130560582703,
       38.87533567971326
      ],
      [
       -76.90131325162832,
       38.875368082303915
      ],
      [
       -76.90128580137653,
       38.875380416424456
      ]
     ]
    ]
   },
   "properties": {
    "id": "apron",
    "kind": "Pavement",
    "sourceId": "gis1",
    "reliabilityLevel": 1,
    "revision": 1,
    "engineeringGeometry": {
     "crs": "EPSG:2248",
     "crsName": "NAD83 / Maryland State Plane (US survey feet)",
     "datum": "NAD83",
     "unit": "usSurveyFoot",
     "coordinates": [
      [
       1340436.3105717646,
       440212.2674968687
      ],
      [
       1340439.5947370129,
       440194.5696365849
      ],
      [
       1340430.6900532262,
       440195.9684241539
      ],
      [
       1340428.5006097273,
       440207.7669976764
      ],
      [
       1340436.3105717646,
       440212.2674968687
      ]
     ]
    },
    "label": "PROPOSED 18' DRIVEWAY APRON  PER DPW&T STANDARD",
    "areaSqFt": 127.50000000186265,
    "note": "Driveway apron at the front property line, at street level, between the curb and the driveway. DPW&T standard detail governs the depression, jointing and curb cut; the depressed curb section applies here per STD. 300.01 note 6.",
    "improvement": "Apron",
    "impervious": true
   }
  },
  {
   "type": "Feature",
   "geometry": {
    "type": "Polygon",
    "coordinates": [
     [
      [
       -76.9015813866245,
       38.875343884016175
      ],
      [
       -76.9015671398583,
       38.87528350775753
      ],
      [
       -76.90128351667794,
       38.87524206664077
      ],
      [
       -76.90125415502806,
       38.8752463001059
      ],
      [
       -76.90127433269393,
       38.875331812535606
      ],
      [
       -76.90129556993658,
       38.875421815197996
      ],
      [
       -76.90130075141677,
       38.875421068114626
      ],
      [
       -76.90131456869675,
       38.875419075891216
      ],
      [
       -76.90132493165622,
       38.87541758172257
      ],
      [
       -76.9015813866245,
       38.875343884016175
      ]
     ]
    ]
   },
   "properties": {
    "id": "lod",
    "kind": "LimitOfDisturbance",
    "sourceId": "gis1",
    "reliabilityLevel": 1,
    "revision": 1,
    "engineeringGeometry": {
     "crs": "EPSG:2248",
     "crsName": "NAD83 / Maryland State Plane (US survey feet)",
     "datum": "NAD83",
     "unit": "usSurveyFoot",
     "coordinates": [
      [
       1340352.1746874491,
       440198.8716437849
      ],
      [
       1340356.2543142366,
       440176.8871638817
      ],
      [
       1340437.015489569,
       440161.8816227377
      ],
      [
       1340445.372812481,
       440163.4324785493
      ],
      [
       1340439.5947370129,
       440194.5696365849
      ],
      [
       1340433.5132561473,
       440227.3417995377
      ],
      [
       1340432.0384344568,
       440227.06811910035
      ],
      [
       1340428.105576616,
       440226.3383046008
      ],
      [
       1340425.1559332353,
       440225.7909437261
      ],
      [
       1340352.1746874491,
       440198.8716437849
      ]
     ]
    },
    "note": "Limits of disturbance — proposed work plus a 10 ft working margin, clipped to the property line."
   }
  },
  {
   "type": "Feature",
   "geometry": {
    "type": "Polygon",
    "coordinates": [
     [
      [
       -76.90133055527448,
       38.87541339118129
      ],
      [
       -76.9012897641505,
       38.87524802057932
      ],
      [
       -76.90167512552907,
       38.875196188431644
      ],
      [
       -76.90179799425482,
       38.87526869640995
      ],
      [
       -76.9019062125589,
       38.87533094043437
      ],
      [
       -76.90175429996489,
       38.87535070334103
      ],
      [
       -76.90153688140569,
       38.87537672858902
      ],
      [
       -76.90133055527448,
       38.87541339118129
      ]
     ]
    ]
   },
   "properties": {
    "id": "grade-40",
    "kind": "ProposedFeature",
    "sourceId": "design",
    "reliabilityLevel": 1,
    "revision": 1,
    "engineeringGeometry": {
     "crs": "EPSG:2248",
     "crsName": "NAD83 / Maryland State Plane (US survey feet)",
     "datum": "NAD83",
     "unit": "usSurveyFoot",
     "coordinates": [
      [
       1340423.5565945467,
       440224.263030611
      ],
      [
       1340435.2345471005,
       440164.048106067
      ],
      [
       1340325.5460609847,
       440145.0525964843
      ],
      [
       1340290.538039227,
       440171.4221328912
      ],
      [
       1340259.704939313,
       440194.05809684633
      ],
      [
       1340302.945252786,
       440201.3021965044
      ],
      [
       1340364.8319923559,
       440210.84720203915
      ],
      [
       1340423.5565945467,
       440224.263030611
      ]
     ]
    },
    "type": "Graded area",
    "proposed": true,
    "contourIntervalFt": 2,
    "note": "Positive drainage away from structure at 2% minimum for the first 10 ft."
   }
  },
  {
   "type": "Feature",
   "geometry": {
    "type": "Point",
    "coordinates": [
     -76.90157798704055,
     38.875325405862824
    ]
   },
   "properties": {
    "id": "ffe-41",
    "kind": "SpotElevation",
    "sourceId": "design",
    "reliabilityLevel": 1,
    "revision": 1,
    "engineeringGeometry": {
     "crs": "EPSG:2248",
     "crsName": "NAD83 / Maryland State Plane (US survey feet)",
     "datum": "NAD83",
     "unit": "usSurveyFoot",
     "coordinates": [
      [
       1340353.149771804,
       440192.14299898257
      ]
     ]
    },
    "label": "FFE",
    "note": "Finished floor elevation to be set above the adjacent grade per code."
   }
  },
  {
   "type": "Feature",
   "geometry": {
    "type": "LineString",
    "coordinates": [
     [
      -76.90116291294171,
      38.875349282539254
     ],
     [
      -76.90138346428589,
      38.87531748270873
     ]
    ]
   },
   "properties": {
    "id": "util-42",
    "kind": "Utility",
    "sourceId": "design",
    "reliabilityLevel": 1,
    "revision": 1,
    "engineeringGeometry": {
     "crs": "EPSG:2248",
     "crsName": "NAD83 / Maryland State Plane (US survey feet)",
     "datum": "NAD83",
     "unit": "usSurveyFoot",
     "coordinates": [
      [
       1340471.30798338,
       440200.96648339863
      ],
      [
       1340408.531657071,
       440189.31717517937
      ]
     ]
    },
    "type": "Water service (WHC)",
    "size": "1\" COPPER FROM EX. 8\" MAIN",
    "sizeAtHouse": "1\" COPPER",
    "from": "frontage",
    "note": "Record information. Field verification required before excavation — call Miss Utility."
   }
  },
  {
   "type": "Feature",
   "geometry": {
    "type": "LineString",
    "coordinates": [
     [
      -76.90116903890681,
      38.87537524435167
     ],
     [
      -76.90138959032849,
      38.87534344450971
     ]
    ]
   },
   "properties": {
    "id": "util-43",
    "kind": "Utility",
    "sourceId": "design",
    "reliabilityLevel": 1,
    "revision": 1,
    "engineeringGeometry": {
     "crs": "EPSG:2248",
     "crsName": "NAD83 / Maryland State Plane (US survey feet)",
     "datum": "NAD83",
     "unit": "usSurveyFoot",
     "coordinates": [
      [
       1340469.5537438614,
       440210.41980975703
      ],
      [
       1340406.7774175524,
       440198.7705015378
      ]
     ]
    },
    "type": "Sanitary lateral (SHC)",
    "size": "4\" PVC TO EX. 8\" MAIN",
    "sizeAtHouse": "4\" PVC",
    "from": "frontage",
    "note": "Record information. Field verification required before excavation — call Miss Utility."
   }
  },
  {
   "type": "Feature",
   "geometry": {
    "type": "Polygon",
    "coordinates": [
     [
      [
       -76.90166292533856,
       38.87520080881186
      ],
      [
       -76.90161106276017,
       38.87520076512939
      ],
      [
       -76.90161100686366,
       38.87524130584142
      ],
      [
       -76.90166286947151,
       38.87524134952392
      ],
      [
       -76.90166292533856,
       38.87520080881186
      ]
     ]
    ]
   },
   "properties": {
    "id": "swm-44",
    "kind": "SWMPractice",
    "sourceId": "design",
    "reliabilityLevel": 1,
    "revision": 1,
    "engineeringGeometry": {
     "crs": "EPSG:2248",
     "crsName": "NAD83 / Maryland State Plane (US survey feet)",
     "datum": "NAD83",
     "unit": "usSurveyFoot",
     "coordinates": [
      [
       1340329.017532198,
       440146.7390663552
      ],
      [
       1340343.782355258,
       440146.7390663552
      ],
      [
       1340343.782355258,
       440161.5038894155
      ],
      [
       1340329.017532198,
       440161.5038894155
      ],
      [
       1340329.017532198,
       440146.7390663552
      ]
     ]
    },
    "practice": "Environmental Site Design — micro-bioretention",
    "requiredVolumeCf": 174,
    "footprintSqFt": 218,
    "pondingDepthFt": 2
   }
  },
  {
   "type": "Feature",
   "geometry": {
    "type": "Polygon",
    "coordinates": [
     [
      [
       -76.90131456869675,
       38.875419075891216
      ],
      [
       -76.90127315374309,
       38.87524356080578
      ],
      [
       -76.90168402349866,
       38.8751843519756
      ],
      [
       -76.90181467374326,
       38.87526439705459
      ],
      [
       -76.9019237714023,
       38.87533123648732
      ],
      [
       -76.90177157431673,
       38.87535318185952
      ],
      [
       -76.90152756153218,
       38.875388364969524
      ],
      [
       -76.90131456869675,
       38.875419075891216
      ]
     ]
    ]
   },
   "properties": {
    "id": "da-45",
    "kind": "DrainageArea",
    "sourceId": "design",
    "reliabilityLevel": 1,
    "revision": 1,
    "engineeringGeometry": {
     "crs": "EPSG:2248",
     "crsName": "NAD83 / Maryland State Plane (US survey feet)",
     "datum": "NAD83",
     "unit": "usSurveyFoot",
     "coordinates": [
      [
       1340428.105576616,
       440226.3383046008
      ],
      [
       1340439.9651329496,
       440162.4289836124
      ],
      [
       1340323.017532198,
       440140.7390663552
      ],
      [
       1340285.7912286946,
       440169.8512128519
      ],
      [
       1340254.7059890358,
       440194.16054744466
      ],
      [
       1340298.0264404528,
       440202.1995733663
      ],
      [
       1340367.4806978686,
       440215.08799902874
      ],
      [
       1340428.105576616,
       440226.3383046008
      ]
     ]
    },
    "areaAcres": 0.2203,
    "percentImpervious": 18.6,
    "compositeC": 0.38
   }
  },
  {
   "type": "Feature",
   "geometry": {
    "type": "Polygon",
    "coordinates": [
     [
      [
       -76.90158144721546,
       38.87529995180117
      ],
      [
       -76.90147606975822,
       38.875299862947
      ],
      [
       -76.90147600910238,
       38.875343795161925
      ],
      [
       -76.9015813866245,
       38.875343884016175
      ],
      [
       -76.90158144721546,
       38.87529995180117
      ]
     ]
    ]
   },
   "properties": {
    "id": "sce-47",
    "kind": "ProposedFeature",
    "sourceId": "design",
    "reliabilityLevel": 1,
    "revision": 1,
    "engineeringGeometry": {
     "crs": "EPSG:2248",
     "crsName": "NAD83 / Maryland State Plane (US survey feet)",
     "datum": "NAD83",
     "unit": "usSurveyFoot",
     "coordinates": [
      [
       1340352.1746874491,
       440182.8716437849
      ],
      [
       1340382.1746874491,
       440182.8716437849
      ],
      [
       1340382.1746874491,
       440198.8716437849
      ],
      [
       1340352.1746874491,
       440198.8716437849
      ],
      [
       1340352.1746874491,
       440182.8716437849
      ]
     ]
    },
    "type": "Stabilized construction entrance",
    "note": "Mountable berm, washrack where required."
   }
  },
  {
   "type": "Feature",
   "geometry": {
    "type": "Polygon",
    "coordinates": [
     [
      [
       -76.90129417152265,
       38.87532009465548
      ],
      [
       -76.90125904569375,
       38.87532006496158
      ],
      [
       -76.90125900770035,
       38.87534752259578
      ],
      [
       -76.90129413354276,
       38.87534755228969
      ],
      [
       -76.90129417152265,
       38.87532009465548
      ]
     ]
    ]
   },
   "properties": {
    "id": "street-tree-49",
    "kind": "Tree",
    "sourceId": "design",
    "reliabilityLevel": 1,
    "revision": 1,
    "engineeringGeometry": {
     "crs": "EPSG:2248",
     "crsName": "NAD83 / Maryland State Plane (US survey feet)",
     "datum": "NAD83",
     "unit": "usSurveyFoot",
     "coordinates": [
      [
       1340433.951427084,
       440190.295912231
      ],
      [
       1340443.951427084,
       440190.295912231
      ],
      [
       1340443.951427084,
       440200.295912231
      ],
      [
       1340433.951427084,
       440200.295912231
      ],
      [
       1340433.951427084,
       440190.295912231
      ]
     ]
    }
   }
  },
  {
   "type": "Feature",
   "geometry": {
    "type": "Polygon",
    "coordinates": [
     [
      [
       -76.90154303026772,
       38.87522576699511
      ],
      [
       -76.90150087932862,
       38.875225731450975
      ],
      [
       -76.90150083384827,
       38.87525868061264
      ],
      [
       -76.90154298480682,
       38.8752587161568
      ],
      [
       -76.90154303026772,
       38.87522576699511
      ]
     ]
    ]
   },
   "properties": {
    "id": "tree-50",
    "kind": "Tree",
    "sourceId": "design",
    "reliabilityLevel": 1,
    "revision": 1,
    "engineeringGeometry": {
     "crs": "EPSG:2248",
     "crsName": "NAD83 / Maryland State Plane (US survey feet)",
     "datum": "NAD83",
     "unit": "usSurveyFoot",
     "coordinates": [
      [
       1340363.1407684858,
       440155.8655528792
      ],
      [
       1340375.1407684858,
       440155.8655528792
      ],
      [
       1340375.1407684858,
       440167.8655528792
      ],
      [
       1340363.1407684858,
       440167.8655528792
      ],
      [
       1340363.1407684858,
       440155.8655528792
      ]
     ]
    }
   }
  }
 ],
 "kealee": {
  "siteId": "1005 ROLLINS AVENUE",
  "modelRevision": 8,
  "geoJsonCrs": "EPSG:4326 (RFC 7946, longitude first)",
  "sourceCrs": "EPSG:2248",
  "sourceCrsName": "NAD83 / Maryland State Plane (US survey feet)",
  "horizontalDatum": "NAD83",
  "verticalDatum": "NAVD88 (feet)",
  "transformer": "registry (proj4 + arcgis-geometry-service (https://sampleserver6.arcgisonline.com/arcgis/rest/services/Utilities/Geometry/GeometryServer))",
  "note": "Geometry is WGS84 per RFC 7946. Original engineering coordinates are preserved per feature under properties.engineeringGeometry."
 }
}