{
 "type": "FeatureCollection",
 "features": [
  {
   "type": "Feature",
   "geometry": {
    "type": "Polygon",
    "coordinates": [
     [
      [
       -77.11495634526023,
       39.066709808022885
      ],
      [
       -77.11500823929573,
       39.066676123254794
      ],
      [
       -77.11503512289515,
       39.066659379189325
      ],
      [
       -77.11505749950835,
       39.06664544346653
      ],
      [
       -77.11510720038623,
       39.06661553661799
      ],
      [
       -77.1151439808136,
       39.06659799470128
      ],
      [
       -77.11517714650599,
       39.06658217661518
      ],
      [
       -77.11517719754195,
       39.066582245670546
      ],
      [
       -77.11528803806539,
       39.06672845214221
      ],
      [
       -77.11541622102571,
       39.06689753445997
      ],
      [
       -77.11541627395064,
       39.06689760498365
      ],
      [
       -77.1153616983309,
       39.06697110030193
      ],
      [
       -77.11534862984549,
       39.06698871156169
      ],
      [
       -77.115312651746,
       39.06703706646774
      ],
      [
       -77.11531260093346,
       39.06703713562331
      ],
      [
       -77.11495634526023,
       39.066709808022885
      ]
     ]
    ]
   },
   "properties": {
    "id": "parcel",
    "kind": "Parcel",
    "sourceId": "gis1",
    "reliabilityLevel": 1,
    "revision": 1,
    "engineeringGeometry": {
     "crs": "EPSG:2248",
     "crsName": "NAD83 / Maryland State Plane (US survey feet)",
     "datum": "NAD83",
     "unit": "usSurveyFoot",
     "coordinates": [
      [
       1279694.1248182356,
       509900.53104667366
      ],
      [
       1279679.3752530515,
       509888.28124441206
      ],
      [
       1279671.7345895022,
       509882.1924902499
      ],
      [
       1279665.374867037,
       509877.12495456636
      ],
      [
       1279651.249707073,
       509866.25034321845
      ],
      [
       1279640.7986845225,
       509859.87455543876
      ],
      [
       1279631.3747710735,
       509854.12531490624
      ],
      [
       1279631.360312298,
       509854.15048390627
      ],
      [
       1279599.9569066614,
       509907.4402029067
      ],
      [
       1279563.6401923597,
       509969.0678200871
      ],
      [
       1279563.6251980662,
       509969.09352459013
      ],
      [
       1279579.1544665098,
       509995.8417376131
      ],
      [
       1279582.8730512857,
       510002.2512625605
      ],
      [
       1279593.110405147,
       510019.84974351525
      ],
      [
       1279593.1248639375,
       510019.8749125004
      ],
      [
       1279694.1248182356,
       509900.53104667366
      ]
     ]
    }
   }
  },
  {
   "type": "Feature",
   "geometry": {
    "type": "LineString",
    "coordinates": [
     [
      -77.11548765833844,
      39.06706079569232
     ],
     [
      -77.11546762352417,
      39.06706211277425
     ],
     [
      -77.11541821878367,
      39.06708217460563
     ],
     [
      -77.11541070503989,
      39.067089032436535
     ],
     [
      -77.11540441287956,
      39.06709771218229
     ]
    ]
   },
   "properties": {
    "id": "ct-0",
    "kind": "Contour",
    "sourceId": "contours",
    "reliabilityLevel": 1,
    "revision": 1,
    "engineeringGeometry": {
     "crs": "EPSG:2248",
     "crsName": "NAD83 / Maryland State Plane (US survey feet)",
     "datum": "NAD83",
     "unit": "usSurveyFoot",
     "coordinates": [
      [
       1279543.4325000048,
       510028.55500000715,
       340
      ],
      [
       1279549.1215000004,
       510029.0275000036,
       340
      ],
      [
       1279563.1580000073,
       510036.3164999932,
       340
      ],
      [
       1279565.2944999933,
       510038.811499998,
       340
      ],
      [
       1279567.0849999934,
       510041.9705000073,
       340
      ]
     ]
    },
    "elevationFt": 340,
    "weight": "index",
    "hidden": false
   }
  },
  {
   "type": "Feature",
   "geometry": {
    "type": "LineString",
    "coordinates": [
     [
      -77.11549186391045,
      39.06678749250803
     ],
     [
      -77.11548654216449,
      39.066794036549794
     ],
     [
      -77.11548378338044,
      39.06679882907729
     ],
     [
      -77.11547590422872,
      39.06680946530364
     ],
     [
      -77.11545988999293,
      39.06682604017991
     ],
     [
      -77.11545566845683,
      39.06683015322484
     ],
     [
      -77.11544726918649,
      39.06683932789718
     ],
     [
      -77.11543475351526,
      39.06685229426697
     ],
     [
      -77.1154180058216,
      39.06686725678415
     ],
     [
      -77.11540656597772,
      39.06688013285649
     ],
     [
      -77.1154008119455,
      39.066890514382344
     ],
     [
      -77.11539883664713,
      39.06689629457377
     ],
     [
      -77.11539136945245,
      39.066906869983676
     ],
     [
      -77.11538169859034,
      39.06691705905324
     ],
     [
      -77.11536456094042,
      39.0669369943399
     ],
     [
      -77.11535528494842,
      39.066947435619085
     ],
     [
      -77.11533673345004,
      39.06696644975194
     ],
     [
      -77.11533536937772,
      39.06696906771089
     ],
     [
      -77.1153298555623,
      39.06697664293035
     ],
     [
      -77.1153211674505,
      39.06698255740464
     ]
    ]
   },
   "properties": {
    "id": "ct-1",
    "kind": "Contour",
    "sourceId": "contours",
    "reliabilityLevel": 1,
    "revision": 1,
    "engineeringGeometry": {
     "crs": "EPSG:2248",
     "crsName": "NAD83 / Maryland State Plane (US survey feet)",
     "datum": "NAD83",
     "unit": "usSurveyFoot",
     "coordinates": [
      [
       1279542.112499997,
       509929.0164999962,
       348
      ],
      [
       1279543.6264999956,
       509931.3980000019,
       348
      ],
      [
       1279544.4120000005,
       509933.1424999982,
       348
      ],
      [
       1279546.6539999992,
       509937.013500005,
       348
      ],
      [
       1279551.2084999979,
       509943.0444999933,
       348
      ],
      [
       1279552.4089999944,
       509944.5409999937,
       348
      ],
      [
       1279554.797999993,
       509947.87950000167,
       348
      ],
      [
       1279558.3575000018,
       509952.5974999964,
       348
      ],
      [
       1279563.1194999963,
       509958.0409999937,
       348
      ],
      [
       1279566.3735000044,
       509962.72650000453,
       348
      ],
      [
       1279568.0119999945,
       509966.5055000037,
       348
      ],
      [
       1279568.5754999965,
       509968.6099999994,
       348
      ],
      [
       1279570.7004999965,
       509972.4590000063,
       348
      ],
      [
       1279573.451000005,
       509976.16650000215,
       348
      ],
      [
       1279578.326000005,
       509983.4210000038,
       348
      ],
      [
       1279580.964499995,
       509987.2205000073,
       348
      ],
      [
       1279586.240500003,
       509994.13899999857,
       348
      ],
      [
       1279586.6289999932,
       509995.0919999927,
       348
      ],
      [
       1279588.197999999,
       509997.8490000069,
       348
      ],
      [
       1279590.6675000042,
       510000,
       348
      ]
     ]
    },
    "elevationFt": 348,
    "weight": "intermediate",
    "hidden": false
   }
  },
  {
   "type": "Feature",
   "geometry": {
    "type": "LineString",
    "coordinates": [
     [
      -77.11543942745028,
      39.06661357222036
     ],
     [
      -77.11541684867206,
      39.06662501780239
     ],
     [
      -77.11539366626246,
      39.066635626548
     ],
     [
      -77.11537870697542,
      39.06664247524031
     ],
     [
      -77.11535388107436,
      39.066657150549545
     ],
     [
      -77.1153498713141,
      39.066660454784824
     ],
     [
      -77.11533915984295,
      39.06666854719094
     ],
     [
      -77.11531731380217,
      39.066683369195836
     ],
     [
      -77.11531373272281,
      39.06668605386096
     ],
     [
      -77.11530698126751,
      39.066689488467844
     ],
     [
      -77.11530177380578,
      39.06669049164342
     ]
    ]
   },
   "properties": {
    "id": "ct-2",
    "kind": "Contour",
    "sourceId": "contours",
    "reliabilityLevel": 1,
    "revision": 1,
    "engineeringGeometry": {
     "crs": "EPSG:2248",
     "crsName": "NAD83 / Maryland State Plane (US survey feet)",
     "datum": "NAD83",
     "unit": "usSurveyFoot",
     "coordinates": [
      [
       1279556.9204999954,
       509865.65399999917,
       354
      ],
      [
       1279563.336500004,
       509869.81450000405,
       354
      ],
      [
       1279569.9235000014,
       509873.6700000018,
       354
      ],
      [
       1279574.173999995,
       509876.1589999944,
       354
      ],
      [
       1279581.2294999957,
       509881.49500000477,
       354
      ],
      [
       1279582.3694999963,
       509882.6969999969,
       354
      ],
      [
       1279585.414499998,
       509885.64049999416,
       354
      ],
      [
       1279591.623999998,
       509891.0310000032,
       354
      ],
      [
       1279592.6420000046,
       509892.00749999285,
       354
      ],
      [
       1279594.560499996,
       509893.25599999726,
       354
      ],
      [
       1279596.039499998,
       509893.6194999963,
       354
      ]
     ]
    },
    "elevationFt": 354,
    "weight": "intermediate",
    "hidden": false
   }
  },
  {
   "type": "Feature",
   "geometry": {
    "type": "LineString",
    "coordinates": [
     [
      -77.11542901202354,
      39.06668908818602
     ],
     [
      -77.11542549542231,
      39.06669243724118
     ],
     [
      -77.11541781399679,
      39.06670120347334
     ],
     [
      -77.11540532238851,
      39.066718137297904
     ],
     [
      -77.11540175465741,
      39.06672145070908
     ],
     [
      -77.11538564133946,
      39.06673230645985
     ],
     [
      -77.11537375156733,
      39.06674355067686
     ],
     [
      -77.1153574383652,
      39.06676472756294
     ],
     [
      -77.11534963081294,
      39.0667771744742
     ],
     [
      -77.1153449133156,
      39.06678277477952
     ],
     [
      -77.11532818488972,
      39.06679441501451
     ],
     [
      -77.11528397456543,
      39.06681945642351
     ],
     [
      -77.11524780491806,
      39.06683681715114
     ],
     [
      -77.11523188118167,
      39.066844064894454
     ],
     [
      -77.11522207169072,
      39.06685239115598
     ],
     [
      -77.11522036996814,
      39.066861824178076
     ],
     [
      -77.11522038981724,
      39.06686211931718
     ]
    ]
   },
   "properties": {
    "id": "ct-3",
    "kind": "Contour",
    "sourceId": "contours",
    "reliabilityLevel": 1,
    "revision": 1,
    "engineeringGeometry": {
     "crs": "EPSG:2248",
     "crsName": "NAD83 / Maryland State Plane (US survey feet)",
     "datum": "NAD83",
     "unit": "usSurveyFoot",
     "coordinates": [
      [
       1279559.912499994,
       509893.15399999917,
       352
      ],
      [
       1279560.912499994,
       509894.3725000024,
       352
      ],
      [
       1279563.0974999964,
       509897.5625,
       352
      ],
      [
       1279566.651999995,
       509903.7255000025,
       352
      ],
      [
       1279567.6665000021,
       509904.9309999943,
       352
      ],
      [
       1279572.2465000004,
       509908.8789999932,
       352
      ],
      [
       1279575.6274999976,
       509912.9699999988,
       352
      ],
      [
       1279580.2689999938,
       509920.6770000011,
       352
      ],
      [
       1279582.4915000051,
       509925.2074999958,
       352
      ],
      [
       1279583.8334999979,
       509927.24549999833,
       352
      ],
      [
       1279588.588499993,
       509931.47900000215,
       352
      ],
      [
       1279601.1525000036,
       509940.58349999785,
       352
      ],
      [
       1279611.4300000072,
       509946.89350000024,
       352
      ],
      [
       1279615.9545000046,
       509949.5275000036,
       352
      ],
      [
       1279618.7434999943,
       509952.55650000274,
       352
      ],
      [
       1279619.2310000062,
       509955.9915000051,
       352
      ],
      [
       1279619.2255000025,
       509956.0990000069,
       352
      ]
     ]
    },
    "elevationFt": 352,
    "weight": "intermediate",
    "hidden": false
   }
  },
  {
   "type": "Feature",
   "geometry": {
    "type": "LineString",
    "coordinates": [
     [
      -77.11536795073506,
      39.06698251132347
     ],
     [
      -77.11536482781162,
      39.066987555434686
     ],
     [
      -77.11535368252923,
      39.06700182600733
     ],
     [
      -77.11533147337538,
      39.06701106506859
     ],
     [
      -77.11531903120274,
      39.067016169151294
     ],
     [
      -77.11531565066082,
      39.06701872869121
     ],
     [
      -77.1153106597363,
      39.06702296467031
     ],
     [
      -77.11529227699936,
      39.06703529294383
     ],
     [
      -77.1152786070922,
      39.06704456477227
     ],
     [
      -77.11527521873414,
      39.067047736601204
     ],
     [
      -77.11525474787287,
      39.06706905072869
     ],
     [
      -77.11523423866682,
      39.067088442927194
     ],
     [
      -77.11522339094115,
      39.06710052902056
     ]
    ]
   },
   "properties": {
    "id": "ct-4",
    "kind": "Contour",
    "sourceId": "contours",
    "reliabilityLevel": 1,
    "revision": 1,
    "engineeringGeometry": {
     "crs": "EPSG:2248",
     "crsName": "NAD83 / Maryland State Plane (US survey feet)",
     "datum": "NAD83",
     "unit": "usSurveyFoot",
     "coordinates": [
      [
       1279577.384499997,
       510000,
       346
      ],
      [
       1279578.2734999955,
       510001.83599999547,
       346
      ],
      [
       1279581.4444999993,
       510007.0294999927,
       346
      ],
      [
       1279587.7545000017,
       510010.38650000095,
       346
      ],
      [
       1279591.289499998,
       510012.24099999666,
       346
      ],
      [
       1279592.2504999936,
       510013.17200000584,
       346
      ],
      [
       1279593.6694999933,
       510014.7129999995,
       346
      ],
      [
       1279598.8945000023,
       510019.19650000334,
       346
      ],
      [
       1279602.7800000012,
       510022.56849999726,
       346
      ],
      [
       1279603.7434999943,
       510023.7224999964,
       346
      ],
      [
       1279609.565500006,
       510031.4780000001,
       346
      ],
      [
       1279615.3974999934,
       510038.53350000083,
       346
      ],
      [
       1279618.4829999954,
       510042.93150000274,
       346
      ]
     ]
    },
    "elevationFt": 346,
    "weight": "intermediate",
    "hidden": false
   }
  },
  {
   "type": "Feature",
   "geometry": {
    "type": "LineString",
    "coordinates": [
     [
      -77.1149576477656,
      39.06691911664011
     ],
     [
      -77.11491796959572,
      39.06690676304149
     ],
     [
      -77.11491095166076,
      39.066907691097796
     ],
     [
      -77.11490704158318,
      39.0669084046882
     ]
    ]
   },
   "properties": {
    "id": "ct-5",
    "kind": "Contour",
    "sourceId": "contours",
    "reliabilityLevel": 1,
    "revision": 1,
    "engineeringGeometry": {
     "crs": "EPSG:2248",
     "crsName": "NAD83 / Maryland State Plane (US survey feet)",
     "datum": "NAD83",
     "unit": "usSurveyFoot",
     "coordinates": [
      [
       1279693.850999996,
       509976.76399999857,
       354
      ],
      [
       1279705.1110000014,
       509972.25049999356,
       354
      ],
      [
       1279707.1040000021,
       509972.58599999547,
       354
      ],
      [
       1279708.214499995,
       509972.84450000525,
       354
      ]
     ]
    },
    "elevationFt": 354,
    "weight": "intermediate",
    "hidden": false
   }
  },
  {
   "type": "Feature",
   "geometry": {
    "type": "LineString",
    "coordinates": [
     [
      -77.11549281324162,
      39.06696770993657
     ],
     [
      -77.11547338130254,
      39.066982407406584
     ]
    ]
   },
   "properties": {
    "id": "ct-6",
    "kind": "Contour",
    "sourceId": "contours",
    "reliabilityLevel": 1,
    "revision": 1,
    "engineeringGeometry": {
     "crs": "EPSG:2248",
     "crsName": "NAD83 / Maryland State Plane (US survey feet)",
     "datum": "NAD83",
     "unit": "usSurveyFoot",
     "coordinates": [
      [
       1279541.925999999,
       509994.65399999917,
       342
      ],
      [
       1279547.450000003,
       510000,
       342
      ]
     ]
    },
    "elevationFt": 342,
    "weight": "intermediate",
    "hidden": false
   }
  },
  {
   "type": "Feature",
   "geometry": {
    "type": "LineString",
    "coordinates": [
     [
      -77.11549429998256,
      39.06710578778824
     ],
     [
      -77.11548089062764,
      39.06709004228863
     ],
     [
      -77.1154963442624,
      39.0670806629694
     ]
    ]
   },
   "properties": {
    "id": "ct-7",
    "kind": "Contour",
    "sourceId": "contours",
    "reliabilityLevel": 1,
    "revision": 1,
    "engineeringGeometry": {
     "crs": "EPSG:2248",
     "crsName": "NAD83 / Maryland State Plane (US survey feet)",
     "datum": "NAD83",
     "unit": "usSurveyFoot",
     "coordinates": [
      [
       1279541.5674999952,
       510044.9440000057,
       340
      ],
      [
       1279545.3675000072,
       510039.20450000465,
       340
      ],
      [
       1279540.9755000025,
       510035.79399999976,
       340
      ]
     ]
    },
    "elevationFt": 340,
    "weight": "index",
    "hidden": false
   }
  },
  {
   "type": "Feature",
   "geometry": {
    "type": "LineString",
    "coordinates": [
     [
      -77.11549138526499,
      39.06662927971421
     ],
     [
      -77.11548275701784,
      39.06664275020318
     ],
     [
      -77.11548049747823,
      39.06664482403329
     ],
     [
      -77.11546469744367,
      39.06665663772219
     ]
    ]
   },
   "properties": {
    "id": "ct-8",
    "kind": "Contour",
    "sourceId": "contours",
    "reliabilityLevel": 1,
    "revision": 1,
    "engineeringGeometry": {
     "crs": "EPSG:2248",
     "crsName": "NAD83 / Maryland State Plane (US survey feet)",
     "datum": "NAD83",
     "unit": "usSurveyFoot",
     "coordinates": [
      [
       1279542.1755000055,
       509871.39350000024,
       352
      ],
      [
       1279544.6315000057,
       509876.2964999974,
       352
      ],
      [
       1279545.274000004,
       509877.05099999905,
       352
      ],
      [
       1279549.7654999942,
       509881.3480000049,
       352
      ]
     ]
    },
    "elevationFt": 352,
    "weight": "intermediate",
    "hidden": false
   }
  },
  {
   "type": "Feature",
   "geometry": {
    "type": "LineString",
    "coordinates": [
     [
      -77.11522038981724,
      39.06686211931718
     ],
     [
      -77.11522266696838,
      39.06689484261735
     ],
     [
      -77.11522061886953,
      39.06691440198009
     ],
     [
      -77.11521472626467,
      39.066931667006614
     ],
     [
      -77.11521367134344,
      39.066933800050734
     ],
     [
      -77.11521166386737,
      39.06693711878502
     ]
    ]
   },
   "properties": {
    "id": "ct-9",
    "kind": "Contour",
    "sourceId": "contours",
    "reliabilityLevel": 1,
    "revision": 1,
    "engineeringGeometry": {
     "crs": "EPSG:2248",
     "crsName": "NAD83 / Maryland State Plane (US survey feet)",
     "datum": "NAD83",
     "unit": "usSurveyFoot",
     "coordinates": [
      [
       1279619.2255000025,
       509956.0990000069,
       352
      ],
      [
       1279618.5939999968,
       509968.0180000067,
       352
      ],
      [
       1279619.184499994,
       509975.1410000026,
       352
      ],
      [
       1279620.865500003,
       509981.4270000011,
       352
      ],
      [
       1279621.1659999937,
       509982.2035000026,
       352
      ],
      [
       1279621.737499997,
       509983.4115000069,
       352
      ]
     ]
    },
    "elevationFt": 352,
    "weight": "intermediate",
    "hidden": false
   }
  },
  {
   "type": "Feature",
   "geometry": {
    "type": "LineString",
    "coordinates": [
     [
      -77.11513417726303,
      39.066837073071994
     ],
     [
      -77.11513211388828,
      39.066838495980576
     ],
     [
      -77.1151063963954,
      39.06683986114557
     ],
     [
      -77.11508646370044,
      39.06683459808397
     ],
     [
      -77.11507731101204,
      39.06683745295707
     ],
     [
      -77.11506794957705,
      39.06684625788333
     ],
     [
      -77.11506276086399,
      39.06685777691383
     ],
     [
      -77.11503883960535,
      39.06688528860733
     ],
     [
      -77.11501121708946,
      39.066913066141694
     ],
     [
      -77.11500182118313,
      39.06692125606815
     ],
     [
      -77.11498607218273,
      39.06692768539908
     ],
     [
      -77.11496965869667,
      39.06692285679505
     ],
     [
      -77.1149576477656,
      39.06691911664011
     ]
    ]
   },
   "properties": {
    "id": "ct-10",
    "kind": "Contour",
    "sourceId": "contours",
    "reliabilityLevel": 1,
    "revision": 1,
    "engineeringGeometry": {
     "crs": "EPSG:2248",
     "crsName": "NAD83 / Maryland State Plane (US survey feet)",
     "datum": "NAD83",
     "unit": "usSurveyFoot",
     "coordinates": [
      [
       1279643.6920000017,
       509946.9459999949,
       354
      ],
      [
       1279644.2785000056,
       509947.4634999931,
       354
      ],
      [
       1279651.5810000002,
       509947.95149999857,
       354
      ],
      [
       1279657.2380000055,
       509946.0275000036,
       354
      ],
      [
       1279659.8379999995,
       509947.0639999956,
       354
      ],
      [
       1279662.5,
       509950.2674999982,
       354
      ],
      [
       1279663.9784999937,
       509954.46099999547,
       354
      ],
      [
       1279670.7830000073,
       509964.4724999964,
       354
      ],
      [
       1279678.638500005,
       509974.57950000465,
       354
      ],
      [
       1279681.3100000024,
       509977.55900000036,
       354
      ],
      [
       1279685.7845000029,
       509979.8949999958,
       354
      ],
      [
       1279690.4424999952,
       509978.1305000037,
       354
      ],
      [
       1279693.850999996,
       509976.76399999857,
       354
      ]
     ]
    },
    "elevationFt": 354,
    "weight": "intermediate",
    "hidden": false
   }
  },
  {
   "type": "Feature",
   "geometry": {
    "type": "LineString",
    "coordinates": [
     [
      -77.11490333179879,
      39.067001539795406
     ],
     [
      -77.11489618450312,
      39.066998702302946
     ],
     [
      -77.1148807409352,
      39.066996901199474
     ]
    ]
   },
   "properties": {
    "id": "ct-11",
    "kind": "Contour",
    "sourceId": "contours",
    "reliabilityLevel": 1,
    "revision": 1,
    "engineeringGeometry": {
     "crs": "EPSG:2248",
     "crsName": "NAD83 / Maryland State Plane (US survey feet)",
     "datum": "NAD83",
     "unit": "usSurveyFoot",
     "coordinates": [
      [
       1279709.310499996,
       510006.76399999857,
       352
      ],
      [
       1279711.338499993,
       510005.7280000001,
       352
      ],
      [
       1279715.7224999964,
       510005.0664999932,
       352
      ]
     ]
    },
    "elevationFt": 352,
    "weight": "intermediate",
    "hidden": false
   }
  },
  {
   "type": "Feature",
   "geometry": {
    "type": "LineString",
    "coordinates": [
     [
      -77.11507074278703,
      39.06671788721866
     ],
     [
      -77.11507052209195,
      39.06671753599082
     ],
     [
      -77.11506742052045,
      39.06670311745041
     ],
     [
      -77.11505926924121,
      39.06669251485009
     ],
     [
      -77.11502351521769,
      39.066687003738465
     ],
     [
      -77.1149935935436,
      39.06668140451879
     ],
     [
      -77.11496543117555,
      39.06667474373891
     ],
     [
      -77.11495729689071,
      39.06667356010734
     ],
     [
      -77.1149467862734,
      39.06666756840848
     ],
     [
      -77.11495495010315,
      39.06665542731535
     ],
     [
      -77.11497201922249,
      39.06664100544349
     ],
     [
      -77.11499324085658,
      39.06662443375675
     ],
     [
      -77.11499974266955,
      39.06661471596612
     ],
     [
      -77.11499979205871,
      39.06661149662919
     ],
     [
      -77.11498675745058,
      39.066600859007096
     ],
     [
      -77.1149767486834,
      39.06659810807183
     ],
     [
      -77.11493090844083,
      39.066593102426545
     ],
     [
      -77.11492421814499,
      39.06659406722864
     ],
     [
      -77.1149093640376,
      39.06659954979105
     ],
     [
      -77.1148980845556,
      39.06660270738729
     ],
     [
      -77.11487480874472,
      39.06660677183695
     ]
    ]
   },
   "properties": {
    "id": "ct-12",
    "kind": "Contour",
    "sourceId": "contours",
    "reliabilityLevel": 1,
    "revision": 1,
    "engineeringGeometry": {
     "crs": "EPSG:2248",
     "crsName": "NAD83 / Maryland State Plane (US survey feet)",
     "datum": "NAD83",
     "unit": "usSurveyFoot",
     "coordinates": [
      [
       1279661.648000002,
       509903.51450000703,
       356
      ],
      [
       1279661.710500002,
       509903.38650000095,
       356
      ],
      [
       1279662.5844999999,
       509898.13400000334,
       356
      ],
      [
       1279664.8939999938,
       509894.26950000226,
       356
      ],
      [
       1279675.0429999977,
       509892.24950000644,
       356
      ],
      [
       1279683.5359999985,
       509890.1994999945,
       356
      ],
      [
       1279691.5289999992,
       509887.763500005,
       356
      ],
      [
       1279693.8379999995,
       509887.32950000465,
       356
      ],
      [
       1279696.8194999993,
       509885.14350000024,
       356
      ],
      [
       1279694.4960000068,
       509880.7245000005,
       356
      ],
      [
       1279689.6430000067,
       509875.4780000001,
       356
      ],
      [
       1279683.6099999994,
       509869.450000003,
       356
      ],
      [
       1279681.759499997,
       509865.9130000025,
       356
      ],
      [
       1279681.7440000027,
       509864.7405000031,
       356
      ],
      [
       1279685.4399999976,
       509860.861499995,
       356
      ],
      [
       1279688.2804999948,
       509859.8560000062,
       356
      ],
      [
       1279701.2935000062,
       509858.0164999962,
       356
      ],
      [
       1279703.1934999973,
       509858.3655000031,
       356
      ],
      [
       1279707.413499996,
       509860.3569999933,
       356
      ],
      [
       1279710.6175000072,
       509861.5030000061,
       356
      ],
      [
       1279717.2280000001,
       509862.97499999404,
       356
      ]
     ]
    },
    "elevationFt": 356,
    "weight": "intermediate",
    "hidden": false
   }
  },
  {
   "type": "Feature",
   "geometry": {
    "type": "LineString",
    "coordinates": [
     [
      -77.11539394239075,
      39.06652463289734
     ],
     [
      -77.11534615066111,
      39.06653139175291
     ],
     [
      -77.11532985871858,
      39.06653632253422
     ],
     [
      -77.11530998200661,
      39.0665449181833
     ],
     [
      -77.11529592907485,
      39.066551410409524
     ],
     [
      -77.11527698328453,
      39.06656069429749
     ],
     [
      -77.11526336272367,
      39.066566672655355
     ],
     [
      -77.1152513217364,
      39.066571530599845
     ],
     [
      -77.11523829244827,
      39.06657833481704
     ],
     [
      -77.11521774036855,
      39.06659291528487
     ],
     [
      -77.11520161932918,
      39.06660661552384
     ],
     [
      -77.11519854675781,
      39.0666133893485
     ],
     [
      -77.11519418658519,
      39.066625418263484
     ],
     [
      -77.11517380740372,
      39.06664238590624
     ],
     [
      -77.11516290610942,
      39.06665289191963
     ],
     [
      -77.11515502852762,
      39.066673224427625
     ]
    ]
   },
   "properties": {
    "id": "ct-13",
    "kind": "Contour",
    "sourceId": "contours",
    "reliabilityLevel": 1,
    "revision": 1,
    "engineeringGeometry": {
     "crs": "EPSG:2248",
     "crsName": "NAD83 / Maryland State Plane (US survey feet)",
     "datum": "NAD83",
     "unit": "usSurveyFoot",
     "coordinates": [
      [
       1279569.7939999998,
       509833.24500000477,
       356
      ],
      [
       1279583.3665000051,
       509835.68950000405,
       356
      ],
      [
       1279587.9944999963,
       509837.4794999957,
       356
      ],
      [
       1279593.6420000046,
       509840.6030000001,
       356
      ],
      [
       1279597.6350000054,
       509842.96250000596,
       356
      ],
      [
       1279603.0185000002,
       509846.3369999975,
       356
      ],
      [
       1279606.888500005,
       509848.5094999969,
       356
      ],
      [
       1279610.309499994,
       509850.2744999975,
       356
      ],
      [
       1279614.0119999945,
       509852.74799999595,
       356
      ],
      [
       1279619.8540000021,
       509858.05099999905,
       356
      ],
      [
       1279624.4375,
       509863.0349999964,
       356
      ],
      [
       1279625.3129999936,
       509865.501000002,
       356
      ],
      [
       1279626.5565000027,
       509869.8805000037,
       356
      ],
      [
       1279632.3505000025,
       509876.0530000031,
       356
      ],
      [
       1279635.4504999965,
       509879.87549999356,
       356
      ],
      [
       1279637.6965000033,
       509887.27799999714,
       356
      ]
     ]
    },
    "elevationFt": 356,
    "weight": "intermediate",
    "hidden": false
   }
  },
  {
   "type": "Feature",
   "geometry": {
    "type": "LineString",
    "coordinates": [
     [
      -77.11546469744367,
      39.06665663772219
     ],
     [
      -77.11545859588202,
      39.06666120016397
     ],
     [
      -77.1154426394077,
      39.06667645431827
     ],
     [
      -77.11543010392744,
      39.066688047876724
     ],
     [
      -77.11542901202354,
      39.06668908818602
     ]
    ]
   },
   "properties": {
    "id": "ct-14",
    "kind": "Contour",
    "sourceId": "contours",
    "reliabilityLevel": 1,
    "revision": 1,
    "engineeringGeometry": {
     "crs": "EPSG:2248",
     "crsName": "NAD83 / Maryland State Plane (US survey feet)",
     "datum": "NAD83",
     "unit": "usSurveyFoot",
     "coordinates": [
      [
       1279549.7654999942,
       509881.3480000049,
       352
      ],
      [
       1279551.5,
       509883.00749999285,
       352
      ],
      [
       1279556.037499994,
       509888.55750000477,
       352
      ],
      [
       1279559.601999998,
       509892.7754999995,
       352
      ],
      [
       1279559.912499994,
       509893.15399999917,
       352
      ]
     ]
    },
    "elevationFt": 352,
    "weight": "intermediate",
    "hidden": false
   }
  },
  {
   "type": "Feature",
   "geometry": {
    "type": "LineString",
    "coordinates": [
     [
      -77.11541099537189,
      39.066982468908286
     ],
     [
      -77.11540699784958,
      39.066987899648076
     ],
     [
      -77.11539781913832,
      39.06699968895445
     ],
     [
      -77.11537552503545,
      39.067030389571116
     ],
     [
      -77.11536747187583,
      39.067039084778294
     ],
     [
      -77.1153647644397,
      39.067040800738376
     ],
     [
      -77.11536033980623,
      39.06704239483534
     ],
     [
      -77.11535863463718,
      39.067043174910175
     ],
     [
      -77.11535587817104,
      39.06704397661305
     ],
     [
      -77.11534096046005,
      39.06704393639415
     ],
     [
      -77.11533106238848,
      39.067046511963596
     ],
     [
      -77.11531199944339,
      39.06705964950737
     ],
     [
      -77.11530743592897,
      39.067064653850665
     ],
     [
      -77.11529814376412,
      39.067073823899605
     ],
     [
      -77.1152831821553,
      39.06708365025112
     ],
     [
      -77.11526564790924,
      39.0671012273897
     ]
    ]
   },
   "properties": {
    "id": "ct-15",
    "kind": "Contour",
    "sourceId": "contours",
    "reliabilityLevel": 1,
    "revision": 1,
    "engineeringGeometry": {
     "crs": "EPSG:2248",
     "crsName": "NAD83 / Maryland State Plane (US survey feet)",
     "datum": "NAD83",
     "unit": "usSurveyFoot",
     "coordinates": [
      [
       1279565.1630000025,
       510000,
       344
      ],
      [
       1279566.3005000055,
       510001.97650000453,
       344
      ],
      [
       1279568.9120000005,
       510006.26700000465,
       344
      ],
      [
       1279575.2559999973,
       510017.4405000061,
       344
      ],
      [
       1279577.5464999974,
       510020.6044999957,
       344
      ],
      [
       1279578.3159999996,
       510021.2284999937,
       344
      ],
      [
       1279579.572999999,
       510021.80750000477,
       344
      ],
      [
       1279580.0575000048,
       510022.0910000056,
       344
      ],
      [
       1279580.8404999971,
       510022.3819999993,
       344
      ],
      [
       1279585.076000005,
       510022.36200000346,
       344
      ],
      [
       1279587.887500003,
       510023.2964999974,
       344
      ],
      [
       1279593.3059999943,
       510028.0744999945,
       344
      ],
      [
       1279594.6040000021,
       510029.8955000043,
       344
      ],
      [
       1279597.2465000004,
       510033.2319999933,
       344
      ],
      [
       1279601.498999998,
       510036.8055000007,
       344
      ],
      [
       1279606.485499993,
       510043.201000005,
       344
      ]
     ]
    },
    "elevationFt": 344,
    "weight": "intermediate",
    "hidden": false
   }
  },
  {
   "type": "Feature",
   "geometry": {
    "type": "LineString",
    "coordinates": [
     [
      -77.11508338602407,
      39.06673804167921
     ],
     [
      -77.11507074278703,
      39.06671788721866
     ]
    ]
   },
   "properties": {
    "id": "ct-16",
    "kind": "Contour",
    "sourceId": "contours",
    "reliabilityLevel": 1,
    "revision": 1,
    "engineeringGeometry": {
     "crs": "EPSG:2248",
     "crsName": "NAD83 / Maryland State Plane (US survey feet)",
     "datum": "NAD83",
     "unit": "usSurveyFoot",
     "coordinates": [
      [
       1279658.0674999952,
       509910.85950000584,
       356
      ],
      [
       1279661.648000002,
       509903.51450000703,
       356
      ]
     ]
    },
    "elevationFt": 356,
    "weight": "intermediate",
    "hidden": false
   }
  },
  {
   "type": "Feature",
   "geometry": {
    "type": "LineString",
    "coordinates": [
     [
      -77.11490704158318,
      39.0669084046882
     ],
     [
      -77.1148967496837,
      39.066910284582285
     ],
     [
      -77.11487344459513,
      39.06690827428379
     ]
    ]
   },
   "properties": {
    "id": "ct-17",
    "kind": "Contour",
    "sourceId": "contours",
    "reliabilityLevel": 1,
    "revision": 1,
    "engineeringGeometry": {
     "crs": "EPSG:2248",
     "crsName": "NAD83 / Maryland State Plane (US survey feet)",
     "datum": "NAD83",
     "unit": "usSurveyFoot",
     "coordinates": [
      [
       1279708.214499995,
       509972.84450000525,
       354
      ],
      [
       1279711.137500003,
       509973.5254999995,
       354
      ],
      [
       1279717.7534999996,
       509972.7849999964,
       354
      ]
     ]
    },
    "elevationFt": 354,
    "weight": "intermediate",
    "hidden": false
   }
  },
  {
   "type": "Feature",
   "geometry": {
    "type": "LineString",
    "coordinates": [
     [
      -77.1153211674505,
      39.06698255740464
     ],
     [
      -77.1153128293957,
      39.06698823403388
     ],
     [
      -77.11529880276966,
      39.06699906026051
     ],
     [
      -77.11529204370694,
      39.06700433995827
     ],
     [
      -77.1152813744437,
      39.067010259125794
     ],
     [
      -77.11526734397047,
      39.06701654128254
     ],
     [
      -77.11525605243104,
      39.06702315845826
     ],
     [
      -77.11523385609847,
      39.067043590177484
     ],
     [
      -77.11521403238012,
      39.06706434629175
     ],
     [
      -77.1152022916346,
      39.067075233407756
     ],
     [
      -77.115187778271,
      39.06708673965094
     ],
     [
      -77.11518010801237,
      39.06709265723185
     ]
    ]
   },
   "properties": {
    "id": "ct-18",
    "kind": "Contour",
    "sourceId": "contours",
    "reliabilityLevel": 1,
    "revision": 1,
    "engineeringGeometry": {
     "crs": "EPSG:2248",
     "crsName": "NAD83 / Maryland State Plane (US survey feet)",
     "datum": "NAD83",
     "unit": "usSurveyFoot",
     "coordinates": [
      [
       1279590.6675000042,
       510000,
       348
      ],
      [
       1279593.037499994,
       510002.06450000405,
       348
      ],
      [
       1279597.025000006,
       510006.0024999976,
       348
      ],
      [
       1279598.9465000033,
       510007.92299999297,
       348
      ],
      [
       1279601.9784999937,
       510010.075000003,
       348
      ],
      [
       1279605.9650000036,
       510012.35799999535,
       348
      ],
      [
       1279609.173999995,
       510014.76399999857,
       348
      ],
      [
       1279615.485499993,
       510022.19750000536,
       348
      ],
      [
       1279621.1235000044,
       510029.75,
       348
      ],
      [
       1279624.4619999975,
       510033.71099999547,
       348
      ],
      [
       1279628.5879999995,
       510037.8965000063,
       348
      ],
      [
       1279630.7685000002,
       510040.048999995,
       348
      ]
     ]
    },
    "elevationFt": 348,
    "weight": "intermediate",
    "hidden": false
   }
  },
  {
   "type": "Feature",
   "geometry": {
    "type": "LineString",
    "coordinates": [
     [
      -77.11524464756484,
      39.0669826327359
     ],
     [
      -77.1152395214983,
      39.06698606436614
     ],
     [
      -77.1152296323258,
      39.066991958050316
     ],
     [
      -77.1152085932581,
      39.06700929289273
     ],
     [
      -77.11519191617857,
      39.0670244145559
     ],
     [
      -77.11518133599495,
      39.06703097611137
     ],
     [
      -77.115171995831,
      39.067034433848825
     ],
     [
      -77.11514676294505,
      39.06704257346572
     ],
     [
      -77.11512131537073,
      39.0670529908144
     ],
     [
      -77.11510258703333,
      39.06706398363344
     ],
     [
      -77.11509705406196,
      39.067068445280434
     ],
     [
      -77.11508435449123,
      39.06707774358901
     ],
     [
      -77.11506374092232,
      39.06708598847452
     ],
     [
      -77.11505628838498,
      39.067087155839076
     ],
     [
      -77.1150352944023,
      39.06708775854464
     ],
     [
      -77.11502050568305,
      39.067084725387176
     ],
     [
      -77.11499710248368,
      39.06707434780633
     ],
     [
      -77.11499125139876,
      39.0670715763155
     ],
     [
      -77.1149753806912,
      39.06706591524395
     ],
     [
      -77.11496703235738,
      39.06706307207093
     ],
     [
      -77.11495675609268,
      39.06705829098008
     ],
     [
      -77.11494563104522,
      39.067053528568294
     ],
     [
      -77.11488873182583,
      39.06704668455857
     ],
     [
      -77.11487963992165,
      39.06704794275424
     ]
    ]
   },
   "properties": {
    "id": "ct-19",
    "kind": "Contour",
    "sourceId": "contours",
    "reliabilityLevel": 1,
    "revision": 1,
    "engineeringGeometry": {
     "crs": "EPSG:2248",
     "crsName": "NAD83 / Maryland State Plane (US survey feet)",
     "datum": "NAD83",
     "unit": "usSurveyFoot",
     "coordinates": [
      [
       1279612.3935000002,
       510000,
       350
      ],
      [
       1279613.8505000025,
       510001.24799999595,
       350
      ],
      [
       1279616.6609999985,
       510003.3910000026,
       350
      ],
      [
       1279622.6424999982,
       510009.6969999969,
       350
      ],
      [
       1279627.384499997,
       510015.1985000074,
       350
      ],
      [
       1279630.3914999962,
       510017.5844999999,
       350
      ],
      [
       1279633.0450000018,
       510018.84049999714,
       350
      ],
      [
       1279640.2129999995,
       510021.7960000038,
       350
      ],
      [
       1279647.4430000037,
       510025.58100000024,
       350
      ],
      [
       1279652.7654999942,
       510029.57799999416,
       350
      ],
      [
       1279654.338499993,
       510031.201000005,
       350
      ],
      [
       1279657.9485000074,
       510034.5830000043,
       350
      ],
      [
       1279663.8050000072,
       510037.5785000026,
       350
      ],
      [
       1279665.9214999974,
       510038.001000002,
       350
      ],
      [
       1279671.8824999928,
       510038.2129999995,
       350
      ],
      [
       1279676.0799999982,
       510037.1030000001,
       350
      ],
      [
       1279682.7199999988,
       510033.3149999976,
       350
      ],
      [
       1279684.3799999952,
       510032.30349999666,
       350
      ],
      [
       1279688.8834999949,
       510030.23600000143,
       350
      ],
      [
       1279691.2524999976,
       510029.19750000536,
       350
      ],
      [
       1279694.1679999977,
       510027.4525000006,
       350
      ],
      [
       1279697.3244999945,
       510025.71400000155,
       350
      ],
      [
       1279713.4765000045,
       510023.201000005,
       350
      ],
      [
       1279716.0585000068,
       510023.6560000032,
       350
      ]
     ]
    },
    "elevationFt": 350,
    "weight": "index",
    "hidden": false
   }
  },
  {
   "type": "Feature",
   "geometry": {
    "type": "LineString",
    "coordinates": [
     [
      -77.11549499581845,
      39.06684984614114
     ],
     [
      -77.11548187700822,
      39.06686010176995
     ],
     [
      -77.11547046805478,
      39.06687138670714
     ],
     [
      -77.11545840440264,
      39.066884006680326
     ],
     [
      -77.11543472669214,
      39.06690632616845
     ],
     [
      -77.11542514244,
      39.06691562281622
     ],
     [
      -77.11539619016997,
      39.066944288600745
     ],
     [
      -77.11539133530786,
      39.06694989041589
     ],
     [
      -77.11538337612917,
      39.06696114997967
     ],
     [
      -77.11537859147602,
      39.06696769623266
     ],
     [
      -77.11537023935644,
      39.066978814781045
     ],
     [
      -77.11536795073506,
      39.06698251132347
     ]
    ]
   },
   "properties": {
    "id": "ct-20",
    "kind": "Contour",
    "sourceId": "contours",
    "reliabilityLevel": 1,
    "revision": 1,
    "engineeringGeometry": {
     "crs": "EPSG:2248",
     "crsName": "NAD83 / Maryland State Plane (US survey feet)",
     "datum": "NAD83",
     "unit": "usSurveyFoot",
     "coordinates": [
      [
       1279541.252000004,
       509951.72750000656,
       346
      ],
      [
       1279544.9814999998,
       509955.4580000043,
       346
      ],
      [
       1279548.225999996,
       509959.5639999956,
       346
      ],
      [
       1279551.6570000052,
       509964.1560000032,
       346
      ],
      [
       1279558.3900000006,
       509972.27650000155,
       346
      ],
      [
       1279561.115500003,
       509975.6589999944,
       346
      ],
      [
       1279569.349000007,
       509986.08900000155,
       346
      ],
      [
       1279570.7300000042,
       509988.1274999976,
       346
      ],
      [
       1279572.9950000048,
       509992.2255000025,
       346
      ],
      [
       1279574.3564999998,
       509994.60799999535,
       346
      ],
      [
       1279576.7329999954,
       509998.6544999927,
       346
      ],
      [
       1279577.384499997,
       510000,
       346
      ]
     ]
    },
    "elevationFt": 346,
    "weight": "intermediate",
    "hidden": false
   }
  },
  {
   "type": "Feature",
   "geometry": {
    "type": "LineString",
    "coordinates": [
     [
      -77.11548660286374,
      39.06675005236247
     ],
     [
      -77.11548605100768,
      39.06675073245801
     ],
     [
      -77.11548316474827,
      39.066752933206566
     ],
     [
      -77.11547559187845,
      39.06675697130595
     ],
     [
      -77.11546204169343,
      39.06676075171504
     ]
    ]
   },
   "properties": {
    "id": "ct-21",
    "kind": "Contour",
    "sourceId": "contours",
    "reliabilityLevel": 1,
    "revision": 1,
    "engineeringGeometry": {
     "crs": "EPSG:2248",
     "crsName": "NAD83 / Maryland State Plane (US survey feet)",
     "datum": "NAD83",
     "unit": "usSurveyFoot",
     "coordinates": [
      [
       1279543.5890000015,
       509915.37849999964,
       350
      ],
      [
       1279543.7460000068,
       509915.626000002,
       350
      ],
      [
       1279544.5664999932,
       509916.4264999926,
       350
      ],
      [
       1279546.7185000032,
       509917.89450000226,
       350
      ],
      [
       1279550.5674999952,
       509919.2664999962,
       350
      ]
     ]
    },
    "elevationFt": 350,
    "weight": "index",
    "hidden": false
   }
  },
  {
   "type": "Feature",
   "geometry": {
    "type": "LineString",
    "coordinates": [
     [
      -77.11521166386737,
      39.06693711878502
     ],
     [
      -77.1152102570531,
      39.066939444371634
     ],
     [
      -77.11520436038616,
      39.06694550023817
     ],
     [
      -77.11519224393024,
      39.06695382190241
     ],
     [
      -77.11516508513847,
      39.06696561102927
     ],
     [
      -77.11515508953332,
      39.06696776522081
     ],
     [
      -77.11514250973535,
      39.0669705314893
     ],
     [
      -77.11513646420535,
      39.06697383634585
     ],
     [
      -77.11512450542696,
      39.06698275091088
     ]
    ]
   },
   "properties": {
    "id": "ct-22",
    "kind": "Contour",
    "sourceId": "contours",
    "reliabilityLevel": 1,
    "revision": 1,
    "engineeringGeometry": {
     "crs": "EPSG:2248",
     "crsName": "NAD83 / Maryland State Plane (US survey feet)",
     "datum": "NAD83",
     "unit": "usSurveyFoot",
     "coordinates": [
      [
       1279621.737499997,
       509983.4115000069,
       352
      ],
      [
       1279622.1379999965,
       509984.2580000013,
       352
      ],
      [
       1279623.8149999976,
       509986.46150000393,
       352
      ],
      [
       1279627.2590000033,
       509989.4880000055,
       352
      ],
      [
       1279634.9755000025,
       509993.7719999999,
       352
      ],
      [
       1279637.814500004,
       509994.5530000031,
       352
      ],
      [
       1279641.387500003,
       509995.5559999943,
       352
      ],
      [
       1279643.1054999977,
       509996.75749999285,
       352
      ],
      [
       1279646.5049999952,
       510000,
       352
      ]
     ]
    },
    "elevationFt": 352,
    "weight": "intermediate",
    "hidden": false
   }
  },
  {
   "type": "Feature",
   "geometry": {
    "type": "LineString",
    "coordinates": [
     [
      -77.11512450542696,
      39.06698275091088
     ],
     [
      -77.11508996056422,
      39.067008502106084
     ],
     [
      -77.11507443503912,
      39.06702027565929
     ],
     [
      -77.1150709318723,
      39.06702541898008
     ],
     [
      -77.11506688189205,
      39.06702891955968
     ],
     [
      -77.1150581280256,
      39.06703230395193
     ],
     [
      -77.11504401159775,
      39.06703880856492
     ],
     [
      -77.11502690414666,
      39.06704046041191
     ],
     [
      -77.11500434560351,
      39.067034039873775
     ],
     [
      -77.1149952903285,
      39.067031808306695
     ],
     [
      -77.11495492133793,
      39.067030090719115
     ],
     [
      -77.11494634379687,
      39.067027074792954
     ],
     [
      -77.11493251127003,
      39.06701855210839
     ],
     [
      -77.11490927025618,
      39.06700389661005
     ],
     [
      -77.11490333179879,
      39.067001539795406
     ]
    ]
   },
   "properties": {
    "id": "ct-23",
    "kind": "Contour",
    "sourceId": "contours",
    "reliabilityLevel": 1,
    "revision": 1,
    "engineeringGeometry": {
     "crs": "EPSG:2248",
     "crsName": "NAD83 / Maryland State Plane (US survey feet)",
     "datum": "NAD83",
     "unit": "usSurveyFoot",
     "coordinates": [
      [
       1279646.5049999952,
       510000,
       352
      ],
      [
       1279656.325000003,
       510009.3665000051,
       352
      ],
      [
       1279660.738499999,
       510013.64900000393,
       352
      ],
      [
       1279661.735499993,
       510015.52099999785,
       352
      ],
      [
       1279662.8869999945,
       510016.7944999933,
       352
      ],
      [
       1279665.373999998,
       510018.02400000393,
       352
      ],
      [
       1279669.3850000054,
       510020.38799999654,
       352
      ],
      [
       1279674.2430000007,
       510020.9835000038,
       352
      ],
      [
       1279680.6449999958,
       510018.6369999945,
       352
      ],
      [
       1279683.2150000036,
       510017.8209999949,
       352
      ],
      [
       1279694.675999999,
       510017.1809999943,
       352
      ],
      [
       1279697.1099999994,
       510016.07950000465,
       352
      ],
      [
       1279701.0335000008,
       510012.9705000073,
       352
      ],
      [
       1279707.6254999936,
       510007.62450000644,
       352
      ],
      [
       1279709.310499996,
       510006.76399999857,
       352
      ]
     ]
    },
    "elevationFt": 352,
    "weight": "intermediate",
    "hidden": false
   }
  },
  {
   "type": "Feature",
   "geometry": {
    "type": "LineString",
    "coordinates": [
     [
      -77.11550094727237,
      39.06689275770809
     ],
     [
      -77.11548147342627,
      39.066910917500316
     ],
     [
      -77.11545844005575,
      39.06693637464889
     ],
     [
      -77.1154404814611,
      39.066953938504376
     ],
     [
      -77.11542074960302,
      39.066970475854625
     ],
     [
      -77.11541567115374,
      39.066976116330395
     ],
     [
      -77.11541099537189,
      39.066982468908286
     ]
    ]
   },
   "properties": {
    "id": "ct-24",
    "kind": "Contour",
    "sourceId": "contours",
    "reliabilityLevel": 1,
    "revision": 1,
    "engineeringGeometry": {
     "crs": "EPSG:2248",
     "crsName": "NAD83 / Maryland State Plane (US survey feet)",
     "datum": "NAD83",
     "unit": "usSurveyFoot",
     "coordinates": [
      [
       1279539.5820000023,
       509967.3585000038,
       344
      ],
      [
       1279545.1194999963,
       509973.96549999714,
       344
      ],
      [
       1279551.6710000038,
       509983.22900000215,
       344
      ],
      [
       1279556.7779999971,
       509989.6194999963,
       344
      ],
      [
       1279562.3879999965,
       509995.6354999989,
       344
      ],
      [
       1279563.8324999958,
       509997.68799999356,
       344
      ],
      [
       1279565.1630000025,
       510000,
       344
      ]
     ]
    },
    "elevationFt": 344,
    "weight": "intermediate",
    "hidden": false
   }
  },
  {
   "type": "Feature",
   "geometry": {
    "type": "LineString",
    "coordinates": [
     [
      -77.11548041937914,
      39.0665250693249
     ],
     [
      -77.11547404086784,
      39.06652933413648
     ],
     [
      -77.1154610837465,
      39.0665404407595
     ],
     [
      -77.1154512056156,
      39.066552005616686
     ],
     [
      -77.1154450807925,
      39.06656502060076
     ],
     [
      -77.11544483665894,
      39.066567590780885
     ],
     [
      -77.11544602917068,
      39.06658514811256
     ],
     [
      -77.11544526237414,
      39.06660747933592
     ],
     [
      -77.11544350260888,
      39.06661150621095
     ],
     [
      -77.11543942745028,
      39.06661357222036
     ]
    ]
   },
   "properties": {
    "id": "ct-25",
    "kind": "Contour",
    "sourceId": "contours",
    "reliabilityLevel": 1,
    "revision": 1,
    "engineeringGeometry": {
     "crs": "EPSG:2248",
     "crsName": "NAD83 / Maryland State Plane (US survey feet)",
     "datum": "NAD83",
     "unit": "usSurveyFoot",
     "coordinates": [
      [
       1279545.2409999967,
       509833.4350000024,
       354
      ],
      [
       1279547.0540000051,
       509834.98600000143,
       354
      ],
      [
       1279550.7380000055,
       509839.02650000155,
       354
      ],
      [
       1279553.547999993,
       509843.2349999994,
       354
      ],
      [
       1279555.2929999977,
       509847.9730000049,
       354
      ],
      [
       1279555.363499999,
       509848.9089999944,
       354
      ],
      [
       1279555.0330000073,
       509855.3040000051,
       354
      ],
      [
       1279555.2610000074,
       509863.43700000644,
       354
      ],
      [
       1279555.762500003,
       509864.90299999714,
       354
      ],
      [
       1279556.9204999954,
       509865.65399999917,
       354
      ]
     ]
    },
    "elevationFt": 354,
    "weight": "intermediate",
    "hidden": false
   }
  },
  {
   "type": "Feature",
   "geometry": {
    "type": "LineString",
    "coordinates": [
     [
      -77.11547338130254,
      39.066982407406584
     ],
     [
      -77.11547091361501,
      39.06698427414413
     ],
     [
      -77.11546517231646,
      39.06698947871548
     ],
     [
      -77.11545975690854,
      39.06699800247
     ],
     [
      -77.11545930453694,
      39.0670003037804
     ],
     [
      -77.11545844335235,
      39.06701872939127
     ],
     [
      -77.1154508737112,
      39.067024775936936
     ],
     [
      -77.11541881839547,
      39.067033844880804
     ],
     [
      -77.11539977776229,
      39.06704552584351
     ],
     [
      -77.11538575799091,
      39.06705623401021
     ],
     [
      -77.11538092579234,
      39.06705844079202
     ],
     [
      -77.11537904666022,
      39.0670594544198
     ],
     [
      -77.11536612162985,
      39.06707304445003
     ],
     [
      -77.11535799204894,
      39.06708022687232
     ],
     [
      -77.1153476753644,
      39.06708963955267
     ],
     [
      -77.11532856219543,
      39.067103304315474
     ]
    ]
   },
   "properties": {
    "id": "ct-26",
    "kind": "Contour",
    "sourceId": "contours",
    "reliabilityLevel": 1,
    "revision": 1,
    "engineeringGeometry": {
     "crs": "EPSG:2248",
     "crsName": "NAD83 / Maryland State Plane (US survey feet)",
     "datum": "NAD83",
     "unit": "usSurveyFoot",
     "coordinates": [
      [
       1279547.450000003,
       510000,
       342
      ],
      [
       1279548.1515000015,
       510000.6790000051,
       342
      ],
      [
       1279549.7839999944,
       510002.57250000536,
       342
      ],
      [
       1279551.3254999965,
       510005.674999997,
       342
      ],
      [
       1279551.4549999982,
       510006.51299999654,
       342
      ],
      [
       1279551.7080000043,
       510013.22349999845,
       342
      ],
      [
       1279553.8599999994,
       510015.42299999297,
       342
      ],
      [
       1279562.9654999971,
       510018.7144999951,
       342
      ],
      [
       1279568.377000004,
       510022.9619999975,
       342
      ],
      [
       1279572.362499997,
       510026.8569999933,
       342
      ],
      [
       1279573.735499993,
       510027.6589999944,
       342
      ],
      [
       1279574.2695000023,
       510028.0275000036,
       342
      ],
      [
       1279577.9455000013,
       510032.9724999964,
       342
      ],
      [
       1279580.2569999993,
       510035.5855000019,
       342
      ],
      [
       1279583.190500006,
       510039.01000000536,
       342
      ],
      [
       1279588.6235000044,
       510043.9800000042,
       342
      ]
     ]
    },
    "elevationFt": 342,
    "weight": "intermediate",
    "hidden": false
   }
  },
  {
   "type": "Feature",
   "geometry": {
    "type": "LineString",
    "coordinates": [
     [
      -77.11530177380578,
      39.06669049164342
     ],
     [
      -77.11529317744206,
      39.06669214613157
     ],
     [
      -77.11527249380374,
      39.06669727479767
     ],
     [
      -77.11526450320976,
      39.066706528679035
     ],
     [
      -77.11526124658248,
      39.066727961774234
     ],
     [
      -77.11525964997776,
      39.066733792385534
     ],
     [
      -77.11525607832957,
      39.06674339061575
     ]
    ]
   },
   "properties": {
    "id": "ct-27",
    "kind": "Contour",
    "sourceId": "contours",
    "reliabilityLevel": 1,
    "revision": 1,
    "engineeringGeometry": {
     "crs": "EPSG:2248",
     "crsName": "NAD83 / Maryland State Plane (US survey feet)",
     "datum": "NAD83",
     "unit": "usSurveyFoot",
     "coordinates": [
      [
       1279596.039499998,
       509893.6194999963,
       354
      ],
      [
       1279598.4810000062,
       509894.2189999968,
       354
      ],
      [
       1279604.3560000062,
       509896.07950000465,
       354
      ],
      [
       1279606.6289999932,
       509899.4469999969,
       354
      ],
      [
       1279607.563500002,
       509907.25200000405,
       354
      ],
      [
       1279608.0195000023,
       509909.375,
       354
      ],
      [
       1279609.0380000025,
       509912.8694999963,
       354
      ]
     ]
    },
    "elevationFt": 354,
    "weight": "intermediate",
    "hidden": false
   }
  },
  {
   "type": "Feature",
   "geometry": {
    "type": "LineString",
    "coordinates": [
     [
      -77.11546204169343,
      39.06676075171504
     ],
     [
      -77.11545073579076,
      39.06676390664477
     ],
     [
      -77.1154457212902,
      39.066766620183714
     ],
     [
      -77.11543545051678,
      39.06677824583058
     ],
     [
      -77.115433589343,
      39.06678381174866
     ],
     [
      -77.11543210635301,
      39.066802137756504
     ],
     [
      -77.11542723654159,
      39.06681262961152
     ],
     [
      -77.11542343450267,
      39.066816974250216
     ],
     [
      -77.11541326302087,
      39.06682576490146
     ],
     [
      -77.11539876281054,
      39.06683881422039
     ],
     [
      -77.11539320268564,
      39.0668514868095
     ],
     [
      -77.11539085330787,
      39.06685898066237
     ],
     [
      -77.11538251321099,
      39.06687207470363
     ],
     [
      -77.11537374218608,
      39.06688223405656
     ],
     [
      -77.11536069407212,
      39.06689483439706
     ],
     [
      -77.1153478102365,
      39.066906661670515
     ],
     [
      -77.11533273982687,
      39.06691669817902
     ],
     [
      -77.11532018727694,
      39.06692322874188
     ],
     [
      -77.11529625039637,
      39.066937789217384
     ],
     [
      -77.11527050112045,
      39.06695325616749
     ],
     [
      -77.1152647357891,
      39.06695885200945
     ],
     [
      -77.1152607432976,
      39.066966307664714
     ],
     [
      -77.11525143423603,
      39.066978088850945
     ],
     [
      -77.11524464756484,
      39.0669826327359
     ]
    ]
   },
   "properties": {
    "id": "ct-28",
    "kind": "Contour",
    "sourceId": "contours",
    "reliabilityLevel": 1,
    "revision": 1,
    "engineeringGeometry": {
     "crs": "EPSG:2248",
     "crsName": "NAD83 / Maryland State Plane (US survey feet)",
     "datum": "NAD83",
     "unit": "usSurveyFoot",
     "coordinates": [
      [
       1279550.5674999952,
       509919.2664999962,
       350
      ],
      [
       1279553.7789999992,
       509920.4115000069,
       350
      ],
      [
       1279555.2039999962,
       509921.3980000019,
       350
      ],
      [
       1279558.1254999936,
       509925.62849999964,
       350
      ],
      [
       1279558.6564999968,
       509927.6550000012,
       350
      ],
      [
       1279559.0859999955,
       509934.3289999962,
       350
      ],
      [
       1279560.4734999985,
       509938.14849999547,
       350
      ],
      [
       1279561.5550000072,
       509939.7294999957,
       350
      ],
      [
       1279564.446999997,
       509942.92749999464,
       350
      ],
      [
       1279568.5699999928,
       509947.674999997,
       350
      ],
      [
       1279570.1544999927,
       509952.28849999607,
       350
      ],
      [
       1279570.825000003,
       509955.01700000465,
       350
      ],
      [
       1279573.199000001,
       509959.7830000073,
       350
      ],
      [
       1279575.6940000057,
       509963.4800000042,
       350
      ],
      [
       1279579.4044999927,
       509968.06450000405,
       350
      ],
      [
       1279583.0680000037,
       509972.36750000715,
       350
      ],
      [
       1279587.3515000045,
       509976.0174999982,
       350
      ],
      [
       1279590.9185000062,
       509978.3914999962,
       350
      ],
      [
       1279597.7214999944,
       509983.6860000044,
       350
      ],
      [
       1279605.039499998,
       509989.3100000024,
       350
      ],
      [
       1279606.6790000051,
       509991.34600000083,
       350
      ],
      [
       1279607.8159999996,
       509994.0600000024,
       350
      ],
      [
       1279610.464499995,
       509998.3474999964,
       350
      ],
      [
       1279612.3935000002,
       510000,
       350
      ]
     ]
    },
    "elevationFt": 350,
    "weight": "index",
    "hidden": false
   }
  },
  {
   "type": "Feature",
   "geometry": {
    "type": "LineString",
    "coordinates": [
     [
      -77.11525607832957,
      39.06674339061575
     ],
     [
      -77.11525562946628,
      39.06674459914868
     ],
     [
      -77.11525519257653,
      39.066745589389754
     ],
     [
      -77.11525255278096,
      39.06674883324152
     ],
     [
      -77.11524009434221,
      39.06675800502997
     ],
     [
      -77.1151597117234,
      39.066819455136816
     ],
     [
      -77.11513417726303,
      39.066837073071994
     ]
    ]
   },
   "properties": {
    "id": "ct-29",
    "kind": "Contour",
    "sourceId": "contours",
    "reliabilityLevel": 1,
    "revision": 1,
    "engineeringGeometry": {
     "crs": "EPSG:2248",
     "crsName": "NAD83 / Maryland State Plane (US survey feet)",
     "datum": "NAD83",
     "unit": "usSurveyFoot",
     "coordinates": [
      [
       1279609.0380000025,
       509912.8694999963,
       354
      ],
      [
       1279609.1659999937,
       509913.3094999939,
       354
      ],
      [
       1279609.2905000001,
       509913.6700000018,
       354
      ],
      [
       1279610.0415000021,
       509914.8505000025,
       354
      ],
      [
       1279613.5830000043,
       509918.186499998,
       354
      ],
      [
       1279636.4340000004,
       509940.53849999607,
       354
      ],
      [
       1279643.6920000017,
       509946.9459999949,
       354
      ]
     ]
    },
    "elevationFt": 354,
    "weight": "intermediate",
    "hidden": false
   }
  },
  {
   "type": "Feature",
   "geometry": {
    "type": "LineString",
    "coordinates": [
     [
      -77.11515502852762,
      39.066673224427625
     ],
     [
      -77.11515311700224,
      39.066678157515845
     ],
     [
      -77.11515289633284,
      39.0666854406006
     ],
     [
      -77.1151518936325,
      39.066700255804435
     ],
     [
      -77.11515101239429,
      39.06670851150298
     ],
     [
      -77.11514498963056,
      39.06672151950629
     ],
     [
      -77.11510493884464,
      39.06674875877872
     ],
     [
      -77.11509059517908,
      39.06674538473042
     ],
     [
      -77.11508338602407,
      39.06673804167921
     ]
    ]
   },
   "properties": {
    "id": "ct-30",
    "kind": "Contour",
    "sourceId": "contours",
    "reliabilityLevel": 1,
    "revision": 1,
    "engineeringGeometry": {
     "crs": "EPSG:2248",
     "crsName": "NAD83 / Maryland State Plane (US survey feet)",
     "datum": "NAD83",
     "unit": "usSurveyFoot",
     "coordinates": [
      [
       1279637.6965000033,
       509887.27799999714,
       356
      ],
      [
       1279638.2415000051,
       509889.07400000095,
       356
      ],
      [
       1279638.3075000048,
       509891.72650000453,
       356
      ],
      [
       1279638.599000007,
       509897.1219999939,
       356
      ],
      [
       1279638.8530000001,
       509900.12849999964,
       356
      ],
      [
       1279640.5690000057,
       509904.8639999926,
       356
      ],
      [
       1279651.9529999942,
       509914.7705000043,
       356
      ],
      [
       1279656.024000004,
       509913.5365000069,
       356
      ],
      [
       1279658.0674999952,
       509910.85950000584,
       356
      ]
     ]
    },
    "elevationFt": 356,
    "weight": "intermediate",
    "hidden": false
   }
  },
  {
   "type": "Feature",
   "geometry": {
    "type": "Polygon",
    "coordinates": [
     [
      [
       -77.11528089280827,
       39.06696980737989
      ],
      [
       -77.11535375621763,
       39.06687064054091
      ],
      [
       -77.11519406964307,
       39.066654574132095
      ],
      [
       -77.11518993246212,
       39.06665654730524
      ],
      [
       -77.11502537041326,
       39.06673503351047
      ],
      [
       -77.11528089280827,
       39.06696980737989
      ]
     ]
    ]
   },
   "properties": {
    "id": "buildable-envelope",
    "kind": "ProposedFeature",
    "sourceId": "gis1",
    "reliabilityLevel": 1,
    "revision": 1,
    "engineeringGeometry": {
     "crs": "EPSG:2248",
     "crsName": "NAD83 / Maryland State Plane (US survey feet)",
     "datum": "NAD83",
     "unit": "usSurveyFoot",
     "coordinates": [
      [
       1279602.0966435468,
       509995.34185850713
      ],
      [
       1279581.3632033225,
       509959.25034369505
      ],
      [
       1279626.6031026877,
       509880.4993438711
      ],
      [
       1279627.7786670874,
       509881.2165128465
      ],
      [
       1279674.5383015322,
       509909.7431315478
      ],
      [
       1279602.0966435468,
       509995.34185850713
      ]
     ]
    },
    "label": "Buildable envelope",
    "setbacks": {
     "frontFt": 25,
     "sideFt": 9,
     "rearFt": 20,
     "maxFt": 25,
     "source": "Montgomery County Code Ch. 59, §4.4.9.B"
    }
   }
  },
  {
   "type": "Feature",
   "geometry": {
    "type": "Polygon",
    "coordinates": [
     [
      [
       -77.11516400162809,
       39.066672133701886
      ],
      [
       -77.11508991304845,
       39.06670746918569
      ],
      [
       -77.11517935543026,
       39.06682143909784
      ],
      [
       -77.11525344408412,
       39.06678610355838
      ],
      [
       -77.11516400162809,
       39.066672133701886
      ]
     ]
    ]
   },
   "properties": {
    "id": "proposed-building",
    "kind": "Building",
    "sourceId": "gis1",
    "reliabilityLevel": 1,
    "revision": 1,
    "engineeringGeometry": {
     "crs": "EPSG:2248",
     "crsName": "NAD83 / Maryland State Plane (US survey feet)",
     "datum": "NAD83",
     "unit": "usSurveyFoot",
     "coordinates": [
      [
       1279635.148293562,
       509886.88395967975
      ],
      [
       1279656.2002653752,
       509899.72700005944
      ],
      [
       1279630.857544833,
       509941.26811670675
      ],
      [
       1279609.80557302,
       509928.42507632705
      ],
      [
       1279635.148293562,
       509886.88395967975
      ]
     ]
    },
    "areaSqFt": 1199.9999999925494,
    "estimated": true,
    "address": "5613 HALPINE RD",
    "lotLabel": "5613 HALPINE RD",
    "garageSlabElevFt": null,
    "basementElevFt": null,
    "finishedFloorElevFt": null,
    "subFloorElevFt": null,
    "heightFt": 20,
    "storeys": 2
   }
  },
  {
   "type": "Feature",
   "geometry": {
    "type": "Polygon",
    "coordinates": [
     [
      [
       -77.11515226585212,
       39.06659404322636
      ],
      [
       -77.11511621348586,
       39.0666112379465
      ],
      [
       -77.115164003329,
       39.066672132887504
      ],
      [
       -77.1152000556918,
       39.0666549381239
      ],
      [
       -77.11515226585212,
       39.06659404322636
      ]
     ]
    ]
   },
   "properties": {
    "id": "driveway",
    "kind": "Pavement",
    "sourceId": "gis1",
    "reliabilityLevel": 1,
    "revision": 1,
    "engineeringGeometry": {
     "crs": "EPSG:2248",
     "crsName": "NAD83 / Maryland State Plane (US survey feet)",
     "datum": "NAD83",
     "unit": "usSurveyFoot",
     "coordinates": [
      [
       1279638.4445207042,
       509858.4383523032
      ],
      [
       1279648.6886685872,
       509864.6879470221
      ],
      [
       1279635.1478102517,
       509886.88366367255
      ],
      [
       1279624.9036688125,
       509880.6340583914
      ],
      [
       1279638.4445207042,
       509858.4383523032
      ]
     ]
    },
    "label": "PROPOSED DRIVEWAY  12' WIDE",
    "areaSqFt": 312.0010062381625,
    "note": "Longitudinal pitch 1% min to 12.5% max, lateral 1/8\" in 12\" to 1/2\" in 12\" away from the building. PGC Code Sec. 32-151, Table 4 — Site Slope Limitations.",
    "improvement": "Driveway",
    "impervious": true
   }
  },
  {
   "type": "Feature",
   "geometry": {
    "type": "Polygon",
    "coordinates": [
     [
      [
       -77.11515240799754,
       39.06667927242354
      ],
      [
       -77.11514321766954,
       39.0666675618992
      ],
      [
       -77.11511878991868,
       39.066679212420325
      ],
      [
       -77.11512798024417,
       39.06669092294654
      ],
      [
       -77.11515240799754,
       39.06667927242354
      ]
     ]
    ]
   },
   "properties": {
    "id": "walk",
    "kind": "Pavement",
    "sourceId": "gis1",
    "reliabilityLevel": 1,
    "revision": 1,
    "engineeringGeometry": {
     "crs": "EPSG:2248",
     "crsName": "NAD83 / Maryland State Plane (US survey feet)",
     "datum": "NAD83",
     "unit": "usSurveyFoot",
     "coordinates": [
      [
       1279638.4433177619,
       509889.4798076306
      ],
      [
       1279641.0473199624,
       509885.21141536423
      ],
      [
       1279647.988368898,
       509889.4459152822
      ],
      [
       1279645.3843666974,
       509893.71430754854
      ],
      [
       1279638.4433177619,
       509889.4798076306
      ]
     ]
    },
    "label": "CONCRETE WALK  5' WIDE",
    "areaSqFt": 40.653766700066626,
    "note": "Leadwalk from the edge of the driveway to the stoop, 8 ft. Lateral pitch 48:1 max, longitudinal 12:1 max. PGC Code Sec. 32-151, Table 4 — Site Slope Limitations.",
    "improvement": "Walk",
    "impervious": true
   }
  },
  {
   "type": "Feature",
   "geometry": {
    "type": "Polygon",
    "coordinates": [
     [
      [
       -77.11513162239115,
       39.06667470150255
      ],
      [
       -77.11510758746685,
       39.06668616466541
      ],
      [
       -77.11511493972623,
       39.066695533087135
      ],
      [
       -77.11513897465251,
       39.06668406992278
      ],
      [
       -77.11513162239115,
       39.06667470150255
      ]
     ]
    ]
   },
   "properties": {
    "id": "stoop",
    "kind": "Pavement",
    "sourceId": "gis1",
    "reliabilityLevel": 1,
    "revision": 1,
    "engineeringGeometry": {
     "crs": "EPSG:2248",
     "crsName": "NAD83 / Maryland State Plane (US survey feet)",
     "datum": "NAD83",
     "unit": "usSurveyFoot",
     "coordinates": [
      [
       1279644.3428120553,
       509887.80758459383
      ],
      [
       1279651.1722396817,
       509891.9739881147
      ],
      [
       1279649.0890379213,
       509895.3887019278
      ],
      [
       1279642.2596102948,
       509891.22229840694
      ],
      [
       1279644.3428120553,
       509887.80758459383
      ]
     ]
    },
    "label": "CONCRETE STOOP  8' x 4'",
    "areaSqFt": 32,
    "note": "Front concrete stoop at the entrance, met by the leadwalk. Riser count and handrail per the architectural plans and the building code.",
    "improvement": "Stoop",
    "impervious": true
   }
  },
  {
   "type": "Feature",
   "geometry": {
    "type": "Polygon",
    "coordinates": [
     [
      [
       -77.11517714650599,
       39.06658217661518
      ],
      [
       -77.11510720038623,
       39.06661553661799
      ],
      [
       -77.11511271457508,
       39.06662256293445
      ],
      [
       -77.11518266069913,
       39.06658920292841
      ],
      [
       -77.11517714650599,
       39.06658217661518
      ]
     ]
    ]
   },
   "properties": {
    "id": "sidewalk",
    "kind": "Pavement",
    "sourceId": "gis1",
    "reliabilityLevel": 1,
    "revision": 1,
    "engineeringGeometry": {
     "crs": "EPSG:2248",
     "crsName": "NAD83 / Maryland State Plane (US survey feet)",
     "datum": "NAD83",
     "unit": "usSurveyFoot",
     "coordinates": [
      [
       1279631.3747710735,
       509854.12531490624
      ],
      [
       1279651.249707073,
       509866.25034321845
      ],
      [
       1279649.6873057527,
       509868.8113785783
      ],
      [
       1279629.8123697531,
       509856.6863502661
      ],
      [
       1279631.3747710735,
       509854.12531490624
      ]
     ]
    },
    "label": "CONCRETE SIDEWALK  3' WIDE",
    "areaSqFt": 69.84457411430776,
    "note": "Public sidewalk across the frontage, inside the front property line. Whether it is to be built, reconstructed or waived is a DPW&T determination at street construction permit.",
    "improvement": "Sidewalk",
    "impervious": true
   }
  },
  {
   "type": "Feature",
   "geometry": {
    "type": "Polygon",
    "coordinates": [
     [
      [
       -77.11516979425012,
       39.06657280819713
      ],
      [
       -77.11509984813614,
       39.066606168195605
      ],
      [
       -77.11510720038623,
       39.06661553661799
      ],
      [
       -77.11517714650599,
       39.06658217661518
      ],
      [
       -77.11516979425012,
       39.06657280819713
      ]
     ]
    ]
   },
   "properties": {
    "id": "verge",
    "kind": "Surface",
    "sourceId": "gis1",
    "reliabilityLevel": 1,
    "revision": 1,
    "engineeringGeometry": {
     "crs": "EPSG:2248",
     "crsName": "NAD83 / Maryland State Plane (US survey feet)",
     "datum": "NAD83",
     "unit": "usSurveyFoot",
     "coordinates": [
      [
       1279633.457972834,
       509850.71060109313
      ],
      [
       1279653.3329088334,
       509862.83562940534
      ],
      [
       1279651.249707073,
       509866.25034321845
      ],
      [
       1279631.3747710735,
       509854.12531490624
      ],
      [
       1279633.457972834,
       509850.71060109313
      ]
     ]
    },
    "label": "PLANTING STRIP  4' WIDE  (STREET TREES)",
    "areaSqFt": 93.12609881535172,
    "note": "Landscaped strip between the sidewalk and the curb, in the strip dedicated to public use. Street tree species, spacing and clear distances are set by the Landscape Manual and by DPW&T; this shows the STRIP, not a planting schedule.",
    "improvement": "Verge",
    "impervious": false
   }
  },
  {
   "type": "Feature",
   "geometry": {
    "type": "Polygon",
    "coordinates": [
     [
      [
       -77.11516703715466,
       39.06656929504023
      ],
      [
       -77.11509709104284,
       39.066602655037094
      ],
      [
       -77.11509984813614,
       39.066606168195605
      ],
      [
       -77.11516979425012,
       39.06657280819713
      ],
      [
       -77.11516703715466,
       39.06656929504023
      ]
     ]
    ]
   },
   "properties": {
    "id": "curb",
    "kind": "Pavement",
    "sourceId": "gis1",
    "reliabilityLevel": 1,
    "revision": 1,
    "engineeringGeometry": {
     "crs": "EPSG:2248",
     "crsName": "NAD83 / Maryland State Plane (US survey feet)",
     "datum": "NAD83",
     "unit": "usSurveyFoot",
     "coordinates": [
      [
       1279634.239173494,
       509849.4300834132
      ],
      [
       1279654.1141094936,
       509861.5551117254
      ],
      [
       1279653.3329088334,
       509862.83562940534
      ],
      [
       1279633.457972834,
       509850.71060109313
      ],
      [
       1279634.239173494,
       509849.4300834132
      ]
     ]
    },
    "label": "CURB AND GUTTER",
    "areaSqFt": 34.92228705622256,
    "note": "Curb and gutter at the street face of the planting strip, 4 ft outside the front property line, where the frontage meets the travelled way. Depressed through every driveway apron per DPW&T STD. 300.01 note 6.",
    "improvement": "Sidewalk",
    "impervious": true
   }
  },
  {
   "type": "Feature",
   "geometry": {
    "type": "Polygon",
    "coordinates": [
     [
      [
       -77.11509709107591,
       39.06660265502133
      ],
      [
       -77.11515116965126,
       39.066576862986594
      ],
      [
       -77.1151577800471,
       39.066601069576585
      ],
      [
       -77.11512172765723,
       39.066618264271156
      ],
      [
       -77.11509709107591,
       39.06660265502133
      ]
     ]
    ]
   },
   "properties": {
    "id": "apron",
    "kind": "Pavement",
    "sourceId": "gis1",
    "reliabilityLevel": 1,
    "revision": 1,
    "engineeringGeometry": {
     "crs": "EPSG:2248",
     "crsName": "NAD83 / Maryland State Plane (US survey feet)",
     "datum": "NAD83",
     "unit": "usSurveyFoot",
     "coordinates": [
      [
       1279654.1141000995,
       509861.5551059945
      ],
      [
       1279638.7478691847,
       509852.18072881637
      ],
      [
       1279636.8821184477,
       509860.99940072244
      ],
      [
       1279647.1262723906,
       509867.2489855079
      ],
      [
       1279654.1141000995,
       509861.5551059945
      ]
     ]
    },
    "label": "PROPOSED 18' DRIVEWAY APRON  PER MCDOT STANDARD",
    "areaSqFt": 127.49999999813735,
    "note": "Driveway apron at the front property line, at street level, between the curb and the driveway. The mcdot standard govern the depression, jointing and curb cut.",
    "improvement": "Apron",
    "impervious": true
   }
  },
  {
   "type": "Feature",
   "geometry": {
    "type": "Polygon",
    "coordinates": [
     [
      [
       -77.11527109872816,
       39.066809861620115
      ],
      [
       -77.11506145194507,
       39.066723642829174
      ],
      [
       -77.11518208449219,
       39.066848813143935
      ],
      [
       -77.11527109872816,
       39.066809861620115
      ]
     ]
    ]
   },
   "properties": {
    "id": "lod",
    "kind": "LimitOfDisturbance",
    "sourceId": "gis1",
    "reliabilityLevel": 1,
    "revision": 1,
    "engineeringGeometry": {
     "crs": "EPSG:2248",
     "crsName": "NAD83 / Maryland State Plane (US survey feet)",
     "datum": "NAD83",
     "unit": "usSurveyFoot",
     "coordinates": [
      [
       1279604.8038774475,
       509937.08435120434
      ],
      [
       1279664.2885611826,
       509905.60743124544
      ],
      [
       1279630.0952715727,
       509951.2390213536
      ],
      [
       1279604.8038774475,
       509937.08435120434
      ]
     ]
    },
    "note": "Limits of disturbance — proposed work plus a 10 ft working margin, clipped to the property line."
   }
  },
  {
   "type": "Feature",
   "geometry": {
    "type": "Polygon",
    "coordinates": [
     [
      [
       -77.11497305412163,
       39.06671414367663
      ],
      [
       -77.11502292583533,
       39.06668369842431
      ],
      [
       -77.11504813698303,
       39.066668627855236
      ],
      [
       -77.1150687967511,
       39.06665597454063
      ],
      [
       -77.11511410492766,
       39.06662816571995
      ],
      [
       -77.11514771963033,
       39.06661141002489
      ],
      [
       -77.11517823874969,
       39.06659587848189
      ],
      [
       -77.1151782864933,
       39.066595947696506
      ],
      [
       -77.11527273605195,
       39.06673524673648
      ],
      [
       -77.11540196023446,
       39.06688948003855
      ],
      [
       -77.1154020147354,
       39.06688954886674
      ],
      [
       -77.11535199405492,
       39.06695964450402
      ],
      [
       -77.11534002360767,
       39.06697673433605
      ],
      [
       -77.11530679083523,
       39.067024120780914
      ],
      [
       -77.1153067435754,
       39.06702418895934
      ],
      [
       -77.11497305412163,
       39.06671414367663
      ]
     ]
    ]
   },
   "properties": {
    "id": "grade-40",
    "kind": "ProposedFeature",
    "sourceId": "design",
    "reliabilityLevel": 1,
    "revision": 1,
    "engineeringGeometry": {
     "crs": "EPSG:2248",
     "crsName": "NAD83 / Maryland State Plane (US survey feet)",
     "datum": "NAD83",
     "unit": "usSurveyFoot",
     "coordinates": [
      [
       1279689.3827129374,
       509902.1161136567
      ],
      [
       1279675.2088246942,
       509891.04545763513
      ],
      [
       1279668.0437833245,
       509885.56561191374
      ],
      [
       1279662.1721084707,
       509880.9645297468
      ],
      [
       1279649.2951200453,
       509870.85247202485
      ],
      [
       1279639.743295488,
       509864.76190175203
      ],
      [
       1279631.070949548,
       509859.11607561784
      ],
      [
       1279631.0574256384,
       509859.14130144165
      ],
      [
       1279604.304682537,
       509909.90938190685
      ],
      [
       1279567.6854945496,
       509966.12919282366
      ],
      [
       1279567.6700520036,
       509966.15428036306
      ],
      [
       1279581.9044885654,
       509991.66592886584
      ],
      [
       1279585.3110719859,
       509997.8859383955
      ],
      [
       1279594.768511825,
       510015.132680632
      ],
      [
       1279594.7819614671,
       510015.1574950101
      ],
      [
       1279689.3827129374,
       509902.1161136567
      ]
     ]
    },
    "type": "Graded area",
    "proposed": true,
    "contourIntervalFt": 2,
    "note": "Positive drainage away from structure at 2% minimum for the first 10 ft."
   }
  },
  {
   "type": "Feature",
   "geometry": {
    "type": "Point",
    "coordinates": [
     -77.11519219920326,
     39.06677100767597
    ]
   },
   "properties": {
    "id": "ffe-41",
    "kind": "SpotElevation",
    "sourceId": "design",
    "reliabilityLevel": 1,
    "revision": 1,
    "engineeringGeometry": {
     "crs": "EPSG:2248",
     "crsName": "NAD83 / Maryland State Plane (US survey feet)",
     "datum": "NAD83",
     "unit": "usSurveyFoot",
     "coordinates": [
      [
       1279627.1876815623,
       509922.90504273865
      ]
     ]
    },
    "label": "FFE",
    "note": "Finished floor elevation to be set above the adjacent grade per code."
   }
  },
  {
   "type": "Feature",
   "geometry": {
    "type": "LineString",
    "coordinates": [
     [
      -77.11507153297397,
      39.06656987730723
     ],
     [
      -77.11515511100242,
      39.06667637396245
     ]
    ]
   },
   "properties": {
    "id": "util-42",
    "kind": "Utility",
    "sourceId": "design",
    "reliabilityLevel": 1,
    "revision": 1,
    "engineeringGeometry": {
     "crs": "EPSG:2248",
     "crsName": "NAD83 / Maryland State Plane (US survey feet)",
     "datum": "NAD83",
     "unit": "usSurveyFoot",
     "coordinates": [
      [
       1279661.355693759,
       509849.60795646923
      ],
      [
       1279637.6745301795,
       509888.4251245253
      ]
     ]
    },
    "type": "Water service (WHC)",
    "size": "1\" COPPER FROM EX. 8\" MAIN",
    "sizeAtHouse": "1\" COPPER",
    "from": "frontage",
    "note": "Record information. Field verification required before excavation — call Miss Utility."
   }
  },
  {
   "type": "Feature",
   "geometry": {
    "type": "LineString",
    "coordinates": [
     [
      -77.11504136691191,
      39.06658426471178
     ],
     [
      -77.11512494483424,
      39.06669076128894
     ]
    ]
   },
   "properties": {
    "id": "util-43",
    "kind": "Utility",
    "sourceId": "design",
    "reliabilityLevel": 1,
    "revision": 1,
    "engineeringGeometry": {
     "crs": "EPSG:2248",
     "crsName": "NAD83 / Maryland State Plane (US survey feet)",
     "datum": "NAD83",
     "unit": "usSurveyFoot",
     "coordinates": [
      [
       1279669.9272685149,
       509854.8372113092
      ],
      [
       1279646.2461270003,
       509893.6543431973
      ]
     ]
    },
    "type": "Sanitary lateral (SHC)",
    "size": "4\" PVC TO EX. 8\" MAIN",
    "sizeAtHouse": "4\" PVC",
    "from": "frontage",
    "note": "Record information. Field verification required before excavation — call Miss Utility."
   }
  },
  {
   "type": "Feature",
   "geometry": {
    "type": "Polygon",
    "coordinates": [
     [
      [
       -77.11509066850387,
       39.066654697172766
      ],
      [
       -77.11504420979226,
       39.06665474282452
      ],
      [
       -77.11504426834082,
       39.06669096053275
      ],
      [
       -77.11509072707608,
       39.06669091488097
      ],
      [
       -77.11509066850387,
       39.066654697172766
      ]
     ]
    ]
   },
   "properties": {
    "id": "swm-44",
    "kind": "SWMPractice",
    "sourceId": "design",
    "reliabilityLevel": 1,
    "revision": 1,
    "engineeringGeometry": {
     "crs": "EPSG:2248",
     "crsName": "NAD83 / Maryland State Plane (US survey feet)",
     "datum": "NAD83",
     "unit": "usSurveyFoot",
     "coordinates": [
      [
       1279655.9615397735,
       509880.50712682295
      ],
      [
       1279669.152445732,
       509880.50712682295
      ],
      [
       1279669.152445732,
       509893.69803278125
      ],
      [
       1279655.9615397735,
       509893.69803278125
      ],
      [
       1279655.9615397735,
       509880.50712682295
      ]
     ]
    },
    "practice": "Environmental Site Design — micro-bioretention",
    "requiredVolumeCf": 139,
    "footprintSqFt": 174,
    "pondingDepthFt": 2
   }
  },
  {
   "type": "Feature",
   "geometry": {
    "type": "Polygon",
    "coordinates": [
     [
      [
       -77.11495634526023,
       39.066709808022885
      ],
      [
       -77.11500823929573,
       39.066676123254794
      ],
      [
       -77.11503512289515,
       39.066659379189325
      ],
      [
       -77.11505749950835,
       39.06664544346653
      ],
      [
       -77.11510720038623,
       39.06661553661799
      ],
      [
       -77.1151439808136,
       39.06659799470128
      ],
      [
       -77.11517714650599,
       39.06658217661518
      ],
      [
       -77.11517719754195,
       39.066582245670546
      ],
      [
       -77.11528803806539,
       39.06672845214221
      ],
      [
       -77.11541622102571,
       39.06689753445997
      ],
      [
       -77.11541627395064,
       39.06689760498365
      ],
      [
       -77.1153616983309,
       39.06697110030193
      ],
      [
       -77.11534862984549,
       39.06698871156169
      ],
      [
       -77.115312651746,
       39.06703706646774
      ],
      [
       -77.11531260093346,
       39.06703713562331
      ],
      [
       -77.11495634526023,
       39.066709808022885
      ]
     ]
    ]
   },
   "properties": {
    "id": "da-45",
    "kind": "DrainageArea",
    "sourceId": "design",
    "reliabilityLevel": 1,
    "revision": 1,
    "engineeringGeometry": {
     "crs": "EPSG:2248",
     "crsName": "NAD83 / Maryland State Plane (US survey feet)",
     "datum": "NAD83",
     "unit": "usSurveyFoot",
     "coordinates": [
      [
       1279694.1248182356,
       509900.53104667366
      ],
      [
       1279679.3752530515,
       509888.28124441206
      ],
      [
       1279671.7345895022,
       509882.1924902499
      ],
      [
       1279665.374867037,
       509877.12495456636
      ],
      [
       1279651.249707073,
       509866.25034321845
      ],
      [
       1279640.7986845225,
       509859.87455543876
      ],
      [
       1279631.3747710735,
       509854.12531490624
      ],
      [
       1279631.360312298,
       509854.15048390627
      ],
      [
       1279599.9569066614,
       509907.4402029067
      ],
      [
       1279563.6401923597,
       509969.0678200871
      ],
      [
       1279563.6251980662,
       509969.09352459013
      ],
      [
       1279579.1544665098,
       509995.8417376131
      ],
      [
       1279582.8730512857,
       510002.2512625605
      ],
      [
       1279593.110405147,
       510019.84974351525
      ],
      [
       1279593.1248639375,
       510019.8749125004
      ],
      [
       1279694.1248182356,
       509900.53104667366
      ]
     ]
    },
    "areaAcres": 0.2203,
    "percentImpervious": 13.8,
    "compositeC": 0.346
   }
  },
  {
   "type": "Feature",
   "geometry": {
    "type": "Polygon",
    "coordinates": [
     [
      [
       -77.11527109872816,
       39.066809861620115
      ],
      [
       -77.11506145194507,
       39.066723642829174
      ],
      [
       -77.11518208449219,
       39.066848813143935
      ],
      [
       -77.11527109872816,
       39.066809861620115
      ]
     ]
    ]
   },
   "properties": {
    "id": "esc-46",
    "kind": "ProposedFeature",
    "sourceId": "design",
    "reliabilityLevel": 1,
    "revision": 1,
    "engineeringGeometry": {
     "crs": "EPSG:2248",
     "crsName": "NAD83 / Maryland State Plane (US survey feet)",
     "datum": "NAD83",
     "unit": "usSurveyFoot",
     "coordinates": [
      [
       1279604.8038774475,
       509937.08435120434
      ],
      [
       1279664.2885611826,
       509905.60743124544
      ],
      [
       1279630.0952715727,
       509951.2390213536
      ],
      [
       1279604.8038774475,
       509937.08435120434
      ]
     ]
    },
    "type": "Silt fence / super silt fence",
    "note": "Perimeter control on the down-gradient limit of disturbance."
   }
  },
  {
   "type": "Feature",
   "geometry": {
    "type": "Polygon",
    "coordinates": [
     [
      [
       -77.11527102757114,
       39.06676593110342
      ],
      [
       -77.115165366631,
       39.06676603506498
      ],
      [
       -77.1151654377228,
       39.066809965581754
      ],
      [
       -77.11527109872816,
       39.066809861620115
      ],
      [
       -77.11527102757114,
       39.06676593110342
      ]
     ]
    ]
   },
   "properties": {
    "id": "sce-47",
    "kind": "ProposedFeature",
    "sourceId": "design",
    "reliabilityLevel": 1,
    "revision": 1,
    "engineeringGeometry": {
     "crs": "EPSG:2248",
     "crsName": "NAD83 / Maryland State Plane (US survey feet)",
     "datum": "NAD83",
     "unit": "usSurveyFoot",
     "coordinates": [
      [
       1279604.8038774475,
       509921.08435120434
      ],
      [
       1279634.8038774475,
       509921.08435120434
      ],
      [
       1279634.8038774475,
       509937.08435120434
      ],
      [
       1279604.8038774475,
       509937.08435120434
      ],
      [
       1279604.8038774475,
       509921.08435120434
      ]
     ]
    },
    "type": "Stabilized construction entrance",
    "note": "Mountable berm, washrack where required."
   }
  },
  {
   "type": "Feature",
   "geometry": {
    "type": "Polygon",
    "coordinates": [
     [
      [
       -77.11516896120396,
       39.06656462954601
      ],
      [
       -77.11513374099019,
       39.06656466417976
      ],
      [
       -77.11513378541022,
       39.06659212075407
      ],
      [
       -77.11516900563758,
       39.0665920861203
      ],
      [
       -77.11516896120396,
       39.06656462954601
      ]
     ]
    ]
   },
   "properties": {
    "id": "street-tree-49",
    "kind": "Tree",
    "sourceId": "design",
    "reliabilityLevel": 1,
    "revision": 1,
    "engineeringGeometry": {
     "crs": "EPSG:2248",
     "crsName": "NAD83 / Maryland State Plane (US survey feet)",
     "datum": "NAD83",
     "unit": "usSurveyFoot",
     "coordinates": [
      [
       1279633.6907394691,
       509847.73154868383
      ],
      [
       1279643.6907394691,
       509847.73154868383
      ],
      [
       1279643.6907394691,
       509857.73154868383
      ],
      [
       1279633.6907394691,
       509857.73154868383
      ],
      [
       1279633.6907394691,
       509847.73154868383
      ]
     ]
    }
   }
  },
  {
   "type": "Feature",
   "geometry": {
    "type": "Polygon",
    "coordinates": [
     [
      [
       -77.1150699607987,
       39.06671548037805
      ],
      [
       -77.11502769645254,
       39.06671552190157
      ],
      [
       -77.11502774970761,
       39.06674846978962
      ],
      [
       -77.11507001407334,
       39.06674842826611
      ],
      [
       -77.1150699607987,
       39.06671548037805
      ]
     ]
    ]
   },
   "properties": {
    "id": "tree-50",
    "kind": "Tree",
    "sourceId": "design",
    "reliabilityLevel": 1,
    "revision": 1,
    "engineeringGeometry": {
     "crs": "EPSG:2248",
     "crsName": "NAD83 / Maryland State Plane (US survey feet)",
     "datum": "NAD83",
     "unit": "usSurveyFoot",
     "coordinates": [
      [
       1279661.8689224843,
       509902.6376224905
      ],
      [
       1279673.8689224843,
       509902.6376224905
      ],
      [
       1279673.8689224843,
       509914.6376224905
      ],
      [
       1279661.8689224843,
       509914.6376224905
      ],
      [
       1279661.8689224843,
       509902.6376224905
      ]
     ]
    }
   }
  },
  {
   "type": "Feature",
   "geometry": {
    "type": "Polygon",
    "coordinates": [
     [
      [
       -77.11513073719806,
       39.066797305208425
      ],
      [
       -77.11508847280332,
       39.066797346753866
      ],
      [
       -77.11508852608658,
       39.06683029464127
      ],
      [
       -77.11513079050088,
       39.06683025309582
      ],
      [
       -77.11513073719806,
       39.066797305208425
      ]
     ]
    ]
   },
   "properties": {
    "id": "tree-52",
    "kind": "Tree",
    "sourceId": "design",
    "reliabilityLevel": 1,
    "revision": 1,
    "engineeringGeometry": {
     "crs": "EPSG:2248",
     "crsName": "NAD83 / Maryland State Plane (US survey feet)",
     "datum": "NAD83",
     "unit": "usSurveyFoot",
     "coordinates": [
      [
       1279644.6504582774,
       509932.46087732515
      ],
      [
       1279656.6504582774,
       509932.46087732515
      ],
      [
       1279656.6504582774,
       509944.46087732515
      ],
      [
       1279644.6504582774,
       509944.46087732515
      ],
      [
       1279644.6504582774,
       509932.46087732515
      ]
     ]
    }
   }
  }
 ],
 "kealee": {
  "siteId": "5613 HALPINE RD",
  "modelRevision": 8,
  "geoJsonCrs": "EPSG:4326 (RFC 7946, longitude first)",
  "sourceCrs": "EPSG:2248",
  "sourceCrsName": "NAD83 / Maryland State Plane (US survey feet)",
  "horizontalDatum": "NAD83",
  "verticalDatum": "NAVD88 (feet)",
  "transformer": "registry (proj4 + arcgis-geometry-service (https://sampleserver6.arcgisonline.com/arcgis/rest/services/Utilities/Geometry/GeometryServer))",
  "note": "Geometry is WGS84 per RFC 7946. Original engineering coordinates are preserved per feature under properties.engineeringGeometry."
 }
}