{
 "type": "FeatureCollection",
 "features": [
  {
   "type": "Feature",
   "geometry": {
    "type": "Polygon",
    "coordinates": [
     [
      [
       -77.15848399948663,
       39.158390590165176
      ],
      [
       -77.15815947549733,
       39.15818323983859
      ],
      [
       -77.15834823317573,
       39.15801228926009
      ],
      [
       -77.15850241523924,
       39.158115731132874
      ],
      [
       -77.15866529797569,
       39.158225018698246
      ],
      [
       -77.15848399948663,
       39.158390590165176
      ]
     ]
    ]
   },
   "properties": {
    "id": "parcel",
    "kind": "Parcel",
    "sourceId": "gis1",
    "reliabilityLevel": 1,
    "revision": 1,
    "engineeringGeometry": {
     "crs": "EPSG:2248",
     "crsName": "NAD83 / Maryland State Plane (US survey feet)",
     "datum": "NAD83",
     "unit": "usSurveyFoot",
     "coordinates": [
      [
       1267393.4303233027,
       543310.5255148709
      ],
      [
       1267485.3217798322,
       543234.845031634
      ],
      [
       1267431.6893341243,
       543172.6744068116
      ],
      [
       1267388.0345197022,
       543210.4257536978
      ],
      [
       1267341.9163570553,
       543250.3105743229
      ],
      [
       1267393.4303233027,
       543310.5255148709
      ]
     ]
    }
   }
  },
  {
   "type": "Feature",
   "geometry": {
    "type": "LineString",
    "coordinates": [
     [
      -77.15843116599139,
      39.15832361666113
     ],
     [
      -77.15842287548608,
      39.158311964544126
     ],
     [
      -77.15841777101986,
      39.15830416706608
     ],
     [
      -77.15841378447041,
      39.158295574598384
     ],
     [
      -77.1584144531354,
      39.15829416245541
     ]
    ]
   },
   "properties": {
    "id": "ct-0",
    "kind": "Contour",
    "sourceId": "contours",
    "reliabilityLevel": 1,
    "revision": 1,
    "engineeringGeometry": {
     "crs": "EPSG:2248",
     "crsName": "NAD83 / Maryland State Plane (US survey feet)",
     "datum": "NAD83",
     "unit": "usSurveyFoot",
     "coordinates": [
      [
       1267408.3694999963,
       543286.1064999998,
       548
      ],
      [
       1267410.7129999995,
       543281.8585000038,
       548
      ],
      [
       1267412.1554999948,
       543279.0160000026,
       548
      ],
      [
       1267413.2804999948,
       543275.8844999969,
       548
      ],
      [
       1267413.0900000036,
       543275.3704999983,
       548
      ]
     ]
    },
    "elevationFt": 548,
    "weight": "intermediate",
    "hidden": false
   }
  },
  {
   "type": "Feature",
   "geometry": {
    "type": "LineString",
    "coordinates": [
     [
      -77.15836595540912,
      39.158053477074844
     ],
     [
      -77.15836403423775,
      39.158045925144364
     ]
    ]
   },
   "properties": {
    "id": "ct-1",
    "kind": "Contour",
    "sourceId": "contours",
    "reliabilityLevel": 1,
    "revision": 1,
    "engineeringGeometry": {
     "crs": "EPSG:2248",
     "crsName": "NAD83 / Maryland State Plane (US survey feet)",
     "datum": "NAD83",
     "unit": "usSurveyFoot",
     "coordinates": [
      [
       1267426.6899999976,
       543187.6844999939,
       546
      ],
      [
       1267427.2300000042,
       543184.9329999983,
       546
      ]
     ]
    },
    "elevationFt": 546,
    "weight": "intermediate",
    "hidden": false
   }
  },
  {
   "type": "Feature",
   "geometry": {
    "type": "LineString",
    "coordinates": [
     [
      -77.1580670364067,
      39.158453653846095
     ],
     [
      -77.1580895770147,
      39.15842135576798
     ],
     [
      -77.15808966435625,
      39.158414644025605
     ],
     [
      -77.15808777948648,
      39.158413098047234
     ]
    ]
   },
   "properties": {
    "id": "ct-2",
    "kind": "Contour",
    "sourceId": "contours",
    "reliabilityLevel": 1,
    "revision": 1,
    "engineeringGeometry": {
     "crs": "EPSG:2248",
     "crsName": "NAD83 / Maryland State Plane (US survey feet)",
     "datum": "NAD83",
     "unit": "usSurveyFoot",
     "coordinates": [
      [
       1267511.7045000046,
       543333.2894999981,
       544
      ],
      [
       1267505.2925000042,
       543321.5370000005,
       544
      ],
      [
       1267505.263500005,
       543319.0925000012,
       544
      ],
      [
       1267505.7970000058,
       543318.5285000056,
       544
      ]
     ]
    },
    "elevationFt": 544,
    "weight": "intermediate",
    "hidden": false
   }
  },
  {
   "type": "Feature",
   "geometry": {
    "type": "LineString",
    "coordinates": [
     [
      -77.15836246349407,
      39.15803974691458
     ],
     [
      -77.15837016664135,
      39.15803550828273
     ],
     [
      -77.15837770833372,
      39.1580379444281
     ],
     [
      -77.15838013489264,
      39.158039654406444
     ],
     [
      -77.15838463573967,
      39.15804641211862
     ],
     [
      -77.15838632840186,
      39.15804874633991
     ],
     [
      -77.15838702082537,
      39.15805245745919
     ],
     [
      -77.15837374726013,
      39.15805897560219
     ],
     [
      -77.15836697291995,
      39.158057477416236
     ],
     [
      -77.15836595540912,
      39.158053477074844
     ]
    ]
   },
   "properties": {
    "id": "ct-3",
    "kind": "Contour",
    "sourceId": "contours",
    "reliabilityLevel": 1,
    "revision": 1,
    "engineeringGeometry": {
     "crs": "EPSG:2248",
     "crsName": "NAD83 / Maryland State Plane (US survey feet)",
     "datum": "NAD83",
     "unit": "usSurveyFoot",
     "coordinates": [
      [
       1267427.6714999974,
       543182.6819999963,
       546
      ],
      [
       1267425.4845000058,
       543181.1420000046,
       546
      ],
      [
       1267423.3474999964,
       543182.0330000073,
       546
      ],
      [
       1267422.660500005,
       543182.6570000052,
       546
      ],
      [
       1267421.388500005,
       543185.1204999983,
       546
      ],
      [
       1267420.9099999964,
       543185.9714999944,
       546
      ],
      [
       1267420.7160000056,
       543187.3235000074,
       546
      ],
      [
       1267424.4839999974,
       543189.6909999996,
       546
      ],
      [
       1267426.4039999992,
       543189.1420000046,
       546
      ],
      [
       1267426.6899999976,
       543187.6844999939,
       546
      ]
     ]
    },
    "elevationFt": 546,
    "weight": "intermediate",
    "hidden": false
   }
  },
  {
   "type": "Feature",
   "geometry": {
    "type": "LineString",
    "coordinates": [
     [
      -77.15851500822151,
      39.158232534676856
     ],
     [
      -77.15852341194108,
      39.15823881349071
     ],
     [
      -77.15853937796709,
      39.1582488517913
     ],
     [
      -77.15857718995234,
      39.15825441541675
     ],
     [
      -77.15858485917342,
      39.158257094362035
     ],
     [
      -77.15858797937106,
      39.15825988791075
     ],
     [
      -77.15858947291099,
      39.158264645392414
     ],
     [
      -77.1585851918039,
      39.15827103608088
     ],
     [
      -77.15855716399705,
      39.15828589200045
     ],
     [
      -77.15853819587518,
      39.15830150443285
     ],
     [
      -77.15852115171343,
      39.15831168208687
     ],
     [
      -77.15847061660068,
      39.15832624031233
     ],
     [
      -77.15845386956725,
      39.15832970867572
     ],
     [
      -77.15843116599139,
      39.15832361666113
     ]
    ]
   },
   "properties": {
    "id": "ct-4",
    "kind": "Contour",
    "sourceId": "contours",
    "reliabilityLevel": 1,
    "revision": 1,
    "engineeringGeometry": {
     "crs": "EPSG:2248",
     "crsName": "NAD83 / Maryland State Plane (US survey feet)",
     "datum": "NAD83",
     "unit": "usSurveyFoot",
     "coordinates": [
      [
       1267384.537499994,
       543252.9740000069,
       548
      ],
      [
       1267382.1585000008,
       543255.2650000006,
       548
      ],
      [
       1267377.637500003,
       543258.9290000051,
       548
      ],
      [
       1267366.9189999998,
       543260.9740000069,
       548
      ],
      [
       1267364.7460000068,
       543261.9535000026,
       548
      ],
      [
       1267363.8630000055,
       543262.9724999964,
       548
      ],
      [
       1267363.4424999952,
       543264.7060000002,
       548
      ],
      [
       1267364.660500005,
       543267.0314999968,
       548
      ],
      [
       1267372.6175000072,
       543272.4284999967,
       548
      ],
      [
       1267378.0059999973,
       543278.1054999977,
       548
      ],
      [
       1267382.8455000073,
       543281.8040000051,
       548
      ],
      [
       1267397.184499994,
       543287.0814999938,
       548
      ],
      [
       1267401.935499996,
       543288.3365000039,
       548
      ],
      [
       1267408.3694999963,
       543286.1064999998,
       548
      ]
     ]
    },
    "elevationFt": 548,
    "weight": "intermediate",
    "hidden": false
   }
  },
  {
   "type": "Feature",
   "geometry": {
    "type": "LineString",
    "coordinates": [
     [
      -77.1584144531354,
      39.15829416245541
     ],
     [
      -77.15842072210286,
      39.15828092979213
     ],
     [
      -77.15845004289993,
      39.15825284110022
     ],
     [
      -77.15848010646098,
      39.15823444062758
     ],
     [
      -77.15849456025339,
      39.15822817621855
     ],
     [
      -77.15850166381605,
      39.158227854990514
     ],
     [
      -77.15851343980734,
      39.158231361679334
     ],
     [
      -77.15851500822151,
      39.158232534676856
     ]
    ]
   },
   "properties": {
    "id": "ct-5",
    "kind": "Contour",
    "sourceId": "contours",
    "reliabilityLevel": 1,
    "revision": 1,
    "engineeringGeometry": {
     "crs": "EPSG:2248",
     "crsName": "NAD83 / Maryland State Plane (US survey feet)",
     "datum": "NAD83",
     "unit": "usSurveyFoot",
     "coordinates": [
      [
       1267413.0900000036,
       543275.3704999983,
       548
      ],
      [
       1267411.3040000051,
       543270.5540000051,
       548
      ],
      [
       1267402.9720000029,
       543260.3379999995,
       548
      ],
      [
       1267394.435499996,
       543253.6509999931,
       548
      ],
      [
       1267390.3330000043,
       543251.3764999956,
       548
      ],
      [
       1267388.3184999973,
       543251.2629999965,
       548
      ],
      [
       1267384.9814999998,
       543252.5460000038,
       548
      ],
      [
       1267384.537499994,
       543252.9740000069,
       548
      ]
     ]
    },
    "elevationFt": 548,
    "weight": "intermediate",
    "hidden": false
   }
  },
  {
   "type": "Feature",
   "geometry": {
    "type": "LineString",
    "coordinates": [
     [
      -77.15836403423775,
      39.158045925144364
     ],
     [
      -77.15836246349407,
      39.15803974691458
     ]
    ]
   },
   "properties": {
    "id": "ct-6",
    "kind": "Contour",
    "sourceId": "contours",
    "reliabilityLevel": 1,
    "revision": 1,
    "engineeringGeometry": {
     "crs": "EPSG:2248",
     "crsName": "NAD83 / Maryland State Plane (US survey feet)",
     "datum": "NAD83",
     "unit": "usSurveyFoot",
     "coordinates": [
      [
       1267427.2300000042,
       543184.9329999983,
       546
      ],
      [
       1267427.6714999974,
       543182.6819999963,
       546
      ]
     ]
    },
    "elevationFt": 546,
    "weight": "intermediate",
    "hidden": false
   }
  },
  {
   "type": "Feature",
   "geometry": {
    "type": "LineString",
    "coordinates": [
     [
      -77.1581617772249,
      39.158372458067525
     ],
     [
      -77.15816184320931,
      39.158371999462965
     ],
     [
      -77.15818610407186,
      39.15832118956731
     ],
     [
      -77.15818905533592,
      39.15831463595152
     ],
     [
      -77.15819104215039,
      39.15831049015721
     ],
     [
      -77.15819560557597,
      39.158305753327795
     ],
     [
      -77.15822959715258,
      39.15827912865963
     ],
     [
      -77.15823862244636,
      39.158273939646946
     ],
     [
      -77.15825484845836,
      39.15826850616619
     ],
     [
      -77.15828610604848,
      39.15825733330286
     ],
     [
      -77.15829635765314,
      39.15824697677942
     ],
     [
      -77.15832248484263,
      39.1582171558371
     ],
     [
      -77.1583371873822,
      39.15820461054618
     ],
     [
      -77.15833793499178,
      39.15820301708724
     ],
     [
      -77.15832568561778,
      39.158169056798265
     ],
     [
      -77.15832748161752,
      39.15815999663079
     ],
     [
      -77.15835089034371,
      39.15813359488154
     ],
     [
      -77.15836654475902,
      39.15811538686888
     ],
     [
      -77.15838499423528,
      39.15810441935061
     ],
     [
      -77.15844611343418,
      39.158091893705866
     ],
     [
      -77.15846746424926,
      39.158087592695104
     ],
     [
      -77.15848052809987,
      39.15809061716638
     ],
     [
      -77.15848945961949,
      39.15809479213799
     ],
     [
      -77.15849711690285,
      39.158099243391646
     ],
     [
      -77.15850516625957,
      39.158104764899726
     ],
     [
      -77.1585062754134,
      39.15810557747148
     ],
     [
      -77.1585101468926,
      39.158109221143604
     ],
     [
      -77.15851126140126,
      39.158111644003874
     ],
     [
      -77.1585151328851,
      39.15812556721138
     ],
     [
      -77.15853474266933,
      39.15813677295909
     ],
     [
      -77.15855742519344,
      39.15813898407328
     ],
     [
      -77.1585643404436,
      39.1581388278322
     ],
     [
      -77.15857988566327,
      39.15814203838332
     ],
     [
      -77.1586025269388,
      39.15815658004509
     ],
     [
      -77.15861488474742,
      39.158168751058
     ],
     [
      -77.15861599255692,
      39.158169750331496
     ],
     [
      -77.15863732763236,
      39.158184461235194
     ],
     [
      -77.15865730387705,
      39.15820183446227
     ],
     [
      -77.15866003101736,
      39.1582086467301
     ],
     [
      -77.15865659651878,
      39.15822303558827
     ],
     [
      -77.15864735514042,
      39.15824436494917
     ],
     [
      -77.15864719664013,
      39.15826025121888
     ],
     [
      -77.15866115229012,
      39.158276495911416
     ],
     [
      -77.15869727068248,
      39.158300626179916
     ],
     [
      -77.15870156597202,
      39.15830295961967
     ],
     [
      -77.15870730064238,
      39.158310271633574
     ],
     [
      -77.15870421482339,
      39.15831498039986
     ],
     [
      -77.15870249126098,
      39.15831618805209
     ],
     [
      -77.15869756297768,
      39.15831939472183
     ],
     [
      -77.15868878566003,
      39.15832744023344
     ],
     [
      -77.15866811486028,
      39.15835123825866
     ],
     [
      -77.15866582863711,
      39.15835473924965
     ],
     [
      -77.1586588743218,
      39.15836584089301
     ],
     [
      -77.15864449512107,
      39.15838419959913
     ],
     [
      -77.15863873488723,
      39.15839150383053
     ],
     [
      -77.15863318300019,
      39.158398143344
     ],
     [
      -77.15862811127857,
      39.15840423995121
     ],
     [
      -77.15862019464755,
      39.158416334056405
     ],
     [
      -77.1586142928981,
      39.15842659823719
     ],
     [
      -77.15860751414303,
      39.158435781836666
     ],
     [
      -77.15860211874751,
      39.15844064610505
     ],
     [
      -77.15859686419536,
      39.15844462198038
     ],
     [
      -77.15857125322405,
      39.15846396369322
     ]
    ]
   },
   "properties": {
    "id": "ct-7",
    "kind": "Contour",
    "sourceId": "contours",
    "reliabilityLevel": 1,
    "revision": 1,
    "engineeringGeometry": {
     "crs": "EPSG:2248",
     "crsName": "NAD83 / Maryland State Plane (US survey feet)",
     "datum": "NAD83",
     "unit": "usSurveyFoot",
     "coordinates": [
      [
       1267484.788499996,
       543303.7629999965,
       546
      ],
      [
       1267484.7695000023,
       543303.5960000008,
       546
      ],
      [
       1267477.8579999954,
       543285.1019999981,
       546
      ],
      [
       1267477.0170000046,
       543282.7164999992,
       546
      ],
      [
       1267476.451000005,
       543281.2074999958,
       546
      ],
      [
       1267475.1539999992,
       543279.4845000058,
       546
      ],
      [
       1267465.4985000044,
       543269.8040000051,
       546
      ],
      [
       1267462.9360000044,
       543267.9185000062,
       546
      ],
      [
       1267458.3314999938,
       543265.9475000054,
       546
      ],
      [
       1267449.4609999955,
       543261.8935000002,
       546
      ],
      [
       1267446.5474999994,
       543258.1264999956,
       546
      ],
      [
       1267439.1200000048,
       543247.2779999971,
       546
      ],
      [
       1267434.9430000037,
       543242.7160000056,
       546
      ],
      [
       1267434.7300000042,
       543242.1360000074,
       546
      ],
      [
       1267438.1819999963,
       543229.7610000074,
       546
      ],
      [
       1267437.6669999957,
       543226.4619999975,
       546
      ],
      [
       1267431.012500003,
       543216.8575000018,
       546
      ],
      [
       1267426.5620000064,
       543210.2335000038,
       546
      ],
      [
       1267421.3235000074,
       543206.247999996,
       546
      ],
      [
       1267403.9845000058,
       543201.7160000056,
       546
      ],
      [
       1267397.9274999946,
       543200.1599999964,
       546
      ],
      [
       1267394.224999994,
       543201.2680000067,
       546
      ],
      [
       1267391.6949999928,
       543202.7929999977,
       546
      ],
      [
       1267389.5265000015,
       543204.4179999977,
       546
      ],
      [
       1267387.2475000024,
       543206.4329999983,
       546
      ],
      [
       1267386.9335000068,
       543206.7294999957,
       546
      ],
      [
       1267385.8379999995,
       543208.0585000068,
       546
      ],
      [
       1267385.5234999955,
       543208.9414999932,
       546
      ],
      [
       1267384.434499994,
       543214.014500007,
       546
      ],
      [
       1267378.8809999973,
       543218.1054999977,
       546
      ],
      [
       1267372.4504999965,
       543218.9220000058,
       546
      ],
      [
       1267370.489500001,
       543218.8684999943,
       546
      ],
      [
       1267366.0834999979,
       543220.0454999954,
       546
      ],
      [
       1267359.6724999994,
       543225.3530000001,
       546
      ],
      [
       1267356.175999999,
       543229.7919999957,
       546
      ],
      [
       1267355.862499997,
       543230.1564999968,
       546
      ],
      [
       1267349.821999997,
       543235.525000006,
       546
      ],
      [
       1267344.1685000062,
       543241.862499997,
       546
      ],
      [
       1267343.3994999975,
       543244.3449999988,
       546
      ],
      [
       1267344.3824999928,
       543249.5840000063,
       546
      ],
      [
       1267347.0164999962,
       543257.3480000049,
       546
      ],
      [
       1267347.0715000033,
       543263.1340000033,
       546
      ],
      [
       1267343.1245000064,
       543269.0575000048,
       546
      ],
      [
       1267332.898000002,
       543277.8639999926,
       546
      ],
      [
       1267331.6815000027,
       543278.7160000056,
       546
      ],
      [
       1267330.0600000024,
       543281.3819999993,
       546
      ],
      [
       1267330.9379999936,
       543283.0955000073,
       546
      ],
      [
       1267331.4274999946,
       543283.5345000029,
       546
      ],
      [
       1267332.827000007,
       543284.700000003,
       546
      ],
      [
       1267335.3209999949,
       543287.626000002,
       546
      ],
      [
       1267341.1975000054,
       543296.2835000008,
       546
      ],
      [
       1267341.848000005,
       543297.5575000048,
       546
      ],
      [
       1267343.827000007,
       543301.5974999964,
       546
      ],
      [
       1267347.9159999937,
       543308.2769999951,
       546
      ],
      [
       1267349.5540000051,
       543310.9344999939,
       546
      ],
      [
       1267351.1324999928,
       543313.349999994,
       546
      ],
      [
       1267352.5744999945,
       543315.5680000037,
       546
      ],
      [
       1267354.827000007,
       543319.9689999968,
       546
      ],
      [
       1267356.5069999993,
       543323.7045000046,
       546
      ],
      [
       1267358.4350000024,
       543327.0460000038,
       546
      ],
      [
       1267359.9679999948,
       543328.8149999976,
       546
      ],
      [
       1267361.460500002,
       543330.2604999989,
       546
      ],
      [
       1267368.7349999994,
       543337.2925000042,
       546
      ]
     ]
    },
    "elevationFt": 546,
    "weight": "intermediate",
    "hidden": false
   }
  },
  {
   "type": "Feature",
   "geometry": {
    "type": "LineString",
    "coordinates": [
     [
      -77.15811544743245,
      39.15797565745395
     ],
     [
      -77.1581231722651,
      39.15797244429153
     ],
     [
      -77.15813363490113,
      39.15797056042639
     ],
     [
      -77.15816726560672,
      39.15797675307491
     ],
     [
      -77.15816966847001,
      39.15798683443171
     ],
     [
      -77.15815496264834,
      39.15800344457131
     ]
    ]
   },
   "properties": {
    "id": "ct-8",
    "kind": "Contour",
    "sourceId": "contours",
    "reliabilityLevel": 1,
    "revision": 1,
    "engineeringGeometry": {
     "crs": "EPSG:2248",
     "crsName": "NAD83 / Maryland State Plane (US survey feet)",
     "datum": "NAD83",
     "unit": "usSurveyFoot",
     "coordinates": [
      [
       1267497.6755000055,
       543159.2179999948,
       546
      ],
      [
       1267495.4829999954,
       543158.0514999926,
       546
      ],
      [
       1267492.5150000006,
       543157.3704999983,
       546
      ],
      [
       1267482.9825000018,
       543159.6424999982,
       546
      ],
      [
       1267482.3075000048,
       543163.3155000061,
       546
      ],
      [
       1267486.4880000055,
       543169.3579999954,
       546
      ]
     ]
    },
    "elevationFt": 546,
    "weight": "intermediate",
    "hidden": false
   }
  },
  {
   "type": "Feature",
   "geometry": {
    "type": "LineString",
    "coordinates": [
     [
      -77.15816125971216,
      39.158376029421326
     ],
     [
      -77.1581617772249,
      39.158372458067525
     ]
    ]
   },
   "properties": {
    "id": "ct-9",
    "kind": "Contour",
    "sourceId": "contours",
    "reliabilityLevel": 1,
    "revision": 1,
    "engineeringGeometry": {
     "crs": "EPSG:2248",
     "crsName": "NAD83 / Maryland State Plane (US survey feet)",
     "datum": "NAD83",
     "unit": "usSurveyFoot",
     "coordinates": [
      [
       1267484.9375,
       543305.063500002,
       546
      ],
      [
       1267484.788499996,
       543303.7629999965,
       546
      ]
     ]
    },
    "elevationFt": 546,
    "weight": "intermediate",
    "hidden": false
   }
  },
  {
   "type": "Feature",
   "geometry": {
    "type": "LineString",
    "coordinates": [
     [
      -77.15815496264834,
      39.15800344457131
     ],
     [
      -77.15815179846199,
      39.15800701949525
     ],
     [
      -77.15814058387234,
      39.15801092513959
     ]
    ]
   },
   "properties": {
    "id": "ct-10",
    "kind": "Contour",
    "sourceId": "contours",
    "reliabilityLevel": 1,
    "revision": 1,
    "engineeringGeometry": {
     "crs": "EPSG:2248",
     "crsName": "NAD83 / Maryland State Plane (US survey feet)",
     "datum": "NAD83",
     "unit": "usSurveyFoot",
     "coordinates": [
      [
       1267486.4880000055,
       543169.3579999954,
       546
      ],
      [
       1267487.387500003,
       543170.6585000008,
       546
      ],
      [
       1267490.5699999928,
       543172.0754999965,
       546
      ]
     ]
    },
    "elevationFt": 546,
    "weight": "intermediate",
    "hidden": false
   }
  },
  {
   "type": "Feature",
   "geometry": {
    "type": "LineString",
    "coordinates": [
     [
      -77.15842792564466,
      39.15795288371601
     ],
     [
      -77.1584301255167,
      39.157962852772116
     ],
     [
      -77.15843335049738,
      39.15797311010411
     ],
     [
      -77.15844505661488,
      39.15798405061325
     ],
     [
      -77.1584759488121,
      39.158002029627006
     ],
     [
      -77.15850171547947,
      39.15801698578888
     ],
     [
      -77.1585124531329,
      39.15802061331523
     ],
     [
      -77.15853616554082,
      39.15802764157371
     ],
     [
      -77.15855600751708,
      39.158044139153006
     ],
     [
      -77.15858578865775,
      39.15806754083215
     ],
     [
      -77.15861801235216,
      39.158091116290784
     ],
     [
      -77.15864126944608,
      39.15810664552908
     ],
     [
      -77.15867627252024,
      39.15812250618662
     ],
     [
      -77.1587073663207,
      39.15814227499889
     ],
     [
      -77.15872113457227,
      39.15816383130632
     ],
     [
      -77.15872708568061,
      39.158172526810155
     ],
     [
      -77.15873321715276,
      39.15817671241757
     ],
     [
      -77.15873829936116,
      39.15818005929078
     ]
    ]
   },
   "properties": {
    "id": "ct-11",
    "kind": "Contour",
    "sourceId": "contours",
    "reliabilityLevel": 1,
    "revision": 1,
    "engineeringGeometry": {
     "crs": "EPSG:2248",
     "crsName": "NAD83 / Maryland State Plane (US survey feet)",
     "datum": "NAD83",
     "unit": "usSurveyFoot",
     "coordinates": [
      [
       1267409.0540000051,
       543151.077000007,
       544
      ],
      [
       1267408.436499998,
       543154.7090000063,
       544
      ],
      [
       1267407.5285000056,
       543158.4465000033,
       544
      ],
      [
       1267404.2160000056,
       543162.4370000064,
       544
      ],
      [
       1267395.4675000012,
       543169.0004999936,
       544
      ],
      [
       1267388.1704999954,
       543174.4605000019,
       544
      ],
      [
       1267385.128000006,
       543175.7870000005,
       544
      ],
      [
       1267378.4085000008,
       543178.3585000038,
       544
      ],
      [
       1267372.7925000042,
       543184.377000004,
       544
      ],
      [
       1267364.362499997,
       543192.9150000066,
       544
      ],
      [
       1267355.2399999946,
       543201.5174999982,
       544
      ],
      [
       1267348.6550000012,
       543207.1850000024,
       544
      ],
      [
       1267338.739500001,
       543212.9790000021,
       544
      ],
      [
       1267329.9350000024,
       543220.1944999993,
       544
      ],
      [
       1267326.0444999933,
       543228.0524999946,
       544
      ],
      [
       1267324.362499997,
       543231.2224999964,
       544
      ],
      [
       1267322.6264999956,
       543232.75,
       544
      ],
      [
       1267321.1875,
       543233.9714999944,
       544
      ]
     ]
    },
    "elevationFt": 544,
    "weight": "intermediate",
    "hidden": false
   }
  },
  {
   "type": "Feature",
   "geometry": {
    "type": "LineString",
    "coordinates": [
     [
      -77.15821247372428,
      39.15845649433374
     ],
     [
      -77.15819517321455,
      39.15844501909402
     ],
     [
      -77.15818765419905,
      39.158436943439604
     ],
     [
      -77.15818540397625,
      39.158432071658616
     ],
     [
      -77.15818140320054,
      39.158424208159936
     ],
     [
      -77.15816780155461,
      39.15841090896469
     ],
     [
      -77.15815822063449,
      39.1583970058033
     ],
     [
      -77.15816125971216,
      39.158376029421326
     ]
    ]
   },
   "properties": {
    "id": "ct-12",
    "kind": "Contour",
    "sourceId": "contours",
    "reliabilityLevel": 1,
    "revision": 1,
    "engineeringGeometry": {
     "crs": "EPSG:2248",
     "crsName": "NAD83 / Maryland State Plane (US survey feet)",
     "datum": "NAD83",
     "unit": "usSurveyFoot",
     "coordinates": [
      [
       1267470.4660000056,
       543334.3955000043,
       546
      ],
      [
       1267475.364500001,
       543330.2074999958,
       546
      ],
      [
       1267477.4915000051,
       543327.262500003,
       546
      ],
      [
       1267478.1264999956,
       543325.4870000035,
       546
      ],
      [
       1267479.2559999973,
       543322.6210000068,
       546
      ],
      [
       1267483.1044999957,
       543317.7705000043,
       546
      ],
      [
       1267485.8125,
       543312.702000007,
       546
      ],
      [
       1267484.9375,
       543305.063500002,
       546
      ]
     ]
    },
    "elevationFt": 546,
    "weight": "intermediate",
    "hidden": false
   }
  },
  {
   "type": "Feature",
   "geometry": {
    "type": "LineString",
    "coordinates": [
     [
      -77.15814058387234,
      39.15801092513959
     ],
     [
      -77.1581170311026,
      39.158008263466726
     ],
     [
      -77.15811036535857,
      39.15800722638066
     ],
     [
      -77.15809274061397,
      39.15799975190478
     ],
     [
      -77.15809434574304,
      39.157991276811245
     ],
     [
      -77.1581008180719,
      39.15798463333593
     ],
     [
      -77.15811302868619,
      39.1579766628605
     ],
     [
      -77.15811544743245,
      39.15797565745395
     ]
    ]
   },
   "properties": {
    "id": "ct-13",
    "kind": "Contour",
    "sourceId": "contours",
    "reliabilityLevel": 1,
    "revision": 1,
    "engineeringGeometry": {
     "crs": "EPSG:2248",
     "crsName": "NAD83 / Maryland State Plane (US survey feet)",
     "datum": "NAD83",
     "unit": "usSurveyFoot",
     "coordinates": [
      [
       1267490.5699999928,
       543172.0754999965,
       546
      ],
      [
       1267497.246999994,
       543171.0945000052,
       546
      ],
      [
       1267499.136500001,
       543170.7134999931,
       546
      ],
      [
       1267504.1295000017,
       543167.9825000018,
       546
      ],
      [
       1267503.6689999998,
       543164.8965000063,
       546
      ],
      [
       1267501.8295000046,
       543162.4800000042,
       546
      ],
      [
       1267498.3620000035,
       543159.5830000043,
       546
      ],
      [
       1267497.6755000055,
       543159.2179999948,
       546
      ]
     ]
    },
    "elevationFt": 546,
    "weight": "intermediate",
    "hidden": false
   }
  },
  {
   "type": "Feature",
   "geometry": {
    "type": "Polygon",
    "coordinates": [
     [
      [
       -77.15848057941736,
       39.15837712287642
      ],
      [
       -77.15817687016964,
       39.158185488451046
      ],
      [
       -77.15835401075307,
       39.15802525940237
      ],
      [
       -77.15849499805182,
       39.15812818550158
      ],
      [
       -77.15864767366664,
       39.15822459192062
      ],
      [
       -77.15848057941736,
       39.15837712287642
      ]
     ]
    ]
   },
   "properties": {
    "id": "grade-28",
    "kind": "ProposedFeature",
    "sourceId": "design",
    "reliabilityLevel": 1,
    "revision": 1,
    "engineeringGeometry": {
     "crs": "EPSG:2248",
     "crsName": "NAD83 / Maryland State Plane (US survey feet)",
     "datum": "NAD83",
     "unit": "usSurveyFoot",
     "coordinates": [
      [
       1267394.391605689,
       543305.6187913028
      ],
      [
       1267480.3907364225,
       543235.672564649
      ],
      [
       1267430.0592251243,
       543177.4012180674
      ],
      [
       1267390.1456274055,
       543214.9582170749
      ],
      [
       1267346.9136625926,
       543250.1464482571
      ],
      [
       1267394.391605689,
       543305.6187913028
      ]
     ]
    },
    "type": "Graded area",
    "proposed": true,
    "contourIntervalFt": 2,
    "note": "Positive drainage away from structure at 2% minimum for the first 10 ft."
   }
  },
  {
   "type": "Feature",
   "geometry": {
    "type": "Point",
    "coordinates": [
     -77.15844057005206,
     39.1582195766493
    ]
   },
   "properties": {
    "id": "ffe-29",
    "kind": "SpotElevation",
    "sourceId": "design",
    "reliabilityLevel": 1,
    "revision": 1,
    "engineeringGeometry": {
     "crs": "EPSG:2248",
     "crsName": "NAD83 / Maryland State Plane (US survey feet)",
     "datum": "NAD83",
     "unit": "usSurveyFoot",
     "coordinates": [
      [
       1267405.63710622,
       543248.217799368
      ]
     ]
    },
    "label": "FFE",
    "note": "Finished floor elevation to be set above the adjacent grade per code."
   }
  },
  {
   "type": "Feature",
   "geometry": {
    "type": "Polygon",
    "coordinates": [
     [
      [
       -77.15837222186875,
       39.158028476206965
      ],
      [
       -77.15834728538508,
       39.1580285098853
      ],
      [
       -77.1583473286395,
       39.15804792416831
      ],
      [
       -77.15837226512997,
       39.15804789048999
      ],
      [
       -77.15837222186875,
       39.158028476206965
      ]
     ]
    ]
   },
   "properties": {
    "id": "swm-30",
    "kind": "SWMPractice",
    "sourceId": "design",
    "reliabilityLevel": 1,
    "revision": 1,
    "engineeringGeometry": {
     "crs": "EPSG:2248",
     "crsName": "NAD83 / Maryland State Plane (US survey feet)",
     "datum": "NAD83",
     "unit": "usSurveyFoot",
     "coordinates": [
      [
       1267424.8972717302,
       543178.5817969752
      ],
      [
       1267431.9683395422,
       543178.5817969752
      ],
      [
       1267431.9683395422,
       543185.6528647871
      ],
      [
       1267424.8972717302,
       543185.6528647871
      ],
      [
       1267424.8972717302,
       543178.5817969752
      ]
     ]
    },
    "practice": "Environmental Site Design — micro-bioretention",
    "requiredVolumeCf": 40,
    "footprintSqFt": 50,
    "pondingDepthFt": 2
   }
  },
  {
   "type": "Feature",
   "geometry": {
    "type": "Polygon",
    "coordinates": [
     [
      [
       -77.15848399948663,
       39.158390590165176
      ],
      [
       -77.15815947549733,
       39.15818323983859
      ],
      [
       -77.15834823317573,
       39.15801228926009
      ],
      [
       -77.15850241523924,
       39.158115731132874
      ],
      [
       -77.15866529797569,
       39.158225018698246
      ],
      [
       -77.15848399948663,
       39.158390590165176
      ]
     ]
    ]
   },
   "properties": {
    "id": "da-31",
    "kind": "DrainageArea",
    "sourceId": "design",
    "reliabilityLevel": 1,
    "revision": 1,
    "engineeringGeometry": {
     "crs": "EPSG:2248",
     "crsName": "NAD83 / Maryland State Plane (US survey feet)",
     "datum": "NAD83",
     "unit": "usSurveyFoot",
     "coordinates": [
      [
       1267393.4303233027,
       543310.5255148709
      ],
      [
       1267485.3217798322,
       543234.845031634
      ],
      [
       1267431.6893341243,
       543172.6744068116
      ],
      [
       1267388.0345197022,
       543210.4257536978
      ],
      [
       1267341.9163570553,
       543250.3105743229
      ],
      [
       1267393.4303233027,
       543310.5255148709
      ]
     ]
    },
    "areaAcres": 0.2201,
    "percentImpervious": 0,
    "compositeC": 0.25
   }
  },
  {
   "type": "Feature",
   "geometry": {
    "type": "Polygon",
    "coordinates": [
     [
      [
       -77.15857545323074,
       39.15833055394484
      ],
      [
       -77.1585401875676,
       39.15833060163277
      ],
      [
       -77.15854024881334,
       39.158358057572855
      ],
      [
       -77.15857551449011,
       39.15835800988493
      ],
      [
       -77.15857545323074,
       39.15833055394484
      ]
     ]
    ]
   },
   "properties": {
    "id": "street-tree-32",
    "kind": "Tree",
    "sourceId": "design",
    "reliabilityLevel": 1,
    "revision": 1,
    "engineeringGeometry": {
     "crs": "EPSG:2248",
     "crsName": "NAD83 / Maryland State Plane (US survey feet)",
     "datum": "NAD83",
     "unit": "usSurveyFoot",
     "coordinates": [
      [
       1267367.45963836,
       543288.7042282871
      ],
      [
       1267377.45963836,
       543288.7042282871
      ],
      [
       1267377.45963836,
       543298.7042282871
      ],
      [
       1267367.45963836,
       543298.7042282871
      ],
      [
       1267367.45963836,
       543288.7042282871
      ]
     ]
    }
   }
  },
  {
   "type": "Feature",
   "geometry": {
    "type": "Polygon",
    "coordinates": [
     [
      [
       -77.15863588603223,
       39.15827536343982
      ],
      [
       -77.1586006203965,
       39.15827541114592
      ],
      [
       -77.15860068166553,
       39.15830286708636
      ],
      [
       -77.15863594731489,
       39.15830281938025
      ],
      [
       -77.15863588603223,
       39.15827536343982
      ]
     ]
    ]
   },
   "properties": {
    "id": "street-tree-33",
    "kind": "Tree",
    "sourceId": "design",
    "reliabilityLevel": 1,
    "revision": 1,
    "engineeringGeometry": {
     "crs": "EPSG:2248",
     "crsName": "NAD83 / Maryland State Plane (US survey feet)",
     "datum": "NAD83",
     "unit": "usSurveyFoot",
     "coordinates": [
      [
       1267350.2883162773,
       543268.6325814377
      ],
      [
       1267360.2883162773,
       543268.6325814377
      ],
      [
       1267360.2883162773,
       543278.6325814377
      ],
      [
       1267350.2883162773,
       543278.6325814377
      ],
      [
       1267350.2883162773,
       543268.6325814377
      ]
     ]
    }
   }
  },
  {
   "type": "Feature",
   "geometry": {
    "type": "Polygon",
    "coordinates": [
     [
      [
       -77.15837705524774,
       39.15820318884223
      ],
      [
       -77.15833473652762,
       39.158203245994855
      ],
      [
       -77.15833480992715,
       39.158236193124154
      ],
      [
       -77.15837712866688,
       39.1582361359715
      ],
      [
       -77.15837705524774,
       39.15820318884223
      ]
     ]
    ]
   },
   "properties": {
    "id": "tree-34",
    "kind": "Tree",
    "sourceId": "design",
    "reliabilityLevel": 1,
    "revision": 1,
    "engineeringGeometry": {
     "crs": "EPSG:2248",
     "crsName": "NAD83 / Maryland State Plane (US survey feet)",
     "datum": "NAD83",
     "unit": "usSurveyFoot",
     "coordinates": [
      [
       1267423.63710622,
       543242.217799368
      ],
      [
       1267435.63710622,
       543242.217799368
      ],
      [
       1267435.63710622,
       543254.217799368
      ],
      [
       1267423.63710622,
       543254.217799368
      ],
      [
       1267423.63710622,
       543242.217799368
      ]
     ]
    }
   }
  },
  {
   "type": "Feature",
   "geometry": {
    "type": "Polygon",
    "coordinates": [
     [
      [
       -77.1584618396046,
       39.15826896874931
      ],
      [
       -77.15841952084538,
       39.158269025932555
      ],
      [
       -77.15841959428428,
       39.158301973061214
      ],
      [
       -77.15846191306312,
       39.15830191587797
      ],
      [
       -77.1584618396046,
       39.15826896874931
      ]
     ]
    ]
   },
   "properties": {
    "id": "tree-35",
    "kind": "Tree",
    "sourceId": "design",
    "reliabilityLevel": 1,
    "revision": 1,
    "engineeringGeometry": {
     "crs": "EPSG:2248",
     "crsName": "NAD83 / Maryland State Plane (US survey feet)",
     "datum": "NAD83",
     "unit": "usSurveyFoot",
     "coordinates": [
      [
       1267399.63710622,
       543266.217799368
      ],
      [
       1267411.63710622,
       543266.217799368
      ],
      [
       1267411.63710622,
       543278.217799368
      ],
      [
       1267399.63710622,
       543278.217799368
      ],
      [
       1267399.63710622,
       543266.217799368
      ]
     ]
    }
   }
  },
  {
   "type": "Feature",
   "geometry": {
    "type": "Polygon",
    "coordinates": [
     [
      [
       -77.15854633012752,
       39.158202960078995
      ],
      [
       -77.15850401140767,
       39.15820301729272
      ],
      [
       -77.15850408488566,
       39.1582359644219
      ],
      [
       -77.15854640362514,
       39.158235907208166
      ],
      [
       -77.15854633012752,
       39.158202960078995
      ]
     ]
    ]
   },
   "properties": {
    "id": "tree-36",
    "kind": "Tree",
    "sourceId": "design",
    "reliabilityLevel": 1,
    "revision": 1,
    "engineeringGeometry": {
     "crs": "EPSG:2248",
     "crsName": "NAD83 / Maryland State Plane (US survey feet)",
     "datum": "NAD83",
     "unit": "usSurveyFoot",
     "coordinates": [
      [
       1267375.63710622,
       543242.217799368
      ],
      [
       1267387.63710622,
       543242.217799368
      ],
      [
       1267387.63710622,
       543254.217799368
      ],
      [
       1267375.63710622,
       543254.217799368
      ],
      [
       1267375.63710622,
       543242.217799368
      ]
     ]
    }
   }
  }
 ],
 "kealee": {
  "siteId": "18405 EMORY ST",
  "modelRevision": 6,
  "geoJsonCrs": "EPSG:4326 (RFC 7946, longitude first)",
  "sourceCrs": "EPSG:2248",
  "sourceCrsName": "NAD83 / Maryland State Plane (US survey feet)",
  "horizontalDatum": "NAD83",
  "verticalDatum": "NAVD88 (feet)",
  "transformer": "registry (proj4 + arcgis-geometry-service (https://sampleserver6.arcgisonline.com/arcgis/rest/services/Utilities/Geometry/GeometryServer))",
  "note": "Geometry is WGS84 per RFC 7946. Original engineering coordinates are preserved per feature under properties.engineeringGeometry."
 }
}