{
 "type": "FeatureCollection",
 "features": [
  {
   "type": "Feature",
   "geometry": {
    "type": "Polygon",
    "coordinates": [
     [
      [
       -77.1196149054382,
       38.997664628969254
      ],
      [
       -77.11994050888916,
       38.99746534506809
      ],
      [
       -77.12007010421728,
       38.997579476204
      ],
      [
       -77.12009362453408,
       38.997600207564616
      ],
      [
       -77.11978271070852,
       38.99781748572932
      ],
      [
       -77.11974724288372,
       38.99778700927499
      ],
      [
       -77.11970273203978,
       38.99774839630759
      ],
      [
       -77.11962939420513,
       38.99767963528019
      ],
      [
       -77.1196149054382,
       38.997664628969254
      ]
     ]
    ]
   },
   "properties": {
    "id": "parcel",
    "kind": "Parcel",
    "sourceId": "gis1",
    "reliabilityLevel": 1,
    "revision": 1,
    "engineeringGeometry": {
     "crs": "EPSG:2248",
     "crsName": "NAD83 / Maryland State Plane (US survey feet)",
     "datum": "NAD83",
     "unit": "usSurveyFoot",
     "coordinates": [
      [
       1278338.4848547876,
       484755.4168448895
      ],
      [
       1278245.852251768,
       484682.9579927027
      ],
      [
       1278209.0755339563,
       484724.5735832155
      ],
      [
       1278202.4009313285,
       484732.13284915686
      ],
      [
       1278290.8672628105,
       484811.15063372254
      ],
      [
       1278300.932717815,
       484800.0377202183
      ],
      [
       1278313.5643390417,
       484785.9580786377
      ],
      [
       1278334.37427634,
       484760.8876199573
      ],
      [
       1278338.4848547876,
       484755.4168448895
      ]
     ]
    }
   }
  },
  {
   "type": "Feature",
   "geometry": {
    "type": "LineString",
    "coordinates": [
     [
      -77.1201827795987,
      38.99762140523391
     ],
     [
      -77.12016137999804,
      38.997611353230006
     ],
     [
      -77.12015126985177,
      38.997605452114406
     ],
     [
      -77.12014745057158,
      38.997603472266135
     ],
     [
      -77.12010951667881,
      38.99759009983002
     ],
     [
      -77.1201043140288,
      38.99758779054338
     ],
     [
      -77.12010129908063,
      38.99758182997051
     ],
     [
      -77.1200986086611,
      38.997571135471496
     ],
     [
      -77.12009516178352,
      38.997566728037256
     ],
     [
      -77.12009422744484,
      38.997565597766545
     ],
     [
      -77.12008199737623,
      38.9975357109819
     ],
     [
      -77.1200784230869,
      38.99752981825226
     ],
     [
      -77.12006757774485,
      38.9975188026382
     ],
     [
      -77.12006394506044,
      38.997515839633806
     ],
     [
      -77.12001682006634,
      38.99748647875798
     ],
     [
      -77.12001191280088,
      38.99748510133052
     ],
     [
      -77.12000588765208,
      38.99748329397412
     ],
     [
      -77.11999262900618,
      38.997475675891074
     ],
     [
      -77.11998664193895,
      38.997473497824664
     ],
     [
      -77.11998132585282,
      38.99747068206651
     ],
     [
      -77.11997125305805,
      38.997459778224936
     ],
     [
      -77.11996160992689,
      38.99745119543428
     ],
     [
      -77.11995549940649,
      38.99744674679594
     ],
     [
      -77.11995031727128,
      38.997440939454926
     ],
     [
      -77.1199423884085,
      38.99742859329096
     ],
     [
      -77.11993228453726,
      38.997414898470026
     ],
     [
      -77.11992840553891,
      38.99741087724511
     ],
     [
      -77.11992461498448,
      38.99740714010975
     ]
    ]
   },
   "properties": {
    "id": "ct-0",
    "kind": "Contour",
    "sourceId": "contours",
    "reliabilityLevel": 1,
    "revision": 1,
    "engineeringGeometry": {
     "crs": "EPSG:2248",
     "crsName": "NAD83 / Maryland State Plane (US survey feet)",
     "datum": "NAD83",
     "unit": "usSurveyFoot",
     "coordinates": [
      [
       1278177.072999999,
       484739.88650000095,
       332
      ],
      [
       1278183.150000006,
       484736.2175000012,
       332
      ],
      [
       1278186.0205000043,
       484734.06450000405,
       332
      ],
      [
       1278187.1050000042,
       484733.3419999927,
       332
      ],
      [
       1278197.8795000017,
       484728.4574999958,
       332
      ],
      [
       1278199.3569999933,
       484727.6145000011,
       332
      ],
      [
       1278200.2109999955,
       484725.44249999523,
       332
      ],
      [
       1278200.9705000073,
       484721.5464999974,
       332
      ],
      [
       1278201.947999999,
       484719.9399999976,
       332
      ],
      [
       1278202.2129999995,
       484719.52799999714,
       332
      ],
      [
       1278205.6745000035,
       484708.638500005,
       332
      ],
      [
       1278206.6875,
       484706.49099999666,
       332
      ],
      [
       1278209.764500007,
       484702.47499999404,
       332
      ],
      [
       1278210.7954999954,
       484701.39450000226,
       332
      ],
      [
       1278224.1745000035,
       484690.6835000068,
       332
      ],
      [
       1278225.5684999973,
       484690.18000000715,
       332
      ],
      [
       1278227.2800000012,
       484689.51950000226,
       332
      ],
      [
       1278231.0444999933,
       484686.73999999464,
       332
      ],
      [
       1278232.7450000048,
       484685.9444999993,
       332
      ],
      [
       1278234.2545000017,
       484684.9169999957,
       332
      ],
      [
       1278237.1120000035,
       484680.94200000167,
       332
      ],
      [
       1278239.8484999985,
       484677.8125,
       332
      ],
      [
       1278241.5830000043,
       484676.1899999976,
       332
      ],
      [
       1278243.053000003,
       484674.0729999989,
       332
      ],
      [
       1278245.3005000055,
       484669.5735000074,
       332
      ],
      [
       1278248.1655000001,
       484664.58200000226,
       332
      ],
      [
       1278249.2660000026,
       484663.11599999666,
       332
      ],
      [
       1278250.3414999992,
       484661.75349999964,
       332
      ]
     ]
    },
    "elevationFt": 332,
    "weight": "intermediate",
    "hidden": false
   }
  },
  {
   "type": "Feature",
   "geometry": {
    "type": "LineString",
    "coordinates": [
     [
      -77.11967509918813,
      38.9974297305538
     ],
     [
      -77.11967308108669,
      38.997428576677045
     ],
     [
      -77.11967068033078,
      38.997413281445176
     ],
     [
      -77.11967355916059,
      38.99740736013601
     ]
    ]
   },
   "properties": {
    "id": "ct-1",
    "kind": "Contour",
    "sourceId": "contours",
    "reliabilityLevel": 1,
    "revision": 1,
    "engineeringGeometry": {
     "crs": "EPSG:2248",
     "crsName": "NAD83 / Maryland State Plane (US survey feet)",
     "datum": "NAD83",
     "unit": "usSurveyFoot",
     "coordinates": [
      [
       1278321.2654999942,
       484669.88799999654,
       328
      ],
      [
       1278321.838499993,
       484669.4669999927,
       328
      ],
      [
       1278322.513500005,
       484663.8955000043,
       328
      ],
      [
       1278321.6924999952,
       484661.73999999464,
       328
      ]
     ]
    },
    "elevationFt": 328,
    "weight": "intermediate",
    "hidden": false
   }
  },
  {
   "type": "Feature",
   "geometry": {
    "type": "LineString",
    "coordinates": [
     [
      -77.120175657904,
      38.99762974164164
     ],
     [
      -77.12016234083036,
      38.997624016800636
     ],
     [
      -77.12014002750995,
      38.99761149871676
     ],
     [
      -77.1201326517228,
      38.997606872916464
     ],
     [
      -77.12011296500961,
      38.99760058487712
     ],
     [
      -77.1200994742263,
      38.99759617128077
     ],
     [
      -77.12009051122998,
      38.99757987786713
     ],
     [
      -77.12008925484233,
      38.997575560165124
     ],
     [
      -77.12008769165875,
      38.99757397200741
     ],
     [
      -77.12008405566262,
      38.99757113393658
     ],
     [
      -77.12007676871748,
      38.99756076128397
     ],
     [
      -77.12005604951865,
      38.9975378957366
     ],
     [
      -77.12005048343217,
      38.99753289053958
     ],
     [
      -77.120039749999,
      38.99752459717321
     ],
     [
      -77.12001799580729,
      38.997510807231315
     ],
     [
      -77.12001566850238,
      38.99750991589243
     ],
     [
      -77.11999621758393,
      38.99750258971553
     ],
     [
      -77.11997773558913,
      38.9974918578692
     ],
     [
      -77.1199661496045,
      38.99748293385854
     ],
     [
      -77.1199587788933,
      38.99747086032088
     ],
     [
      -77.11994936201656,
      38.9974597745884
     ],
     [
      -77.11994760290422,
      38.99745779948547
     ],
     [
      -77.11993499416737,
      38.99743911142534
     ],
     [
      -77.11992763114385,
      38.99742637341748
     ],
     [
      -77.1199225347136,
      38.9974171311121
     ],
     [
      -77.1199191916947,
      38.99741274827743
     ],
     [
      -77.11990918697185,
      38.99740046739021
     ]
    ]
   },
   "properties": {
    "id": "ct-2",
    "kind": "Contour",
    "sourceId": "contours",
    "reliabilityLevel": 1,
    "revision": 1,
    "engineeringGeometry": {
     "crs": "EPSG:2248",
     "crsName": "NAD83 / Maryland State Plane (US survey feet)",
     "datum": "NAD83",
     "unit": "usSurveyFoot",
     "coordinates": [
      [
       1278179.100999996,
       484742.9200000018,
       330
      ],
      [
       1278182.8830000013,
       484740.8299999982,
       330
      ],
      [
       1278189.2185000032,
       484736.262500003,
       330
      ],
      [
       1278191.3125,
       484734.575000003,
       330
      ],
      [
       1278196.9044999927,
       484732.2775000036,
       330
      ],
      [
       1278200.736499995,
       484730.66500000656,
       330
      ],
      [
       1278203.275999993,
       484724.72750000656,
       330
      ],
      [
       1278203.6309999973,
       484723.1544999927,
       330
      ],
      [
       1278204.0744999945,
       484722.57549999654,
       330
      ],
      [
       1278205.1064999998,
       484721.5405000001,
       330
      ],
      [
       1278207.1724999994,
       484717.76000000536,
       330
      ],
      [
       1278213.049999997,
       484709.42450000346,
       330
      ],
      [
       1278214.6295000017,
       484707.5995000005,
       330
      ],
      [
       1278217.675999999,
       484704.575000003,
       330
      ],
      [
       1278223.851999998,
       484699.5444999933,
       330
      ],
      [
       1278224.5129999965,
       484699.2189999968,
       330
      ],
      [
       1278230.037499994,
       484696.5435000062,
       330
      ],
      [
       1278235.2849999964,
       484692.6280000061,
       330
      ],
      [
       1278238.5735000074,
       484689.3735000044,
       330
      ],
      [
       1278240.662499994,
       484684.97349999845,
       330
      ],
      [
       1278243.3334999979,
       484680.93250000477,
       330
      ],
      [
       1278243.8324999958,
       484680.21250000596,
       330
      ],
      [
       1278247.4070000052,
       484673.40150000155,
       330
      ],
      [
       1278249.4934999943,
       484668.7594999969,
       330
      ],
      [
       1278250.9375,
       484665.3914999962,
       330
      ],
      [
       1278251.885499999,
       484663.79399999976,
       330
      ],
      [
       1278254.723000005,
       484659.31749999523,
       330
      ]
     ]
    },
    "elevationFt": 330,
    "weight": "index",
    "hidden": false
   }
  },
  {
   "type": "Feature",
   "geometry": {
    "type": "LineString",
    "coordinates": [
     [
      -77.11982991107976,
      38.99787743750744
     ],
     [
      -77.11982068155123,
      38.99787106731911
     ],
     [
      -77.1197996258262,
      38.9978531415929
     ],
     [
      -77.1197860967319,
      38.9978500253447
     ],
     [
      -77.11975055550651,
      38.997846109291004
     ],
     [
      -77.11973295972834,
      38.997837217493675
     ],
     [
      -77.11970835178106,
      38.99782440788622
     ],
     [
      -77.11965720576254,
      38.99783638480093
     ],
     [
      -77.11962377918472,
      38.9978523372012
     ],
     [
      -77.11960285202481,
      38.99784703330654
     ],
     [
      -77.11959725166655,
      38.99784466399861
     ],
     [
      -77.11956159844114,
      38.99784319167805
     ],
     [
      -77.11956855657247,
      38.99785789055387
     ],
     [
      -77.11957344942618,
      38.997863249284414
     ],
     [
      -77.11958001607198,
      38.99786796655504
     ],
     [
      -77.11958360776923,
      38.997870619351694
     ],
     [
      -77.11959821918128,
      38.99788861073766
     ]
    ]
   },
   "properties": {
    "id": "ct-3",
    "kind": "Contour",
    "sourceId": "contours",
    "reliabilityLevel": 1,
    "revision": 1,
    "engineeringGeometry": {
     "crs": "EPSG:2248",
     "crsName": "NAD83 / Maryland State Plane (US survey feet)",
     "datum": "NAD83",
     "unit": "usSurveyFoot",
     "coordinates": [
      [
       1278277.4814999998,
       484833.0030000061,
       322
      ],
      [
       1278280.1015000045,
       484830.6794999987,
       322
      ],
      [
       1278286.077000007,
       484824.1430000067,
       322
      ],
      [
       1278289.9204999954,
       484823.0030000061,
       322
      ],
      [
       1278300.0195000023,
       484821.563500002,
       322
      ],
      [
       1278305.0160000026,
       484818.31849999726,
       322
      ],
      [
       1278312.0034999996,
       484813.6439999938,
       322
      ],
      [
       1278326.5450000018,
       484817.98700000346,
       322
      ],
      [
       1278336.0524999946,
       484823.78450000286,
       322
      ],
      [
       1278341.9975000024,
       484821.8449999988,
       322
      ],
      [
       1278343.5879999995,
       484820.9800000042,
       322
      ],
      [
       1278353.7199999988,
       484820.4305000007,
       322
      ],
      [
       1278351.7495000064,
       484825.7865000069,
       322
      ],
      [
       1278350.361499995,
       484827.73999999464,
       322
      ],
      [
       1278348.4975000024,
       484829.4605000019,
       322
      ],
      [
       1278347.4780000001,
       484830.4280000031,
       322
      ],
      [
       1278343.3340000063,
       484836.98600000143,
       322
      ]
     ]
    },
    "elevationFt": 322,
    "weight": "intermediate",
    "hidden": false
   }
  },
  {
   "type": "Feature",
   "geometry": {
    "type": "LineString",
    "coordinates": [
     [
      -77.11981575238516,
      38.99757949650715
     ],
     [
      -77.11981329382733,
      38.997576926300916
     ],
     [
      -77.1198113748003,
      38.997566690910645
     ],
     [
      -77.11981592758568,
      38.997555004652035
     ],
     [
      -77.11982502293154,
      38.99754752015838
     ],
     [
      -77.119829435437,
      38.9975455250036
     ],
     [
      -77.11984526073142,
      38.997539443533434
     ],
     [
      -77.11985990729515,
      38.99752918430793
     ],
     [
      -77.11987149226586,
      38.99751555374805
     ],
     [
      -77.11987997859885,
      38.997508947126384
     ],
     [
      -77.11991813132892,
      38.997497694570114
     ],
     [
      -77.11992461135577,
      38.99749276762664
     ],
     [
      -77.11992590724337,
      38.997487114267315
     ],
     [
      -77.1199241559086,
      38.997464678172804
     ],
     [
      -77.11991770453328,
      38.99745213554764
     ],
     [
      -77.1199101106288,
      38.997443332368675
     ],
     [
      -77.11990603286449,
      38.997435151605806
     ],
     [
      -77.11990153277112,
      38.9974248227625
     ],
     [
      -77.11989302837185,
      38.99741859735842
     ],
     [
      -77.11984787839653,
      38.997396072564946
     ]
    ]
   },
   "properties": {
    "id": "ct-4",
    "kind": "Contour",
    "sourceId": "contours",
    "reliabilityLevel": 1,
    "revision": 1,
    "engineeringGeometry": {
     "crs": "EPSG:2248",
     "crsName": "NAD83 / Maryland State Plane (US survey feet)",
     "datum": "NAD83",
     "unit": "usSurveyFoot",
     "coordinates": [
      [
       1278281.3630000055,
       484724.48600000143,
       328
      ],
      [
       1278282.060499996,
       484723.548999995,
       328
      ],
      [
       1278282.600999996,
       484719.8205000013,
       328
      ],
      [
       1278281.3014999926,
       484715.56599999964,
       328
      ],
      [
       1278278.7129999995,
       484712.8435000032,
       328
      ],
      [
       1278277.4580000043,
       484712.1184999943,
       328
      ],
      [
       1278272.9574999958,
       484709.90950000286,
       328
      ],
      [
       1278268.7900000066,
       484706.17849999666,
       328
      ],
      [
       1278265.4909999967,
       484701.2185000032,
       328
      ],
      [
       1278263.076000005,
       484698.8155000061,
       328
      ],
      [
       1278252.2275000066,
       484694.73149999976,
       328
      ],
      [
       1278250.3834999949,
       484692.93950000405,
       328
      ],
      [
       1278250.012500003,
       484690.88099999726,
       328
      ],
      [
       1278250.4995000064,
       484682.7090000063,
       328
      ],
      [
       1278252.327000007,
       484678.138500005,
       328
      ],
      [
       1278254.4810000062,
       484674.9294999987,
       328
      ],
      [
       1278255.6360000074,
       484671.9485000074,
       328
      ],
      [
       1278256.9099999964,
       484668.1850000024,
       328
      ],
      [
       1278259.324000001,
       484665.9144999981,
       328
      ],
      [
       1278272.1449999958,
       484657.6940000057,
       328
      ]
     ]
    },
    "elevationFt": 328,
    "weight": "intermediate",
    "hidden": false
   }
  },
  {
   "type": "Feature",
   "geometry": {
    "type": "LineString",
    "coordinates": [
     [
      -77.11981083566602,
      38.99739990507053
     ],
     [
      -77.11982371731695,
      38.997421886336106
     ],
     [
      -77.11982253175374,
      38.99742305584728
     ]
    ]
   },
   "properties": {
    "id": "ct-5",
    "kind": "Contour",
    "sourceId": "contours",
    "reliabilityLevel": 1,
    "revision": 1,
    "engineeringGeometry": {
     "crs": "EPSG:2248",
     "crsName": "NAD83 / Maryland State Plane (US survey feet)",
     "datum": "NAD83",
     "unit": "usSurveyFoot",
     "coordinates": [
      [
       1278282.6745000035,
       484659.076000005,
       328
      ],
      [
       1278279.024000004,
       484667.08650000393,
       328
      ],
      [
       1278279.361499995,
       484667.5119999945,
       328
      ]
     ]
    },
    "elevationFt": 328,
    "weight": "intermediate",
    "hidden": false
   }
  },
  {
   "type": "Feature",
   "geometry": {
    "type": "LineString",
    "coordinates": [
     [
      -77.11982253175374,
      38.99742305584728
     ],
     [
      -77.11980160614603,
      38.997443715359786
     ]
    ]
   },
   "properties": {
    "id": "ct-6",
    "kind": "Contour",
    "sourceId": "contours",
    "reliabilityLevel": 1,
    "revision": 1,
    "engineeringGeometry": {
     "crs": "EPSG:2248",
     "crsName": "NAD83 / Maryland State Plane (US survey feet)",
     "datum": "NAD83",
     "unit": "usSurveyFoot",
     "coordinates": [
      [
       1278279.361499995,
       484667.5119999945,
       328
      ],
      [
       1278285.3184999973,
       484675.0285000056,
       328
      ]
     ]
    },
    "elevationFt": 328,
    "weight": "intermediate",
    "hidden": false
   }
  },
  {
   "type": "Feature",
   "geometry": {
    "type": "LineString",
    "coordinates": [
     [
      -77.11978800756835,
      38.99746200606098
     ],
     [
      -77.11978786827818,
      38.99746496332639
     ],
     [
      -77.11978659642868,
      38.99746922458785
     ],
     [
      -77.11978253382857,
      38.99747423965671
     ],
     [
      -77.1197781998142,
      38.99747478362501
     ],
     [
      -77.1197618526779,
      38.997472887978645
     ],
     [
      -77.11973621990113,
      38.99746469632598
     ],
     [
      -77.11967509918813,
      38.9974297305538
     ]
    ]
   },
   "properties": {
    "id": "ct-7",
    "kind": "Contour",
    "sourceId": "contours",
    "reliabilityLevel": 1,
    "revision": 1,
    "engineeringGeometry": {
     "crs": "EPSG:2248",
     "crsName": "NAD83 / Maryland State Plane (US survey feet)",
     "datum": "NAD83",
     "unit": "usSurveyFoot",
     "coordinates": [
      [
       1278289.1920000017,
       484681.6850000024,
       328
      ],
      [
       1278289.2329999954,
       484682.7619999945,
       328
      ],
      [
       1278289.5964999944,
       484684.313500002,
       328
      ],
      [
       1278290.7534999996,
       484686.138500005,
       328
      ],
      [
       1278291.985499993,
       484686.33499999344,
       328
      ],
      [
       1278296.6305000037,
       484685.638500005,
       328
      ],
      [
       1278303.911500007,
       484682.6455000043,
       328
      ],
      [
       1278321.2654999942,
       484669.88799999654,
       328
      ]
     ]
    },
    "elevationFt": 328,
    "weight": "intermediate",
    "hidden": false
   }
  },
  {
   "type": "Feature",
   "geometry": {
    "type": "LineString",
    "coordinates": [
     [
      -77.12016828687935,
      38.99763837072247
     ],
     [
      -77.12016327285642,
      38.99763629051096
     ],
     [
      -77.1201287711057,
      38.99761755356957
     ],
     [
      -77.12012033957282,
      38.99760970265091
     ],
     [
      -77.12011547434196,
      38.99760821947508
     ],
     [
      -77.12009294689095,
      38.99760747243315
     ],
     [
      -77.12008459381826,
      38.997601285327704
     ],
     [
      -77.1200781375711,
      38.99759318251935
     ],
     [
      -77.12007008477457,
      38.997591876965586
     ],
     [
      -77.12005417179475,
      38.99758037369774
     ],
     [
      -77.12003278736476,
      38.99756364547648
     ],
     [
      -77.12001563318009,
      38.99756204722964
     ],
     [
      -77.11998362340466,
      38.997568807037695
     ],
     [
      -77.11995468802844,
      38.99757609772396
     ],
     [
      -77.11994881798542,
      38.99757759877842
     ],
     [
      -77.11994076772096,
      38.99758092933357
     ],
     [
      -77.11992140460261,
      38.997597548334895
     ],
     [
      -77.11992129770623,
      38.997600933896955
     ],
     [
      -77.1199211863368,
      38.99760375247581
     ],
     [
      -77.11989242253821,
      38.99762101262022
     ],
     [
      -77.11988430360803,
      38.997621180191366
     ],
     [
      -77.11987551461006,
      38.9976162565414
     ]
    ]
   },
   "properties": {
    "id": "ct-8",
    "kind": "Contour",
    "sourceId": "contours",
    "reliabilityLevel": 1,
    "revision": 1,
    "engineeringGeometry": {
     "crs": "EPSG:2248",
     "crsName": "NAD83 / Maryland State Plane (US survey feet)",
     "datum": "NAD83",
     "unit": "usSurveyFoot",
     "coordinates": [
      [
       1278181.200000003,
       484746.0600000024,
       328
      ],
      [
       1278182.623999998,
       484745.3005000055,
       328
      ],
      [
       1278192.4204999954,
       484738.4634999931,
       328
      ],
      [
       1278194.8129999936,
       484735.60099999607,
       328
      ],
      [
       1278196.1949999928,
       484735.05900000036,
       328
      ],
      [
       1278202.5970000029,
       484734.7785000056,
       328
      ],
      [
       1278204.9679999948,
       484732.5219999999,
       328
      ],
      [
       1278206.798999995,
       484729.56849999726,
       328
      ],
      [
       1278209.0869999975,
       484729.0900000036,
       328
      ],
      [
       1278213.6040000021,
       484724.89450000226,
       328
      ],
      [
       1278219.6735000014,
       484718.79399999976,
       328
      ],
      [
       1278224.547999993,
       484718.2055000067,
       328
      ],
      [
       1278233.6484999955,
       484720.65549999475,
       328
      ],
      [
       1278241.8754999936,
       484723.299999997,
       328
      ],
      [
       1278243.5444999933,
       484723.84450000525,
       328
      ],
      [
       1278245.8340000063,
       484725.0544999987,
       328
      ],
      [
       1278251.3449999988,
       484731.09999999404,
       328
      ],
      [
       1278251.377000004,
       484732.3330000043,
       328
      ],
      [
       1278251.4099999964,
       484733.35950000584,
       328
      ],
      [
       1278259.5929999948,
       484739.63500000536,
       328
      ],
      [
       1278261.9004999995,
       484739.6930000037,
       328
      ],
      [
       1278264.3959999979,
       484737.8965000063,
       328
      ]
     ]
    },
    "elevationFt": 328,
    "weight": "intermediate",
    "hidden": false
   }
  },
  {
   "type": "Feature",
   "geometry": {
    "type": "LineString",
    "coordinates": [
     [
      -77.12016915559688,
      38.997506738055655
     ],
     [
      -77.12015878152684,
      38.99749559703637
     ],
     [
      -77.12015205595081,
      38.99748427242535
     ],
     [
      -77.1201462846867,
      38.99747131588591
     ],
     [
      -77.12013930653713,
      38.99746044320173
     ]
    ]
   },
   "properties": {
    "id": "ct-9",
    "kind": "Contour",
    "sourceId": "contours",
    "reliabilityLevel": 1,
    "revision": 1,
    "engineeringGeometry": {
     "crs": "EPSG:2248",
     "crsName": "NAD83 / Maryland State Plane (US survey feet)",
     "datum": "NAD83",
     "unit": "usSurveyFoot",
     "coordinates": [
      [
       1278180.8900000006,
       484698.11900000274,
       336
      ],
      [
       1278183.8330000043,
       484694.05750000477,
       336
      ],
      [
       1278185.7389999926,
       484689.9305000007,
       336
      ],
      [
       1278187.372999996,
       484685.2094999999,
       336
      ],
      [
       1278189.350999996,
       484681.2469999939,
       336
      ]
     ]
    },
    "elevationFt": 336,
    "weight": "intermediate",
    "hidden": false
   }
  },
  {
   "type": "Feature",
   "geometry": {
    "type": "LineString",
    "coordinates": [
     [
      -77.12009339355491,
      38.9975019532136
     ],
     [
      -77.12009256007364,
      38.99750116467941
     ],
     [
      -77.12006845793505,
      38.997472150857774
     ]
    ]
   },
   "properties": {
    "id": "ct-10",
    "kind": "Contour",
    "sourceId": "contours",
    "reliabilityLevel": 1,
    "revision": 1,
    "engineeringGeometry": {
     "crs": "EPSG:2248",
     "crsName": "NAD83 / Maryland State Plane (US survey feet)",
     "datum": "NAD83",
     "unit": "usSurveyFoot",
     "coordinates": [
      [
       1278202.4194999933,
       484696.3480000049,
       334
      ],
      [
       1278202.6560000032,
       484696.06049999595,
       334
      ],
      [
       1278209.4919999987,
       484685.48450000584,
       334
      ]
     ]
    },
    "elevationFt": 334,
    "weight": "intermediate",
    "hidden": false
   }
  },
  {
   "type": "Feature",
   "geometry": {
    "type": "LineString",
    "coordinates": [
     [
      -77.12013930653713,
      38.99746044320173
     ],
     [
      -77.120134249319,
      38.99745256273436
     ],
     [
      -77.12004894118134,
      38.99737251420055
     ]
    ]
   },
   "properties": {
    "id": "ct-11",
    "kind": "Contour",
    "sourceId": "contours",
    "reliabilityLevel": 1,
    "revision": 1,
    "engineeringGeometry": {
     "crs": "EPSG:2248",
     "crsName": "NAD83 / Maryland State Plane (US survey feet)",
     "datum": "NAD83",
     "unit": "usSurveyFoot",
     "coordinates": [
      [
       1278189.350999996,
       484681.2469999939,
       336
      ],
      [
       1278190.7845000029,
       484678.375,
       336
      ],
      [
       1278214.9909999967,
       484649.1889999956,
       336
      ]
     ]
    },
    "elevationFt": 336,
    "weight": "intermediate",
    "hidden": false
   }
  },
  {
   "type": "Feature",
   "geometry": {
    "type": "LineString",
    "coordinates": [
     [
      -77.12018885091489,
      38.997668292866955
     ],
     [
      -77.12016352580072,
      38.99765378587395
     ],
     [
      -77.12015048461004,
      38.99764682518167
     ],
     [
      -77.12013994136562,
      38.99764387339553
     ],
     [
      -77.1201166705034,
      38.997648810727874
     ],
     [
      -77.1201060183721,
      38.997651188461006
     ],
     [
      -77.12009884118413,
      38.99765270459346
     ],
     [
      -77.12009075691972,
      38.99765569609942
     ],
     [
      -77.12007370823575,
      38.99765720863484
     ],
     [
      -77.12005459211372,
      38.997652310698946
     ],
     [
      -77.12005180638249,
      38.9976529134939
     ],
     [
      -77.12003923905243,
      38.997657790403665
     ],
     [
      -77.12002085192634,
      38.99766371390459
     ],
     [
      -77.12001430228543,
      38.99766805197124
     ],
     [
      -77.12000094663337,
      38.997682241738985
     ],
     [
      -77.11997981488157,
      38.99769228934968
     ],
     [
      -77.11994882199572,
      38.9977011801438
     ],
     [
      -77.11993568860356,
      38.99770632532884
     ],
     [
      -77.11992364686313,
      38.99771303856291
     ],
     [
      -77.11990170439705,
      38.99772851936476
     ],
     [
      -77.11988593070949,
      38.99773706231256
     ],
     [
      -77.11986719765038,
      38.99774130165466
     ]
    ]
   },
   "properties": {
    "id": "ct-12",
    "kind": "Contour",
    "sourceId": "contours",
    "reliabilityLevel": 1,
    "revision": 1,
    "engineeringGeometry": {
     "crs": "EPSG:2248",
     "crsName": "NAD83 / Maryland State Plane (US survey feet)",
     "datum": "NAD83",
     "unit": "usSurveyFoot",
     "coordinates": [
      [
       1278175.3700000048,
       484756.96549999714,
       326
      ],
      [
       1278182.560499996,
       484751.6724999994,
       326
      ],
      [
       1278186.263500005,
       484749.13249999285,
       326
      ],
      [
       1278189.2584999949,
       484748.05349999666,
       326
      ],
      [
       1278195.8745000064,
       484749.84299999475,
       326
      ],
      [
       1278198.9029999971,
       484750.7049999982,
       326
      ],
      [
       1278200.9434999973,
       484751.25450000167,
       326
      ],
      [
       1278203.2425000072,
       484752.3410000056,
       326
      ],
      [
       1278208.088499993,
       484752.8854999989,
       326
      ],
      [
       1278213.5189999938,
       484751.09450000525,
       326
      ],
      [
       1278214.3110000044,
       484751.31299999356,
       326
      ],
      [
       1278217.8850000054,
       484753.0844999999,
       326
      ],
      [
       1278223.113499999,
       484755.2349999994,
       326
      ],
      [
       1278224.976999998,
       484756.8125,
       326
      ],
      [
       1278228.7794999927,
       484761.9755000025,
       326
      ],
      [
       1278234.7900000066,
       484765.62700000405,
       326
      ],
      [
       1278243.6025000066,
       484768.8534999937,
       326
      ],
      [
       1278247.337500006,
       484770.7224999964,
       326
      ],
      [
       1278250.7629999965,
       484773.1630000025,
       326
      ],
      [
       1278257.0065000057,
       484778.79299999774,
       326
      ],
      [
       1278261.4934999943,
       484781.89849999547,
       326
      ],
      [
       1278266.8194999993,
       484783.43549999595,
       326
      ]
     ]
    },
    "elevationFt": 326,
    "weight": "intermediate",
    "hidden": false
   }
  },
  {
   "type": "Feature",
   "geometry": {
    "type": "LineString",
    "coordinates": [
     [
      -77.11993983318415,
      38.99787643250843
     ],
     [
      -77.11991499227994,
      38.99787053686446
     ],
     [
      -77.1198906107666,
      38.99786162733495
     ],
     [
      -77.11986717497862,
      38.99784911034995
     ],
     [
      -77.1198652354329,
      38.99784760082749
     ],
     [
      -77.11985613567596,
      38.99783784505668
     ],
     [
      -77.11984225359467,
      38.99782151136042
     ],
     [
      -77.11982903984155,
      38.99780714015585
     ],
     [
      -77.11981564071858,
      38.997798660046264
     ],
     [
      -77.11979306376878,
      38.99778629729888
     ],
     [
      -77.11978995478614,
      38.9977840407685
     ],
     [
      -77.1197818612244,
      38.997777334438
     ],
     [
      -77.11977156277563,
      38.99777034892976
     ],
     [
      -77.11976021097028,
      38.99776468930082
     ],
     [
      -77.11975410084499,
      38.997762577245474
     ],
     [
      -77.119741361907,
      38.99775749014098
     ],
     [
      -77.11972679621901,
      38.997747867629684
     ],
     [
      -77.11971176502196,
      38.99773657071382
     ],
     [
      -77.11970275176184,
      38.99772906082781
     ],
     [
      -77.11969313159604,
      38.99771948953875
     ],
     [
      -77.11966850096995,
      38.99769734043552
     ],
     [
      -77.1196577054822,
      38.997686655590144
     ],
     [
      -77.11964275197688,
      38.99767027491584
     ],
     [
      -77.1196209427887,
      38.99765409756764
     ],
     [
      -77.11960634305846,
      38.99764932536126
     ],
     [
      -77.1195964779313,
      38.99764473090216
     ],
     [
      -77.11958506982378,
      38.99762961648365
     ],
     [
      -77.11957588161742,
      38.99761429249436
     ],
     [
      -77.11956319952839,
      38.997599028362146
     ],
     [
      -77.11955685860181,
      38.997594610141334
     ],
     [
      -77.11954065713297,
      38.9975872737037
     ]
    ]
   },
   "properties": {
    "id": "ct-13",
    "kind": "Contour",
    "sourceId": "contours",
    "reliabilityLevel": 1,
    "revision": 1,
    "engineeringGeometry": {
     "crs": "EPSG:2248",
     "crsName": "NAD83 / Maryland State Plane (US survey feet)",
     "datum": "NAD83",
     "unit": "usSurveyFoot",
     "coordinates": [
      [
       1278246.2409999967,
       484832.6780000031,
       324
      ],
      [
       1278253.297999993,
       484830.5215000063,
       324
      ],
      [
       1278260.223000005,
       484827.2674999982,
       324
      ],
      [
       1278266.8774999976,
       484822.700000003,
       324
      ],
      [
       1278267.428000003,
       484822.1494999975,
       324
      ],
      [
       1278270.009499997,
       484818.59299999475,
       324
      ],
      [
       1278273.946999997,
       484812.63899999857,
       324
      ],
      [
       1278277.6955000013,
       484807.40000000596,
       324
      ],
      [
       1278281.4995000064,
       484804.30650000274,
       324
      ],
      [
       1278287.9099999964,
       484799.79549999535,
       324
      ],
      [
       1278288.7925000042,
       484798.9724999964,
       324
      ],
      [
       1278291.089499995,
       484796.5269999951,
       324
      ],
      [
       1278294.0129999965,
       484793.97900000215,
       324
      ],
      [
       1278297.236499995,
       484791.91349999607,
       324
      ],
      [
       1278298.9720000029,
       484791.14200000465,
       324
      ],
      [
       1278302.5900000036,
       484789.28450000286,
       324
      ],
      [
       1278306.724999994,
       484785.7744999975,
       324
      ],
      [
       1278310.9915000051,
       484781.6544999927,
       324
      ],
      [
       1278313.5495000035,
       484778.9159999937,
       324
      ],
      [
       1278316.2789999992,
       484775.4264999926,
       324
      ],
      [
       1278323.2685000002,
       484767.3505000025,
       324
      ],
      [
       1278326.3314999938,
       484763.4549999982,
       324
      ],
      [
       1278330.5735000074,
       484757.4835000038,
       324
      ],
      [
       1278336.7639999986,
       484751.58349999785,
       324
      ],
      [
       1278340.9109999985,
       484749.8400000036,
       324
      ],
      [
       1278343.712500006,
       484748.1630000025,
       324
      ],
      [
       1278346.9475000054,
       484742.65399999917,
       324
      ],
      [
       1278349.5514999926,
       484737.0694999993,
       324
      ],
      [
       1278353.1484999955,
       484731.5055000037,
       324
      ],
      [
       1278354.9485000074,
       484729.8939999938,
       324
      ],
      [
       1278359.5495000035,
       484727.2160000056,
       324
      ]
     ]
    },
    "elevationFt": 324,
    "weight": "intermediate",
    "hidden": false
   }
  },
  {
   "type": "Feature",
   "geometry": {
    "type": "LineString",
    "coordinates": [
     [
      -77.12017190236517,
      38.997587331244034
     ],
     [
      -77.12016111297308,
      38.997586552937
     ],
     [
      -77.12013655990177,
      38.99757080820547
     ],
     [
      -77.12013153343185,
      38.997564473537665
     ],
     [
      -77.12012005919891,
      38.99755089408723
     ],
     [
      -77.12011876827903,
      38.99754696493804
     ],
     [
      -77.12012123072756,
      38.997529926691755
     ],
     [
      -77.12012109730516,
      38.997529052322164
     ],
     [
      -77.12011395682089,
      38.99751998373057
     ],
     [
      -77.12010315041066,
      38.99751119209972
     ],
     [
      -77.12009339355491,
      38.9975019532136
     ]
    ]
   },
   "properties": {
    "id": "ct-14",
    "kind": "Contour",
    "sourceId": "contours",
    "reliabilityLevel": 1,
    "revision": 1,
    "engineeringGeometry": {
     "crs": "EPSG:2248",
     "crsName": "NAD83 / Maryland State Plane (US survey feet)",
     "datum": "NAD83",
     "unit": "usSurveyFoot",
     "coordinates": [
      [
       1278180.148000002,
       484727.4724999964,
       334
      ],
      [
       1278183.2140000015,
       484727.1850000024,
       334
      ],
      [
       1278190.184499994,
       484721.4414999932,
       334
      ],
      [
       1278191.6099999994,
       484719.13249999285,
       334
      ],
      [
       1278194.864500001,
       484714.18250000477,
       334
      ],
      [
       1278195.2294999957,
       484712.751000002,
       334
      ],
      [
       1278194.5215000063,
       484706.5464999974,
       334
      ],
      [
       1278194.5590000004,
       484706.2280000001,
       334
      ],
      [
       1278196.5840000063,
       484702.9224999994,
       334
      ],
      [
       1278199.650999993,
       484699.71649999917,
       334
      ],
      [
       1278202.4194999933,
       484696.3480000049,
       334
      ]
     ]
    },
    "elevationFt": 334,
    "weight": "intermediate",
    "hidden": false
   }
  },
  {
   "type": "Feature",
   "geometry": {
    "type": "LineString",
    "coordinates": [
     [
      -77.12006845793505,
      38.997472150857774
     ],
     [
      -77.12006313932062,
      38.99746574921699
     ],
     [
      -77.12006104924485,
      38.997461561418326
     ],
     [
      -77.12005633308807,
      38.997450399481714
     ],
     [
      -77.12003962468052,
      38.99742621599565
     ],
     [
      -77.12001990589886,
      38.997391461890764
     ]
    ]
   },
   "properties": {
    "id": "ct-15",
    "kind": "Contour",
    "sourceId": "contours",
    "reliabilityLevel": 1,
    "revision": 1,
    "engineeringGeometry": {
     "crs": "EPSG:2248",
     "crsName": "NAD83 / Maryland State Plane (US survey feet)",
     "datum": "NAD83",
     "unit": "usSurveyFoot",
     "coordinates": [
      [
       1278209.4919999987,
       484685.48450000584,
       334
      ],
      [
       1278211.0004999936,
       484683.1509999931,
       334
      ],
      [
       1278211.5925000012,
       484681.625,
       334
      ],
      [
       1278212.9274999946,
       484677.55799999833,
       334
      ],
      [
       1278217.664499998,
       484668.74400000274,
       334
      ],
      [
       1278223.252000004,
       484656.0789999962,
       334
      ]
     ]
    },
    "elevationFt": 334,
    "weight": "intermediate",
    "hidden": false
   }
  },
  {
   "type": "Feature",
   "geometry": {
    "type": "LineString",
    "coordinates": [
     [
      -77.11980160614603,
      38.997443715359786
     ],
     [
      -77.11979810215227,
      38.997447175788885
     ],
     [
      -77.11978938121972,
      38.99745551106536
     ],
     [
      -77.11978810950437,
      38.99745985195212
     ],
     [
      -77.11978800756835,
      38.99746200606098
     ]
    ]
   },
   "properties": {
    "id": "ct-16",
    "kind": "Contour",
    "sourceId": "contours",
    "reliabilityLevel": 1,
    "revision": 1,
    "engineeringGeometry": {
     "crs": "EPSG:2248",
     "crsName": "NAD83 / Maryland State Plane (US survey feet)",
     "datum": "NAD83",
     "unit": "usSurveyFoot",
     "coordinates": [
      [
       1278285.3184999973,
       484675.0285000056,
       328
      ],
      [
       1278286.3159999996,
       484676.28749999404,
       328
      ],
      [
       1278288.7985000014,
       484679.31999999285,
       328
      ],
      [
       1278289.1620000005,
       484680.9004999995,
       328
      ],
      [
       1278289.1920000017,
       484681.6850000024,
       328
      ]
     ]
    },
    "elevationFt": 328,
    "weight": "intermediate",
    "hidden": false
   }
  },
  {
   "type": "Feature",
   "geometry": {
    "type": "LineString",
    "coordinates": [
     [
      -77.11985587849927,
      38.997743549627465
     ],
     [
      -77.11980586754834,
      38.99774415548656
     ],
     [
      -77.1198033340229,
      38.9977430405798
     ],
     [
      -77.1197954082383,
      38.997737760471324
     ],
     [
      -77.11978606936714,
      38.9977333123845
     ],
     [
      -77.11976942107749,
      38.99772708158182
     ],
     [
      -77.11976428018427,
      38.99772487929931
     ],
     [
      -77.11975950330168,
      38.99771943808675
     ],
     [
      -77.1197593614248,
      38.997705160573965
     ],
     [
      -77.11976150597258,
      38.99769361818682
     ],
     [
      -77.11975990924137,
      38.997681490676335
     ],
     [
      -77.1197471745017,
      38.997666333700536
     ],
     [
      -77.11972709178919,
      38.997646335331304
     ],
     [
      -77.11972596100651,
      38.997634043973996
     ],
     [
      -77.11974080469237,
      38.997616483736266
     ],
     [
      -77.11974781926129,
      38.99760613898255
     ],
     [
      -77.1197461372989,
      38.99760191506647
     ],
     [
      -77.1197380451737,
      38.9975991886285
     ],
     [
      -77.11972243838575,
      38.99760025895154
     ],
     [
      -77.1196816070189,
      38.997603655980555
     ],
     [
      -77.11967747996196,
      38.99760382357197
     ],
     [
      -77.11967583849045,
      38.99760380191273
     ],
     [
      -77.11965467805312,
      38.99759887991856
     ],
     [
      -77.11964083498586,
      38.99758686514944
     ],
     [
      -77.1196285144569,
      38.997567952987275
     ],
     [
      -77.11961688708756,
      38.99755846199674
     ],
     [
      -77.11960613721624,
      38.99755606775155
     ],
     [
      -77.11960274367433,
      38.99755616457495
     ],
     [
      -77.11958559326285,
      38.99755890309997
     ],
     [
      -77.11957632532777,
      38.99756000948205
     ],
     [
      -77.11956962424672,
      38.99756008222821
     ],
     [
      -77.11956311996133,
      38.997557911533
     ],
     [
      -77.11955673899179,
      38.99755164549465
     ],
     [
      -77.11954950396043,
      38.99753861354223
     ],
     [
      -77.11954814973906,
      38.99753678216904
     ],
     [
      -77.11954044859435,
      38.997526954928425
     ]
    ]
   },
   "properties": {
    "id": "ct-17",
    "kind": "Contour",
    "sourceId": "contours",
    "reliabilityLevel": 1,
    "revision": 1,
    "engineeringGeometry": {
     "crs": "EPSG:2248",
     "crsName": "NAD83 / Maryland State Plane (US survey feet)",
     "datum": "NAD83",
     "unit": "usSurveyFoot",
     "coordinates": [
      [
       1278270.037499994,
       484784.25,
       326
      ],
      [
       1278284.251000002,
       484784.45200000703,
       326
      ],
      [
       1278284.9705000073,
       484784.0450000018,
       326
      ],
      [
       1278287.2205000073,
       484782.11900000274,
       326
      ],
      [
       1278289.8725000024,
       484780.49549999833,
       326
      ],
      [
       1278294.600999996,
       484778.2199999988,
       326
      ],
      [
       1278296.0610000044,
       484777.4159999937,
       326
      ],
      [
       1278297.4159999937,
       484775.43250000477,
       326
      ],
      [
       1278297.4494999945,
       484770.2325000018,
       326
      ],
      [
       1278296.8344999999,
       484766.0294999927,
       326
      ],
      [
       1278297.2824999988,
       484761.61200000346,
       326
      ],
      [
       1278300.8945000023,
       484756.0869999975,
       326
      ],
      [
       1278306.5925000012,
       484748.7960000038,
       326
      ],
      [
       1278306.9080000073,
       484744.3190000057,
       326
      ],
      [
       1278302.6809999943,
       484737.9290000051,
       326
      ],
      [
       1278300.6825000048,
       484734.16400000453,
       326
      ],
      [
       1278301.1585000008,
       484732.625,
       326
      ],
      [
       1278303.4570000023,
       484731.6289999932,
       326
      ],
      [
       1278307.8930000067,
       484732.01299999654,
       326
      ],
      [
       1278319.498999998,
       484733.2349999994,
       326
      ],
      [
       1278320.6720000058,
       484733.2944999933,
       326
      ],
      [
       1278321.138500005,
       484733.28599999845,
       326
      ],
      [
       1278327.150000006,
       484731.48549999297,
       326
      ],
      [
       1278331.0785000026,
       484727.1044999957,
       326
      ],
      [
       1278334.5709999949,
       484720.2119999975,
       326
      ],
      [
       1278337.8710000068,
       484716.751000002,
       326
      ],
      [
       1278340.924999997,
       484715.875,
       326
      ],
      [
       1278341.889500007,
       484715.9089999944,
       326
      ],
      [
       1278346.7650000006,
       484716.90000000596,
       326
      ],
      [
       1278349.3994999975,
       484717.29950000346,
       326
      ],
      [
       1278351.3040000051,
       484717.3235000074,
       326
      ],
      [
       1278353.1515000015,
       484716.53049999475,
       326
      ],
      [
       1278354.9619999975,
       484714.2460000068,
       326
      ],
      [
       1278357.0119999945,
       484709.4969999939,
       326
      ],
      [
       1278357.3959999979,
       484708.82950000465,
       326
      ],
      [
       1278359.5799999982,
       484705.2475000024,
       326
      ]
     ]
    },
    "elevationFt": 326,
    "weight": "intermediate",
    "hidden": false
   }
  },
  {
   "type": "Feature",
   "geometry": {
    "type": "LineString",
    "coordinates": [
     [
      -77.12012334802121,
      38.99787576371882
     ],
     [
      -77.1201189375217,
      38.99786643560165
     ],
     [
      -77.12011011367625,
      38.99785026285847
     ],
     [
      -77.12009620432488,
      38.997851183220504
     ],
     [
      -77.12004917986094,
      38.99787013153478
     ],
     [
      -77.12002237867979,
      38.99787862129237
     ]
    ]
   },
   "properties": {
    "id": "ct-18",
    "kind": "Contour",
    "sourceId": "contours",
    "reliabilityLevel": 1,
    "revision": 1,
    "engineeringGeometry": {
     "crs": "EPSG:2248",
     "crsName": "NAD83 / Maryland State Plane (US survey feet)",
     "datum": "NAD83",
     "unit": "usSurveyFoot",
     "coordinates": [
      [
       1278194.085500002,
       484832.5030000061,
       324
      ],
      [
       1278195.3344999999,
       484829.10400000215,
       324
      ],
      [
       1278197.8344999999,
       484823.2105000019,
       324
      ],
      [
       1278201.7880000025,
       484823.5405000001,
       324
      ],
      [
       1278215.161500007,
       484830.423999995,
       324
      ],
      [
       1278222.7824999988,
       484833.50599999726,
       324
      ]
     ]
    },
    "elevationFt": 324,
    "weight": "intermediate",
    "hidden": false
   }
  },
  {
   "type": "Feature",
   "geometry": {
    "type": "LineString",
    "coordinates": [
     [
      -77.11987551461006,
      38.9976162565414
     ],
     [
      -77.11982252883837,
      38.99758657897315
     ],
     [
      -77.11981575238516,
      38.99757949650715
     ]
    ]
   },
   "properties": {
    "id": "ct-19",
    "kind": "Contour",
    "sourceId": "contours",
    "reliabilityLevel": 1,
    "revision": 1,
    "engineeringGeometry": {
     "crs": "EPSG:2248",
     "crsName": "NAD83 / Maryland State Plane (US survey feet)",
     "datum": "NAD83",
     "unit": "usSurveyFoot",
     "coordinates": [
      [
       1278264.3959999979,
       484737.8965000063,
       328
      ],
      [
       1278279.440500006,
       484727.0680000037,
       328
      ],
      [
       1278281.3630000055,
       484724.48600000143,
       328
      ]
     ]
    },
    "elevationFt": 328,
    "weight": "intermediate",
    "hidden": false
   }
  },
  {
   "type": "Feature",
   "geometry": {
    "type": "LineString",
    "coordinates": [
     [
      -77.11986719765038,
      38.99774130165466
     ],
     [
      -77.11985734221682,
      38.997743531653626
     ],
     [
      -77.11985587849927,
      38.997743549627465
     ]
    ]
   },
   "properties": {
    "id": "ct-20",
    "kind": "Contour",
    "sourceId": "contours",
    "reliabilityLevel": 1,
    "revision": 1,
    "engineeringGeometry": {
     "crs": "EPSG:2248",
     "crsName": "NAD83 / Maryland State Plane (US survey feet)",
     "datum": "NAD83",
     "unit": "usSurveyFoot",
     "coordinates": [
      [
       1278266.8194999993,
       484783.43549999595,
       326
      ],
      [
       1278269.6215000004,
       484784.24400000274,
       326
      ],
      [
       1278270.037499994,
       484784.25,
       326
      ]
     ]
    },
    "elevationFt": 326,
    "weight": "intermediate",
    "hidden": false
   }
  },
  {
   "type": "Feature",
   "geometry": {
    "type": "Polygon",
    "coordinates": [
     [
      [
       -77.11971430085117,
       38.99763520026766
      ],
      [
       -77.1197796412723,
       38.99769646290916
      ],
      [
       -77.11982268380564,
       38.99773380208866
      ],
      [
       -77.11983717366527,
       38.99774625279034
      ],
      [
       -77.12002020916778,
       38.99761834074035
      ],
      [
       -77.11990613253313,
       38.997517790616136
      ],
      [
       -77.11971430085117,
       38.99763520026766
      ]
     ]
    ]
   },
   "properties": {
    "id": "buildable-envelope",
    "kind": "ProposedFeature",
    "sourceId": "gis1",
    "reliabilityLevel": 1,
    "revision": 1,
    "engineeringGeometry": {
     "crs": "EPSG:2248",
     "crsName": "NAD83 / Maryland State Plane (US survey feet)",
     "datum": "NAD83",
     "unit": "usSurveyFoot",
     "coordinates": [
      [
       1278310.222396403,
       484744.735782447
      ],
      [
       1278291.681768025,
       484767.07232536876
      ],
      [
       1278279.466837311,
       484780.6875093027
      ],
      [
       1278275.3547429217,
       484785.22752753814
      ],
      [
       1278223.274447239,
       484738.7096091906
      ],
      [
       1278255.6472066122,
       484702.04610860394
      ],
      [
       1278310.222396403,
       484744.735782447
      ]
     ]
    },
    "label": "Buildable envelope",
    "setbacks": {
     "frontFt": 28.9,
     "sideFt": 9,
     "rearFt": 20,
     "maxFt": 28.9,
     "source": "Montgomery County Code Ch. 59, §4.4.9.B (2014 adopted text)"
    }
   }
  },
  {
   "type": "Feature",
   "geometry": {
    "type": "Polygon",
    "coordinates": [
     [
      [
       -77.11974186445437,
       38.99765675155384
      ],
      [
       -77.11980962118787,
       38.9977202796487
      ],
      [
       -77.11991743255622,
       38.99765026093253
      ],
      [
       -77.11984967579318,
       38.9975867328992
      ],
      [
       -77.11974186445437,
       38.99765675155384
      ]
     ]
    ]
   },
   "properties": {
    "id": "proposed-building",
    "kind": "Building",
    "sourceId": "gis1",
    "reliabilityLevel": 1,
    "revision": 1,
    "engineeringGeometry": {
     "crs": "EPSG:2248",
     "crsName": "NAD83 / Maryland State Plane (US survey feet)",
     "datum": "NAD83",
     "unit": "usSurveyFoot",
     "coordinates": [
      [
       1278302.3990498972,
       484752.5951510191
      ],
      [
       1278283.172795788,
       484775.75769121904
      ],
      [
       1278252.499084651,
       484750.2967288328
      ],
      [
       1278271.7253387603,
       484727.1341886329
      ],
      [
       1278302.3990498972,
       484752.5951510191
      ]
     ]
    },
    "areaSqFt": 1199.9999999925494,
    "estimated": true,
    "address": "8700 BRADMOOR DR",
    "lotLabel": "8700 BRADMOOR DR",
    "garageSlabElevFt": null,
    "basementElevFt": null,
    "finishedFloorElevFt": null,
    "subFloorElevFt": null,
    "heightFt": 20,
    "storeys": 2
   }
  },
  {
   "type": "Feature",
   "geometry": {
    "type": "Polygon",
    "coordinates": [
     [
      [
       -77.1196829679302,
       38.997729865637986
      ],
      [
       -77.11971031201027,
       38.99775497190385
      ],
      [
       -77.11978988775572,
       38.99770177777867
      ],
      [
       -77.11976287448871,
       38.99767645038667
      ],
      [
       -77.1196829679302,
       38.997729865637986
      ]
     ]
    ]
   },
   "properties": {
    "id": "driveway",
    "kind": "Pavement",
    "sourceId": "gis1",
    "reliabilityLevel": 1,
    "revision": 1,
    "engineeringGeometry": {
     "crs": "EPSG:2248",
     "crsName": "NAD83 / Maryland State Plane (US survey feet)",
     "datum": "NAD83",
     "unit": "usSurveyFoot",
     "coordinates": [
      [
       1278319.1724892308,
       484779.2017441244
      ],
      [
       1278311.4132371845,
       484788.35577111185
      ],
      [
       1278288.7722354545,
       484769.0118505764
      ],
      [
       1278296.4373618597,
       484759.7774049332
      ],
      [
       1278319.1724892308,
       484779.2017441244
      ]
     ]
    },
    "label": "PROPOSED DRIVEWAY  12' WIDE",
    "areaSqFt": 358.09350449219346,
    "note": "Longitudinal pitch 1% min to 12.5% max, lateral 1/8\" in 12\" to 1/2\" in 12\" away from the building. PGC Code Sec. 32-151, Table 4 — Site Slope Limitations.",
    "improvement": "Driveway",
    "impervious": true
   }
  },
  {
   "type": "Feature",
   "geometry": {
    "type": "Polygon",
    "coordinates": [
     [
      [
       -77.11977990268461,
       38.99769037543258
      ],
      [
       -77.11976654174394,
       38.9976993068507
      ],
      [
       -77.11978897516991,
       38.997719741824774
      ],
      [
       -77.11980233611159,
       38.99771081040412
      ],
      [
       -77.11977990268461,
       38.99769037543258
      ]
     ]
    ]
   },
   "properties": {
    "id": "walk",
    "kind": "Pavement",
    "sourceId": "gis1",
    "reliabilityLevel": 1,
    "revision": 1,
    "engineeringGeometry": {
     "crs": "EPSG:2248",
     "crsName": "NAD83 / Maryland State Plane (US survey feet)",
     "datum": "NAD83",
     "unit": "usSurveyFoot",
     "coordinates": [
      [
       1278291.6045650302,
       484764.8553310832
      ],
      [
       1278295.406041058,
       484768.1032196296
      ],
      [
       1278289.0401795069,
       484775.55411264405
      ],
      [
       1278285.238703479,
       484772.3062240976
      ],
      [
       1278291.6045650302,
       484764.8553310832
      ]
     ]
    },
    "label": "CONCRETE WALK  5' WIDE",
    "areaSqFt": 49.00000000093132,
    "note": "Leadwalk from the edge of the driveway to the stoop, 10 ft. Lateral pitch 48:1 max, longitudinal 12:1 max. PGC Code Sec. 32-151, Table 4 — Site Slope Limitations.",
    "improvement": "Walk",
    "impervious": true
   }
  },
  {
   "type": "Feature",
   "geometry": {
    "type": "Polygon",
    "coordinates": [
     [
      [
       -77.11975643221759,
       38.997687987700225
      ],
      [
       -77.11977474521213,
       38.99770466931366
      ],
      [
       -77.1197854339649,
       38.99769752417855
      ],
      [
       -77.1197671209697,
       38.99768084256676
      ],
      [
       -77.11975643221759,
       38.997687987700225
      ]
     ]
    ]
   },
   "properties": {
    "id": "stoop",
    "kind": "Pavement",
    "sourceId": "gis1",
    "reliabilityLevel": 1,
    "revision": 1,
    "engineeringGeometry": {
     "crs": "EPSG:2248",
     "crsName": "NAD83 / Maryland State Plane (US survey feet)",
     "datum": "NAD83",
     "unit": "usSurveyFoot",
     "coordinates": [
      [
       1278298.2737820016,
       484763.97695474717
      ],
      [
       1278293.0771603275,
       484770.05931639165
      ],
      [
       1278290.0359795052,
       484767.4610055545
      ],
      [
       1278295.2326011793,
       484761.37864391
      ],
      [
       1278298.2737820016,
       484763.97695474717
      ]
     ]
    },
    "label": "CONCRETE STOOP  8' x 4'",
    "areaSqFt": 32,
    "note": "Front concrete stoop at the entrance, met by the leadwalk. Riser count and handrail per the architectural plans and the building code.",
    "improvement": "Stoop",
    "impervious": true
   }
  },
  {
   "type": "Feature",
   "geometry": {
    "type": "Polygon",
    "coordinates": [
     [
      [
       -77.1196149054382,
       38.997664628969254
      ],
      [
       -77.11978271070852,
       38.99781748572932
      ],
      [
       -77.1197907272854,
       38.99781212687766
      ],
      [
       -77.11962292201049,
       38.99765927012894
      ],
      [
       -77.1196149054382,
       38.997664628969254
      ]
     ]
    ]
   },
   "properties": {
    "id": "sidewalk",
    "kind": "Pavement",
    "sourceId": "gis1",
    "reliabilityLevel": 1,
    "revision": 1,
    "engineeringGeometry": {
     "crs": "EPSG:2248",
     "crsName": "NAD83 / Maryland State Plane (US survey feet)",
     "datum": "NAD83",
     "unit": "usSurveyFoot",
     "coordinates": [
      [
       1278338.4848547876,
       484755.4168448895
      ],
      [
       1278290.8672628105,
       484811.15063372254
      ],
      [
       1278288.5863771937,
       484809.2019005947
      ],
      [
       1278336.2039691708,
       484753.4681117617
      ],
      [
       1278338.4848547876,
       484755.4168448895
      ]
     ]
    },
    "label": "CONCRETE SIDEWALK  3' WIDE",
    "areaSqFt": 219.91637627780437,
    "note": "Public sidewalk across the frontage, inside the front property line. Whether it is to be built, reconstructed or waived is a DPW&T determination at street construction permit.",
    "improvement": "Sidewalk",
    "impervious": true
   }
  },
  {
   "type": "Feature",
   "geometry": {
    "type": "Polygon",
    "coordinates": [
     [
      [
       -77.11960421667324,
       38.99767177408883
      ],
      [
       -77.11977202193746,
       38.997824630864
      ],
      [
       -77.11978271070852,
       38.99781748572932
      ],
      [
       -77.1196149054382,
       38.997664628969254
      ],
      [
       -77.11960421667324,
       38.99767177408883
      ]
     ]
    ]
   },
   "properties": {
    "id": "verge",
    "kind": "Surface",
    "sourceId": "gis1",
    "reliabilityLevel": 1,
    "revision": 1,
    "engineeringGeometry": {
     "crs": "EPSG:2248",
     "crsName": "NAD83 / Maryland State Plane (US survey feet)",
     "datum": "NAD83",
     "unit": "usSurveyFoot",
     "coordinates": [
      [
       1278341.52603561,
       484758.0151557267
      ],
      [
       1278293.9084436328,
       484813.7489445597
      ],
      [
       1278290.8672628105,
       484811.15063372254
      ],
      [
       1278338.4848547876,
       484755.4168448895
      ],
      [
       1278341.52603561,
       484758.0151557267
      ]
     ]
    },
    "label": "PLANTING STRIP  4' WIDE  (STREET TREES)",
    "areaSqFt": 293.22183503210545,
    "note": "Landscaped strip between the sidewalk and the curb, in the strip dedicated to public use. Street tree species, spacing and clear distances are set by the Landscape Manual and by DPW&T; this shows the STRIP, not a planting schedule.",
    "improvement": "Verge",
    "impervious": false
   }
  },
  {
   "type": "Feature",
   "geometry": {
    "type": "Polygon",
    "coordinates": [
     [
      [
       -77.11960020838583,
       38.99767445350843
      ],
      [
       -77.11976801364777,
       38.997827310289246
      ],
      [
       -77.11977202193746,
       38.997824630864
      ],
      [
       -77.11960421667324,
       38.99767177408883
      ],
      [
       -77.11960020838583,
       38.99767445350843
      ]
     ]
    ]
   },
   "properties": {
    "id": "curb",
    "kind": "Pavement",
    "sourceId": "gis1",
    "reliabilityLevel": 1,
    "revision": 1,
    "engineeringGeometry": {
     "crs": "EPSG:2248",
     "crsName": "NAD83 / Maryland State Plane (US survey feet)",
     "datum": "NAD83",
     "unit": "usSurveyFoot",
     "coordinates": [
      [
       1278342.666478418,
       484758.98952229065
      ],
      [
       1278295.048886441,
       484814.7233111237
      ],
      [
       1278293.9084436328,
       484813.7489445597
      ],
      [
       1278341.52603561,
       484758.0151557267
      ],
      [
       1278342.666478418,
       484758.98952229065
      ]
     ]
    },
    "label": "CURB AND GUTTER",
    "areaSqFt": 109.9581881314516,
    "note": "Curb and gutter at the street face of the planting strip, 4 ft outside the front property line, where the frontage meets the travelled way. Depressed through every driveway apron per DPW&T STD. 300.01 note 6.",
    "improvement": "Sidewalk",
    "impervious": true
   }
  },
  {
   "type": "Feature",
   "geometry": {
    "type": "Polygon",
    "coordinates": [
     [
      [
       -77.11970185777551,
       38.9977711833806
      ],
      [
       -77.11966134199017,
       38.997733196104846
      ],
      [
       -77.11969108275659,
       38.9977245976102
      ],
      [
       -77.11971809328267,
       38.997749922455455
      ],
      [
       -77.11970185777551,
       38.9977711833806
      ]
     ]
    ]
   },
   "properties": {
    "id": "apron",
    "kind": "Pavement",
    "sourceId": "gis1",
    "reliabilityLevel": 1,
    "revision": 1,
    "engineeringGeometry": {
     "crs": "EPSG:2248",
     "crsName": "NAD83 / Maryland State Plane (US survey feet)",
     "datum": "NAD83",
     "unit": "usSurveyFoot",
     "coordinates": [
      [
       1278313.8236889315,
       484794.2569277175
      ],
      [
       1278325.320215008,
       484780.4066609992
      ],
      [
       1278316.8637236007,
       484777.28612369375
      ],
      [
       1278309.199372883,
       484786.5196348393
      ],
      [
       1278313.8236889315,
       484794.2569277175
      ]
     ]
    },
    "label": "PROPOSED 18' DRIVEWAY APRON  PER MCDOT STANDARD",
    "areaSqFt": 127.49999999627471,
    "note": "Driveway apron at the front property line, at street level, between the curb and the driveway. The mcdot standard govern the depression, jointing and curb cut.",
    "improvement": "Apron",
    "impervious": true
   }
  },
  {
   "type": "Feature",
   "geometry": {
    "type": "Polygon",
    "coordinates": [
     [
      [
       -77.11991743255622,
       38.99765026093253
      ],
      [
       -77.11984967579318,
       38.9975867328992
      ],
      [
       -77.11962292201049,
       38.99765927012894
      ],
      [
       -77.1196149054382,
       38.997664628969254
      ],
      [
       -77.11960421667324,
       38.99767177408883
      ],
      [
       -77.11960020838583,
       38.99767445350843
      ],
      [
       -77.11966134199017,
       38.997733196104846
      ],
      [
       -77.11970185777551,
       38.9977711833806
      ],
      [
       -77.11976801364777,
       38.997827310289246
      ],
      [
       -77.1197907272854,
       38.99781212687766
      ],
      [
       -77.11991743255622,
       38.99765026093253
      ]
     ]
    ]
   },
   "properties": {
    "id": "lod",
    "kind": "LimitOfDisturbance",
    "sourceId": "gis1",
    "reliabilityLevel": 1,
    "revision": 1,
    "engineeringGeometry": {
     "crs": "EPSG:2248",
     "crsName": "NAD83 / Maryland State Plane (US survey feet)",
     "datum": "NAD83",
     "unit": "usSurveyFoot",
     "coordinates": [
      [
       1278252.499084651,
       484750.2967288328
      ],
      [
       1278271.7253387603,
       484727.1341886329
      ],
      [
       1278336.2039691708,
       484753.4681117617
      ],
      [
       1278338.4848547876,
       484755.4168448895
      ],
      [
       1278341.52603561,
       484758.0151557267
      ],
      [
       1278342.666478418,
       484758.98952229065
      ],
      [
       1278325.320215008,
       484780.4066609992
      ],
      [
       1278313.8236889315,
       484794.2569277175
      ],
      [
       1278295.048886441,
       484814.7233111237
      ],
      [
       1278288.5863771937,
       484809.2019005947
      ],
      [
       1278252.499084651,
       484750.2967288328
      ]
     ]
    },
    "note": "Limits of disturbance — proposed work plus a 10 ft working margin, clipped to the property line."
   }
  },
  {
   "type": "Feature",
   "geometry": {
    "type": "Polygon",
    "coordinates": [
     [
      [
       -77.11963249521779,
       38.99766489520116
      ],
      [
       -77.11993209887972,
       38.997477403408844
      ],
      [
       -77.12005386409432,
       38.99758475570895
      ],
      [
       -77.12007674094076,
       38.99760406691367
      ],
      [
       -77.119784247197,
       38.997803809680256
      ],
      [
       -77.11975292781733,
       38.997774017259616
      ],
      [
       -77.1197147354386,
       38.99773835950196
      ],
      [
       -77.11964691338109,
       38.99767837815462
      ],
      [
       -77.11963249521779,
       38.99766489520116
      ]
     ]
    ]
   },
   "properties": {
    "id": "grade-40",
    "kind": "ProposedFeature",
    "sourceId": "design",
    "reliabilityLevel": 1,
    "revision": 1,
    "engineeringGeometry": {
     "crs": "EPSG:2248",
     "crsName": "NAD83 / Maryland State Plane (US survey feet)",
     "datum": "NAD83",
     "unit": "usSurveyFoot",
     "coordinates": [
      [
       1278333.4859264134,
       484755.520358705
      ],
      [
       1278248.2481719945,
       484687.3465649385
      ],
      [
       1278213.6935481112,
       484726.49033705075
      ],
      [
       1278207.2011401919,
       484733.53213285544
      ],
      [
       1278290.4240545365,
       484806.17031581845
      ],
      [
       1278299.3108423443,
       484795.3080775302
      ],
      [
       1278310.1481560317,
       484782.3070933403
      ],
      [
       1278329.3946875795,
       484760.436293272
      ],
      [
       1278333.4859264134,
       484755.520358705
      ]
     ]
    },
    "type": "Graded area",
    "proposed": true,
    "contourIntervalFt": 2,
    "note": "Positive drainage away from structure at 2% minimum for the first 10 ft."
   }
  },
  {
   "type": "Feature",
   "geometry": {
    "type": "Point",
    "coordinates": [
     -77.11979956995705,
     38.99766742384588
    ]
   },
   "properties": {
    "id": "ffe-41",
    "kind": "SpotElevation",
    "sourceId": "design",
    "reliabilityLevel": 1,
    "revision": 1,
    "engineeringGeometry": {
     "crs": "EPSG:2248",
     "crsName": "NAD83 / Maryland State Plane (US survey feet)",
     "datum": "NAD83",
     "unit": "usSurveyFoot",
     "coordinates": [
      [
       1278286.0041136262,
       484756.50357415446
      ]
     ]
    },
    "label": "FFE",
    "note": "Finished floor elevation to be set above the adjacent grade per code."
   }
  },
  {
   "type": "Feature",
   "geometry": {
    "type": "LineString",
    "coordinates": [
     [
      -77.11956999543116,
      38.99777908903933
     ],
     [
      -77.11974861708217,
      38.997663082762905
     ]
    ]
   },
   "properties": {
    "id": "util-42",
    "kind": "Utility",
    "sourceId": "design",
    "reliabilityLevel": 1,
    "revision": 1,
    "engineeringGeometry": {
     "crs": "EPSG:2248",
     "crsName": "NAD83 / Maryland State Plane (US survey feet)",
     "datum": "NAD83",
     "unit": "usSurveyFoot",
     "coordinates": [
      [
       1278351.3029829015,
       484797.087098616
      ],
      [
       1278300.4829622179,
       484754.90352880553
      ]
     ]
    },
    "type": "Water service (WHC)",
    "size": "1\" COPPER FROM EX. 8\" MAIN",
    "sizeAtHouse": "1\" COPPER",
    "from": "frontage",
    "note": "Record information. Field verification required before excavation — call Miss Utility."
   }
  },
  {
   "type": "Feature",
   "geometry": {
    "type": "LineString",
    "coordinates": [
     [
      -77.1195925041829,
      38.997800193100545
     ],
     [
      -77.11977112585018,
      38.99768418679028
     ]
    ]
   },
   "properties": {
    "id": "util-43",
    "kind": "Utility",
    "sourceId": "design",
    "reliabilityLevel": 1,
    "revision": 1,
    "engineeringGeometry": {
     "crs": "EPSG:2248",
     "crsName": "NAD83 / Maryland State Plane (US survey feet)",
     "datum": "NAD83",
     "unit": "usSurveyFoot",
     "coordinates": [
      [
       1278344.91602397,
       484804.78169123735
      ],
      [
       1278294.0960032863,
       484762.5981214268
      ]
     ]
    },
    "type": "Sanitary lateral (SHC)",
    "size": "4\" PVC TO EX. 8\" MAIN",
    "sizeAtHouse": "4\" PVC",
    "from": "frontage",
    "note": "Record information. Field verification required before excavation — call Miss Utility."
   }
  },
  {
   "type": "Feature",
   "geometry": {
    "type": "Polygon",
    "coordinates": [
     [
      [
       -77.11992034629095,
       38.99751095829533
      ],
      [
       -77.11986899391266,
       38.997511010924526
      ],
      [
       -77.11986906134246,
       38.997551083079834
      ],
      [
       -77.11992041374963,
       38.99755103045061
      ],
      [
       -77.11992034629095,
       38.99751095829533
      ]
     ]
    ]
   },
   "properties": {
    "id": "swm-44",
    "kind": "SWMPractice",
    "sourceId": "design",
    "reliabilityLevel": 1,
    "revision": 1,
    "engineeringGeometry": {
     "crs": "EPSG:2248",
     "crsName": "NAD83 / Maryland State Plane (US survey feet)",
     "datum": "NAD83",
     "unit": "usSurveyFoot",
     "coordinates": [
      [
       1278251.6043471124,
       484699.5630469149
      ],
      [
       1278266.1988666316,
       484699.5630469149
      ],
      [
       1278266.1988666316,
       484714.15756643424
      ],
      [
       1278251.6043471124,
       484714.15756643424
      ],
      [
       1278251.6043471124,
       484699.5630469149
      ]
     ]
    },
    "practice": "Environmental Site Design — micro-bioretention",
    "requiredVolumeCf": 170,
    "footprintSqFt": 213,
    "pondingDepthFt": 2
   }
  },
  {
   "type": "Feature",
   "geometry": {
    "type": "Polygon",
    "coordinates": [
     [
      [
       -77.1196149054382,
       38.997664628969254
      ],
      [
       -77.11994050888916,
       38.99746534506809
      ],
      [
       -77.12007010421728,
       38.997579476204
      ],
      [
       -77.12009362453408,
       38.997600207564616
      ],
      [
       -77.11978271070852,
       38.99781748572932
      ],
      [
       -77.11974724288372,
       38.99778700927499
      ],
      [
       -77.11970273203978,
       38.99774839630759
      ],
      [
       -77.11962939420513,
       38.99767963528019
      ],
      [
       -77.1196149054382,
       38.997664628969254
      ]
     ]
    ]
   },
   "properties": {
    "id": "da-45",
    "kind": "DrainageArea",
    "sourceId": "design",
    "reliabilityLevel": 1,
    "revision": 1,
    "engineeringGeometry": {
     "crs": "EPSG:2248",
     "crsName": "NAD83 / Maryland State Plane (US survey feet)",
     "datum": "NAD83",
     "unit": "usSurveyFoot",
     "coordinates": [
      [
       1278338.4848547876,
       484755.4168448895
      ],
      [
       1278245.852251768,
       484682.9579927027
      ],
      [
       1278209.0755339563,
       484724.5735832155
      ],
      [
       1278202.4009313285,
       484732.13284915686
      ],
      [
       1278290.8672628105,
       484811.15063372254
      ],
      [
       1278300.932717815,
       484800.0377202183
      ],
      [
       1278313.5643390417,
       484785.9580786377
      ],
      [
       1278334.37427634,
       484760.8876199573
      ],
      [
       1278338.4848547876,
       484755.4168448895
      ]
     ]
    },
    "areaAcres": 0.1891,
    "percentImpervious": 22,
    "compositeC": 0.404
   }
  },
  {
   "type": "Feature",
   "geometry": {
    "type": "Polygon",
    "coordinates": [
     [
      [
       -77.11991735860289,
       38.99760632975201
      ],
      [
       -77.119811800252,
       38.99760643790767
      ],
      [
       -77.11981187414024,
       38.99765036908825
      ],
      [
       -77.11991743255622,
       38.99765026093253
      ],
      [
       -77.11991735860289,
       38.99760632975201
      ]
     ]
    ]
   },
   "properties": {
    "id": "sce-47",
    "kind": "ProposedFeature",
    "sourceId": "design",
    "reliabilityLevel": 1,
    "revision": 1,
    "engineeringGeometry": {
     "crs": "EPSG:2248",
     "crsName": "NAD83 / Maryland State Plane (US survey feet)",
     "datum": "NAD83",
     "unit": "usSurveyFoot",
     "coordinates": [
      [
       1278252.499084651,
       484734.2967288328
      ],
      [
       1278282.499084651,
       484734.2967288328
      ],
      [
       1278282.499084651,
       484750.2967288328
      ],
      [
       1278252.499084651,
       484750.2967288328
      ],
      [
       1278252.499084651,
       484734.2967288328
      ]
     ]
    },
    "type": "Stabilized construction entrance",
    "note": "Mountable berm, washrack where required."
   }
  },
  {
   "type": "Feature",
   "geometry": {
    "type": "Polygon",
    "coordinates": [
     [
      [
       -77.11967011069491,
       38.997709051489714
      ],
      [
       -77.11963492452712,
       38.9977090874778
      ],
      [
       -77.11963497063915,
       38.99773654446519
      ],
      [
       -77.1196701568205,
       38.99773650847708
      ],
      [
       -77.11967011069491,
       38.997709051489714
      ]
     ]
    ]
   },
   "properties": {
    "id": "street-tree-49",
    "kind": "Tree",
    "sourceId": "design",
    "reliabilityLevel": 1,
    "revision": 1,
    "engineeringGeometry": {
     "crs": "EPSG:2248",
     "crsName": "NAD83 / Maryland State Plane (US survey feet)",
     "datum": "NAD83",
     "unit": "usSurveyFoot",
     "coordinates": [
      [
       1278322.8166040014,
       484771.61632876325
      ],
      [
       1278332.8166040014,
       484771.61632876325
      ],
      [
       1278332.8166040014,
       484781.61632876325
      ],
      [
       1278322.8166040014,
       484781.61632876325
      ],
      [
       1278322.8166040014,
       484771.61632876325
      ]
     ]
    }
   }
  }
 ],
 "kealee": {
  "siteId": "8700 BRADMOOR DR",
  "modelRevision": 8,
  "geoJsonCrs": "EPSG:4326 (RFC 7946, longitude first)",
  "sourceCrs": "EPSG:2248",
  "sourceCrsName": "NAD83 / Maryland State Plane (US survey feet)",
  "horizontalDatum": "NAD83",
  "verticalDatum": "NAVD88 (feet)",
  "transformer": "registry (proj4 + arcgis-geometry-service (https://sampleserver6.arcgisonline.com/arcgis/rest/services/Utilities/Geometry/GeometryServer))",
  "note": "Geometry is WGS84 per RFC 7946. Original engineering coordinates are preserved per feature under properties.engineeringGeometry."
 }
}